"STATION","DATE","SOURCE","LATITUDE","LONGITUDE","ELEVATION","NAME","REPORT_TYPE","CALL_SIGN","QUALITY_CONTROL","WND","CIG","VIS","TMP","DEW","SLP","AA1","AA2","AA3","AJ1","AY1","AY2","GA1","GE1","GF1","IA2","KA1","KA2","MA1","MD1","MW1","OC1","OD1","REM"
"54511099999","2022-01-01T00:00:00","4","40.080111","116.584556","35.35","BEIJING CAPITAL INTERNATIONAL AIRPORT, CH","FM-12","99999","V020","047,1,N,0004,1","99999,9,9,9","005600,1,9,9","-0064,1","-0104,1","10255,1","06,9999,9,9","24,0000,9,1",,"9999,9,9,999999,9,9","0,1,12,1","0,1,12,1",,,,"999,-0127,9","240,M,+0053,1","240,N,-0065,1","99999,9,10211,1","7,1,003,1,-093,1","05,1",,"4,12,0024,1,034","SYN004BUFR"
"54511099999","2022-01-01T00:00:00","4","40.080111","116.584556","35.35","BEIJING CAPITAL INTERNATIONAL AIRPORT, CH","FM-15","99999","V020","320,1,N,0010,1","99999,9,9,Y","009900,5,9,9","-0080,1","-0120,1","99999,9",,,,,,,,,,,,,"10250,1,99999,9",,,,,"MET054METAR ZBAA 010000Z 32001MPS CAVOK M08/M12 Q1025 NOSIG="
"54511099999","2022-01-01T00:30:00","4","40.080111","116.584556","35.35","BEIJING CAPITAL INTERNATIONAL AIRPORT, CH","FM-15","99999","V020","330,1,N,0010,1","99999,9,9,Y","009900,5,9,9","-0050,1","-0080,1","99999,9",,,,,,,,,,,,,"10250,1,99999,9",,,,,"MET054METAR ZBAA 010030Z 33001MPS CAVOK M05/M08 Q1025 NOSIG="
"54511099999","2022-01-01T01:00:00","4","40.080111","116.584556","35.35","BEIJING CAPITAL INTERNATIONAL AIRPORT, CH","FM-15","99999","V020","330,1,N,0020,1","99999,9,9,Y","009900,5,9,9","-0020,1","-0090,1","99999,9",,,,,,,,,,,,,"10260,1,99999,9",,,,,"MET054METAR ZBAA 010100Z 33002MPS CAVOK M02/M09 Q1026 NOSIG="
"54511099999","2022-01-01T01:30:00","4","40.080111","116.584556","35.35","BEIJING CAPITAL INTERNATIONAL AIRPORT, CH","FM-15","99999","V020","330,1,V,0020,1","99999,9,9,Y","009900,5,9,9","-0020,1","-0090,1","99999,9",,,,,,,,,,,,,"10260,1,99999,9",,,,,"MET062METAR ZBAA 010130Z 33002MPS 280V350 CAVOK M02/M09 Q1026 NOSIG="
"54511099999","2022-01-01T02:00:00","4","40.080111","116.584556","35.35","BEIJING CAPITAL INTERNATIONAL AIRPORT, CH","FM-15","99999","V020","999,9,V,0010,1","99999,9,9,Y","009900,5,9,9","-0010,1","-0090,1","99999,9",,,,,,,,,,,,,"10260,1,99999,9",,,,,"MET054METAR ZBAA 010200Z VRB01MPS CAVOK M01/M09 Q1026 NOSIG="
"54511099999","2022-01-01T02:30:00","4","40.080111","116.584556","35.35","BEIJING CAPITAL INTERNATIONAL AIRPORT, CH","FM-15","99999","V020","330,1,N,0020,1","99999,9,9,Y","009900,5,9,9","+0000,1","-0100,1","99999,9",,,,,,,,,,,,,"10250,1,99999,9",,,,,"MET053METAR ZBAA 010230Z 33002MPS CAVOK 00/M10 Q1025 NOSIG="
"54511099999","2022-01-01T03:00:00","4","40.080111","116.584556","35.35","BEIJING CAPITAL INTERNATIONAL AIRPORT, CH","FM-12","99999","V020","242,1,N,0012,1","99999,9,9,9","013700,1,9,9","+0022,1","-0085,1","10255,1","06,9999,9,9","12,9999,9,9","24,9999,9,9",,"0,1,03,1","0,1,03,1",,,,"999,-0127,9","240,M,+0053,1","240,N,-0065,1","99999,9,10211,1","4,1,000,1,-092,1","00,1",,"4,12,0024,1,034","SYN004BUFR"
"54511099999","2022-01-01T03:00:00","4","40.080111","116.584556","35.35","BEIJING CAPITAL INTERNATIONAL AIRPORT, CH","FM-15","99999","V020","310,1,V,0020,1","99999,9,9,Y","009900,5,9,9","+0010,1","-0100,1","99999,9",,,,,,,,,,,,,"10250,1,99999,9",,,,,"MET061METAR ZBAA 010300Z 31002MPS 240V020 CAVOK 01/M10 Q1025 NOSIG="
"54511099999","2022-01-01T03:30:00","4","40.080111","116.584556","35.35","BEIJING CAPITAL INTERNATIONAL AIRPORT, CH","FM-15","99999","V020","320,1,V,0020,1","99999,9,9,Y","009900,5,9,9","+0020,1","-0110,1","99999,9",,,,,,,,,,,,,"10250,1,99999,9",,,,,"MET061METAR ZBAA 010330Z 32002MPS 290V350 CAVOK 02/M11 Q1025 NOSIG="
"54511099999","2022-01-01T04:00:00","4","40.080111","116.584556","35.35","BEIJING CAPITAL INTERNATIONAL AIRPORT, CH","FM-15","99999","V020","999,9,V,0010,1","99999,9,9,Y","009900,5,9,9","+0030,1","-0110,1","99999,9",,,,,,,,,,,,,"10240,1,99999,9",,,,,"MET053METAR ZBAA 010400Z VRB01MPS CAVOK 03/M11 Q1024 NOSIG="
"54511099999","2022-01-01T04:30:00","4","40.080111","116.584556","35.35","BEIJING CAPITAL INTERNATIONAL AIRPORT, CH","FM-15","99999","V020","320,1,V,0020,1","99999,9,9,Y","009900,5,9,9","+0040,1","-0110,1","99999,9",,,,,,,,,,,,,"10240,1,99999,9",,,,,"MET061METAR ZBAA 010430Z 32002MPS 260V360 CAVOK 04/M11 Q1024 NOSIG="
"54511099999","2022-01-01T05:00:00","4","40.080111","116.584556","35.35","BEIJING CAPITAL INTERNATIONAL AIRPORT, CH","FM-15","99999","V020","270,1,V,0020,1","99999,9,9,Y","009900,5,9,9","+0040,1","-0120,1","99999,9",,,,,,,,,,,,,"10240,1,99999,9",,,,,"MET061METAR ZBAA 010500Z 27002MPS 220V330 CAVOK 04/M12 Q1024 NOSIG="
"54511099999","2022-01-01T05:30:00","4","40.080111","116.584556","35.35","BEIJING CAPITAL INTERNATIONAL AIRPORT, CH","FM-15","99999","V020","260,1,V,0030,1","99999,9,9,Y","009900,5,9,9","+0050,1","-0120,1","99999,9",,,,,,,,,,,,,"10240,1,99999,9",,,,,"MET061METAR ZBAA 010530Z 26003MPS 190V300 CAVOK 05/M12 Q1024 NOSIG="
"54511099999","2022-01-01T06:00:00","4","40.080111","116.584556","35.35","BEIJING CAPITAL INTERNATIONAL AIRPORT, CH","FM-12","99999","V020","301,1,N,0033,1","99999,9,9,9","016900,1,9,9","+0082,1","-0127,1","10239,1","06,9999,9,9","24,0000,9,1",,"9999,9,9,999999,9,9","0,1,06,1","0,1,06,1",,,,"999,-0127,9","240,M,+0083,1","240,N,-0065,1","99999,9,10196,1","7,1,015,1,-063,1","00,1","0070,1","4,12,0070,1,318","SYN004BUFR"
"54511099999","2022-01-01T06:00:00","4","40.080111","116.584556","35.35","BEIJING CAPITAL INTERNATIONAL AIRPORT, CH","FM-15","99999","V020","999,9,V,0010,1","99999,9,9,Y","009900,5,9,9","+0070,1","-0130,1","99999,9",,,,,,,,,,,,,"10230,1,99999,9",,,,,"MET072METAR ZBAA 010600Z VRB01MPS CAVOK 07/M13 Q1023 BECMG TL0720 32008G15MPS="
"54511099999","2022-01-01T06:30:00","4","40.080111","116.584556","35.35","BEIJING CAPITAL INTERNATIONAL AIRPORT, CH","FM-15","99999","V020","300,1,N,0080,1","99999,9,9,Y","009900,5,9,9","+0080,1","-0150,1","99999,9",,,,,,,,,,,,,"10240,1,99999,9",,,,,"MET053METAR ZBAA 010630Z 30008MPS CAVOK 08/M15 Q1024 NOSIG="
"54511099999","2022-01-01T07:00:00","4","40.080111","116.584556","35.35","BEIJING CAPITAL INTERNATIONAL AIRPORT, CH","FM-15","99999","V020","300,1,V,0080,1","99999,9,9,Y","009900,5,9,9","+0080,1","-0150,1","99999,9",,,,,,,,,,,,,"10250,1,99999,9",,,,,"MET061METAR ZBAA 010700Z 30008MPS 270V330 CAVOK 08/M15 Q1025 NOSIG="
"54511099999","2022-01-01T07:30:00","4","40.080111","116.584556","35.35","BEIJING CAPITAL INTERNATIONAL AIRPORT, CH","FM-15","99999","V020","330,1,N,0100,1","99999,9,9,Y","009900,5,9,9","+0070,1","-0160,1","99999,9",,,,,,,,,,,,,"10250,1,99999,9",,,,,"MET053METAR ZBAA 010730Z 33010MPS CAVOK 07/M16 Q1025 NOSIG="
"54511099999","2022-01-01T08:00:00","4","40.080111","116.584556","35.35","BEIJING CAPITAL INTERNATIONAL AIRPORT, CH","FM-15","99999","V020","320,1,N,0090,1","99999,9,9,Y","009900,5,9,9","+0060,1","-0160,1","99999,9",,,,,,,,,,,,,"10260,1,99999,9",,,,,"MET053METAR ZBAA 010800Z 32009MPS CAVOK 06/M16 Q1026 NOSIG="
"54511099999","2022-01-01T08:30:00","4","40.080111","116.584556","35.35","BEIJING CAPITAL INTERNATIONAL AIRPORT, CH","FM-15","99999","V020","330,1,N,0100,1","99999,9,9,Y","009900,5,9,9","+0050,1","-0180,1","99999,9",,,,,,,,,,,,,"10270,1,99999,9",,,,,"MET053METAR ZBAA 010830Z 33010MPS CAVOK 05/M18 Q1027 NOSIG="
"54511099999","2022-01-01T09:00:00","4","40.080111","116.584556","35.35","BEIJING CAPITAL INTERNATIONAL AIRPORT, CH","FM-12","99999","V020","311,1,N,0042,1","99999,9,9,9","030000,1,9,9","+0055,1","-0164,1","10275,1","06,9999,9,9","12,9999,9,9","24,9999,9,9",,"0,1,03,1","0,1,03,1",,,,"999,-0127,9","240,M,+0083,1","240,N,-0065,1","99999,9,10231,1","2,1,035,1,-016,1","00,1","0119,1","4,12,0119,1,315","SYN004BUFR"
"54511099999","2022-01-01T09:00:00","4","40.080111","116.584556","35.35","BEIJING CAPITAL INTERNATIONAL AIRPORT, CH","FM-15","99999","V020","310,1,N,0100,1","99999,9,9,Y","009900,5,9,9","+0040,1","-0190,1","99999,9",,,,,,,,,,,,,"10270,1,99999,9",,,,,"MET053METAR ZBAA 010900Z 31010MPS CAVOK 04/M19 Q1027 NOSIG="
"54511099999","2022-01-01T09:30:00","4","40.080111","116.584556","35.35","BEIJING CAPITAL INTERNATIONAL AIRPORT, CH","FM-15","99999","V020","310,1,N,0100,1","99999,9,9,Y","009900,5,9,9","+0030,1","-0200,1","99999,9",,,,,,,,,,,,,"10280,1,99999,9",,,,,"MET053METAR ZBAA 010930Z 31010MPS CAVOK 03/M20 Q1028 NOSIG="
"54511099999","2022-01-01T10:00:00","4","40.080111","116.584556","35.35","BEIJING CAPITAL INTERNATIONAL AIRPORT, CH","FM-15","99999","V020","320,1,N,0090,1","99999,9,9,Y","009900,5,9,9","+0030,1","-0190,1","99999,9",,,,,,,,,,,,,"10290,1,99999,9",,,,,"MET053METAR ZBAA 011000Z 32009MPS CAVOK 03/M19 Q1029 NOSIG="
"54511099999","2022-01-01T10:30:00","4","40.080111","116.584556","35.35","BEIJING CAPITAL INTERNATIONAL AIRPORT, CH","FM-15","99999","V020","320,1,N,0070,1","99999,9,9,Y","009900,5,9,9","+0020,1","-0190,1","99999,9",,,,,,,,,,,,,"10300,1,99999,9",,,,,"MET053METAR ZBAA 011030Z 32007MPS CAVOK 02/M19 Q1030 NOSIG="
"54511099999","2022-01-01T11:00:00","4","40.080111","116.584556","35.35","BEIJING CAPITAL INTERNATIONAL AIRPORT, CH","FM-15","99999","V020","310,1,N,0090,1","99999,9,9,Y","009900,5,9,9","+0010,1","-0190,1","99999,9",,,,,,,,,,,,,"10300,1,99999,9",,,,,"MET069METAR ZBAA 011100Z 31009MPS CAVOK 01/M19 Q1030 BECMG TL1240 33004MPS="
"54511099999","2022-01-01T11:30:00","4","40.080111","116.584556","35.35","BEIJING CAPITAL INTERNATIONAL AIRPORT, CH","FM-15","99999","V020","330,1,N,0080,1","99999,9,9,Y","009900,5,9,9","+0010,1","-0190,1","99999,9",,,,,,,,,,,,,"10310,1,99999,9",,,,,"MET053METAR ZBAA 011130Z 33008MPS CAVOK 01/M19 Q1031 NOSIG="
"54511099999","2022-01-01T12:00:00","4","40.080111","116.584556","35.35","BEIJING CAPITAL INTERNATIONAL AIRPORT, CH","FM-12","99999","V020","345,1,N,0040,1","99999,9,9,9","030000,1,9,9","+0020,1","-0170,1","10319,1","06,9999,9,9","24,0000,9,1",,"9999,9,9,999999,9,9","0,1,06,1","0,1,06,1",,,,"999,-0103,9","240,M,+0083,1","240,N,-0065,1","99999,9,10275,1","2,1,044,1,+026,1","00,1","0119,1","4,12,0119,1,315","SYN004BUFR"
"54511099999","2022-01-01T12:00:00","4","40.080111","116.584556","35.35","BEIJING CAPITAL INTERNATIONAL AIRPORT, CH","FM-15","99999","V020","320,1,N,0090,1","99999,9,9,Y","009900,5,9,9","+0010,1","-0190,1","99999,9",,,,,,,,,,,,,"10320,1,99999,9",,,,,"MET053METAR ZBAA 011200Z 32009MPS CAVOK 01/M19 Q1032 NOSIG="
"54511099999","2022-01-01T12:30:00","4","40.080111","116.584556","35.35","BEIJING CAPITAL INTERNATIONAL AIRPORT, CH","FM-15","99999","V020","320,1,N,0070,1","99999,9,9,Y","009900,5,9,9","+0000,1","-0170,1","99999,9",,,,,,,,,,,,,"10320,1,99999,9",,,,,"MET054METAR ZBAA 011230Z 32007MPS CAVOK M00/M17 Q1032 NOSIG="
"54511099999","2022-01-01T13:00:00","4","40.080111","116.584556","35.35","BEIJING CAPITAL INTERNATIONAL AIRPORT, CH","FM-15","99999","V020","320,1,N,0060,1","99999,9,9,Y","009900,5,9,9","-0010,1","-0170,1","99999,9",,,,,,,,,,,,,"10320,1,99999,9",,,,,"MET054METAR ZBAA 011300Z 32006MPS CAVOK M01/M17 Q1032 NOSIG="
"54511099999","2022-01-01T13:30:00","4","40.080111","116.584556","35.35","BEIJING CAPITAL INTERNATIONAL AIRPORT, CH","FM-15","99999","V020","330,1,N,0050,1","99999,9,9,Y","009900,5,9,9","-0010,1","-0170,1","99999,9",,,,,,,,,,,,,"10330,1,99999,9",,,,,"MET054METAR ZBAA 011330Z 33005MPS CAVOK M01/M17 Q1033 NOSIG="
"54511099999","2022-01-01T14:00:00","4","40.080111","116.584556","35.35","BEIJING CAPITAL INTERNATIONAL AIRPORT, CH","FM-15","99999","V020","330,1,N,0050,1","99999,9,9,Y","009900,5,9,9","-0020,1","-0180,1","99999,9",,,,,,,,,,,,,"10330,1,99999,9",,,,,"MET054METAR ZBAA 011400Z 33005MPS CAVOK M02/M18 Q1033 NOSIG="
"54511099999","2022-01-01T14:30:00","4","40.080111","116.584556","35.35","BEIJING CAPITAL INTERNATIONAL AIRPORT, CH","FM-15","99999","V020","340,1,N,0050,1","99999,9,9,Y","009900,5,9,9","-0040,1","-0170,1","99999,9",,,,,,,,,,,,,"10330,1,99999,9",,,,,"MET054METAR ZBAA 011430Z 34005MPS CAVOK M04/M17 Q1033 NOSIG="
"54511099999","2022-01-01T15:00:00","4","40.080111","116.584556","35.35","BEIJING CAPITAL INTERNATIONAL AIRPORT, CH","FM-12","99999","V020","007,1,N,0050,1","99999,9,9,9","030000,1,9,9","-0005,1","-0182,1","10333,1","06,9999,9,9","12,9999,9,9","24,9999,9,9",,,,,,,"999,-0048,9","240,M,+0083,1","240,N,-0065,1","99999,9,10289,1","2,1,014,1,+046,1","00,1","0119,1","4,12,0119,1,315","SYN004BUFR"
"54511099999","2022-01-01T15:00:00","4","40.080111","116.584556","35.35","BEIJING CAPITAL INTERNATIONAL AIRPORT, CH","FM-15","99999","V020","340,1,N,0050,1","99999,9,9,Y","009900,5,9,9","-0040,1","-0170,1","99999,9",,,,,,,,,,,,,"10330,1,99999,9",,,,,"MET054METAR ZBAA 011500Z 34005MPS CAVOK M04/M17 Q1033 NOSIG="
"54511099999","2022-01-01T15:30:00","4","40.080111","116.584556","35.35","BEIJING CAPITAL INTERNATIONAL AIRPORT, CH","FM-15","99999","V020","010,1,N,0040,1","99999,9,9,Y","009900,5,9,9","-0030,1","-0170,1","99999,9",,,,,,,,,,,,,"10330,1,99999,9",,,,,"MET054METAR ZBAA 011530Z 01004MPS CAVOK M03/M17 Q1033 NOSIG="
"54511099999","2022-01-01T16:00:00","4","40.080111","116.584556","35.35","BEIJING CAPITAL INTERNATIONAL AIRPORT, CH","FM-15","99999","V020","360,1,N,0040,1","99999,9,9,Y","009900,5,9,9","-0030,1","-0170,1","99999,9",,,,,,,,,,,,,"10330,1,99999,9",,,,,"MET054METAR ZBAA 011600Z 36004MPS CAVOK M03/M17 Q1033 NOSIG="
"54511099999","2022-01-01T16:30:00","4","40.080111","116.584556","35.35","BEIJING CAPITAL INTERNATIONAL AIRPORT, CH","FM-15","99999","V020","330,1,V,0020,1","99999,9,9,Y","009900,5,9,9","-0040,1","-0170,1","99999,9",,,,,,,,,,,,,"10330,1,99999,9",,,,,"MET062METAR ZBAA 011630Z 33002MPS 310V010 CAVOK M04/M17 Q1033 NOSIG="
"54511099999","2022-01-01T17:00:00","4","40.080111","116.584556","35.35","BEIJING CAPITAL INTERNATIONAL AIRPORT, CH","FM-15","99999","V020","999,9,V,0010,1","99999,9,9,Y","009900,5,9,9","-0050,1","-0180,1","99999,9",,,,,,,,,,,,,"10340,1,99999,9",,,,,"MET054METAR ZBAA 011700Z VRB01MPS CAVOK M05/M18 Q1034 NOSIG="
"54511099999","2022-01-01T17:30:00","4","40.080111","116.584556","35.35","BEIJING CAPITAL INTERNATIONAL AIRPORT, CH","FM-15","99999","V020","350,1,N,0010,1","99999,9,9,Y","009900,5,9,9","-0070,1","-0170,1","99999,9",,,,,,,,,,,,,"10340,1,99999,9",,,,,"MET054METAR ZBAA 011730Z 35001MPS CAVOK M07/M17 Q1034 NOSIG="
"54511099999","2022-01-01T18:00:00","4","40.080111","116.584556","35.35","BEIJING CAPITAL INTERNATIONAL AIRPORT, CH","FM-12","99999","V020","021,1,N,0028,1","99999,9,9,9","030000,1,9,9","-0020,1","-0181,1","10335,1","06,9999,9,9","12,9999,9,9","24,9999,9,9",,"0,1,99,9","0,1,99,9",,,,"999,-0065,9","240,M,+0083,1","240,N,-0065,1","99999,9,10292,1","2,1,003,1,+059,1","00,1","0119,1","4,12,0119,1,315","SYN004BUFR"
"54511099999","2022-01-01T18:00:00","4","40.080111","116.584556","35.35","BEIJING CAPITAL INTERNATIONAL AIRPORT, CH","FM-15","99999","V020","350,1,N,0030,1","99999,9,9,Y","009900,5,9,9","-0080,1","-0170,1","99999,9",,,,,,,,,,,,,"10340,1,99999,9",,,,,"MET054METAR ZBAA 011800Z 35003MPS CAVOK M08/M17 Q1034 NOSIG="
"54511099999","2022-01-01T18:30:00","4","40.080111","116.584556","35.35","BEIJING CAPITAL INTERNATIONAL AIRPORT, CH","FM-15","99999","V020","060,1,V,0020,1","99999,9,9,Y","009900,5,9,9","-0090,1","-0160,1","99999,9",,,,,,,,,,,,,"10330,1,99999,9",,,,,"MET062METAR ZBAA 011830Z 06002MPS 360V080 CAVOK M09/M16 Q1033 NOSIG="
"54511099999","2022-01-01T19:00:00","4","40.080111","116.584556","35.35","BEIJING CAPITAL INTERNATIONAL AIRPORT, CH","FM-15","99999","V020","999,9,V,0010,1","99999,9,9,Y","009900,5,9,9","-0070,1","-0160,1","99999,9",,,,,,,,,,,,,"10330,1,99999,9",,,,,"MET054METAR ZBAA 011900Z VRB01MPS CAVOK M07/M16 Q1033 NOSIG="
"54511099999","2022-01-01T19:30:00","4","40.080111","116.584556","35.35","BEIJING CAPITAL INTERNATIONAL AIRPORT, CH","FM-15","99999","V020","999,9,V,0010,1","99999,9,9,Y","009900,5,9,9","-0090,1","-0160,1","99999,9",,,,,,,,,,,,,"10330,1,99999,9",,,,,"MET054METAR ZBAA 011930Z VRB01MPS CAVOK M09/M16 Q1033 NOSIG="
"54511099999","2022-01-01T20:00:00","4","40.080111","116.584556","35.35","BEIJING CAPITAL INTERNATIONAL AIRPORT, CH","FM-15","99999","V020","999,9,V,0010,1","99999,9,9,Y","009900,5,9,9","-0080,1","-0160,1","99999,9",,,,,,,,,,,,,"10330,1,99999,9",,,,,"MET054METAR ZBAA 012000Z VRB01MPS CAVOK M08/M16 Q1033 NOSIG="
"54511099999","2022-01-01T20:30:00","4","40.080111","116.584556","35.35","BEIJING CAPITAL INTERNATIONAL AIRPORT, CH","FM-15","99999","V020","310,1,N,0010,1","99999,9,9,Y","009900,5,9,9","-0100,1","-0160,1","99999,9",,,,,,,,,,,,,"10330,1,99999,9",,,,,"MET054METAR ZBAA 012030Z 31001MPS CAVOK M10/M16 Q1033 NOSIG="
"54511099999","2022-01-01T21:00:00","4","40.080111","116.584556","35.35","BEIJING CAPITAL INTERNATIONAL AIRPORT, CH","FM-12","99999","V020","045,1,N,0018,1","99999,9,9,9","030000,1,9,9","-0045,1","-0173,1","10335,1","06,9999,9,9","12,9999,9,9","24,9999,9,9",,,,,,,"999,-0123,9","240,M,+0083,1","240,N,-0065,1","99999,9,10291,1","7,1,001,1,+077,1","00,1","0114,1","4,12,0114,1,307","SYN004BUFR"
"54511099999","2022-01-01T21:00:00","4","40.080111","116.584556","35.35","BEIJING CAPITAL INTERNATIONAL AIRPORT, CH","FM-15","99999","V020","999,9,V,0010,1","99999,9,9,Y","009900,5,9,9","-0110,1","-0170,1","99999,9",,,,,,,,,,,,,"10330,1,99999,9",,,,,"MET054METAR ZBAA 012100Z VRB01MPS CAVOK M11/M17 Q1033 NOSIG="
"54511099999","2022-01-01T21:30:00","4","40.080111","116.584556","35.35","BEIJING CAPITAL INTERNATIONAL AIRPORT, CH","FM-15","99999","V020","030,1,N,0020,1","99999,9,9,Y","009900,5,9,9","-0110,1","-0150,1","99999,9",,,,,,,,,,,,,"10330,1,99999,9",,,,,"MET054METAR ZBAA 012130Z 03002MPS CAVOK M11/M15 Q1033 NOSIG="
"54511099999","2022-01-01T22:00:00","4","40.080111","116.584556","35.35","BEIJING CAPITAL INTERNATIONAL AIRPORT, CH","FM-15","99999","V020","999,9,V,0010,1","99999,9,9,Y","009900,5,9,9","-0080,1","-0150,1","99999,9",,,,,,,,,,,,,"10330,1,99999,9",,,,,"MET054METAR ZBAA 012200Z VRB01MPS CAVOK M08/M15 Q1033 NOSIG="
"54511099999","2022-01-01T22:30:00","4","40.080111","116.584556","35.35","BEIJING CAPITAL INTERNATIONAL AIRPORT, CH","FM-15","99999","V020","080,1,N,0010,1","99999,9,9,Y","009900,5,9,9","-0110,1","-0160,1","99999,9",,,,,,,,,,,,,"10330,1,99999,9",,,,,"MET054METAR ZBAA 012230Z 08001MPS CAVOK M11/M16 Q1033 NOSIG="
"54511099999","2022-01-01T23:00:00","4","40.080111","116.584556","35.35","BEIJING CAPITAL INTERNATIONAL AIRPORT, CH","FM-15","99999","V020","360,1,V,0020,1","99999,9,9,Y","009900,5,9,9","-0120,1","-0160,1","99999,9",,,,,,,,,,,,,"10330,1,99999,9",,,,,"MET062METAR ZBAA 012300Z 36002MPS 330V040 CAVOK M12/M16 Q1033 NOSIG="
"54511099999","2022-01-01T23:30:00","4","40.080111","116.584556","35.35","BEIJING CAPITAL INTERNATIONAL AIRPORT, CH","FM-15","99999","V020","360,1,N,0020,1","99999,9,9,Y","009900,5,9,9","-0110,1","-0160,1","99999,9",,,,,,,,,,,,,"10330,1,99999,9",,,,,"MET054METAR ZBAA 012330Z 36002MPS CAVOK M11/M16 Q1033 NOSIG="
"54511099999","2022-01-02T00:00:00","4","40.080111","116.584556","35.35","BEIJING CAPITAL INTERNATIONAL AIRPORT, CH","FM-12","99999","V020","235,1,N,0014,1","99999,9,9,9","012100,1,9,9","-0077,1","-0161,1","10342,1","06,9999,9,9","24,0000,9,1",,"9999,9,9,999999,9,9","0,1,12,1","0,1,12,1",,,,"999,-0147,9","240,M,+0083,1","240,N,-0078,1","99999,9,10298,1","2,1,007,1,+087,1","00,1","0096,1","4,12,0096,1,045","SYN004BUFR"
"54511099999","2022-01-02T00:00:00","4","40.080111","116.584556","35.35","BEIJING CAPITAL INTERNATIONAL AIRPORT, CH","FM-15","99999","V020","999,9,C,0000,1","99999,9,9,Y","009900,5,9,9","-0100,1","-0150,1","99999,9",,,,,,,,,,,,,"10330,1,99999,9",,,,,"MET054METAR ZBAA 020000Z 00000MPS CAVOK M10/M15 Q1033 NOSIG="
"54511099999","2022-01-02T00:30:00","4","40.080111","116.584556","35.35","BEIJING CAPITAL INTERNATIONAL AIRPORT, CH","FM-15","99999","V020","999,9,V,0010,1","99999,9,9,Y","009900,5,9,9","-0080,1","-0140,1","99999,9",,,,,,,,,,,,,"10340,1,99999,9",,,,,"MET054METAR ZBAA 020030Z VRB01MPS CAVOK M08/M14 Q1034 NOSIG="
"54511099999","2022-01-02T01:00:00","4","40.080111","116.584556","35.35","BEIJING CAPITAL INTERNATIONAL AIRPORT, CH","FM-15","99999","V020","350,1,N,0020,1","99999,9,9,Y","009900,5,9,9","-0030,1","-0130,1","99999,9",,,,,,,,,,,,,"10340,1,99999,9",,,,,"MET054METAR ZBAA 020100Z 35002MPS CAVOK M03/M13 Q1034 NOSIG="
"54511099999","2022-01-02T01:30:00","4","40.080111","116.584556","35.35","BEIJING CAPITAL INTERNATIONAL AIRPORT, CH","FM-15","99999","V020","320,1,V,0020,1","99999,9,9,Y","009900,5,9,9","-0020,1","-0140,1","99999,9",,,,,,,,,,,,,"10340,1,99999,9",,,,,"MET062METAR ZBAA 020130Z 32002MPS 290V350 CAVOK M02/M14 Q1034 NOSIG="
"54511099999","2022-01-02T02:00:00","4","40.080111","116.584556","35.35","BEIJING CAPITAL INTERNATIONAL AIRPORT, CH","FM-15","99999","V020","999,9,V,0010,1","99999,9,9,Y","009900,5,9,9","-0020,1","-0140,1","99999,9",,,,,,,,,,,,,"10340,1,99999,9",,,,,"MET054METAR ZBAA 020200Z VRB01MPS CAVOK M02/M14 Q1034 NOSIG="
"54511099999","2022-01-02T02:30:00","4","40.080111","116.584556","35.35","BEIJING CAPITAL INTERNATIONAL AIRPORT, CH","FM-15","99999","V020","999,9,V,0010,1","99999,9,9,Y","009900,5,9,9","-0010,1","-0150,1","99999,9",,,,,,,,,,,,,"10340,1,99999,9",,,,,"MET054METAR ZBAA 020230Z VRB01MPS CAVOK M01/M15 Q1034 NOSIG="
"54511099999","2022-01-02T03:00:00","4","40.080111","116.584556","35.35","BEIJING CAPITAL INTERNATIONAL AIRPORT, CH","FM-12","99999","V020","238,1,N,0027,1","99999,9,9,9","030000,1,9,9","-0005,1","-0164,1","10341,1","06,9999,9,9","12,9999,9,9","24,9999,9,9",,"0,1,03,1","0,1,03,1",,,,"999,-0147,9","240,M,+0083,1","240,N,-0078,1","99999,9,10297,1","7,1,001,1,+086,1","00,1","0087,1","4,12,0087,1,360","SYN004BUFR"
"54511099999","2022-01-02T03:00:00","4","40.080111","116.584556","35.35","BEIJING CAPITAL INTERNATIONAL AIRPORT, CH","FM-15","99999","V020","999,9,V,0010,1","99999,9,9,Y","009900,5,9,9","-0010,1","-0160,1","99999,9",,,,,,,,,,,,,"10340,1,99999,9",,,,,"MET054METAR ZBAA 020300Z VRB01MPS CAVOK M01/M16 Q1034 NOSIG="
"54511099999","2022-01-02T03:30:00","4","40.080111","116.584556","35.35","BEIJING CAPITAL INTERNATIONAL AIRPORT, CH","FM-15","99999","V020","999,9,V,0010,1","99999,9,9,Y","009900,5,9,9","+0000,1","-0160,1","99999,9",,,,,,,,,,,,,"10330,1,99999,9",,,,,"MET054METAR ZBAA 020330Z VRB01MPS CAVOK M00/M16 Q1033 NOSIG="
"54511099999","2022-01-02T04:00:00","4","40.080111","116.584556","35.35","BEIJING CAPITAL INTERNATIONAL AIRPORT, CH","FM-15","99999","V020","999,9,V,0020,1","99999,9,9,Y","009900,5,9,9","+0010,1","-0170,1","99999,9",,,,,,,,,,,,,"10320,1,99999,9",,,,,"MET053METAR ZBAA 020400Z VRB02MPS CAVOK 01/M17 Q1032 NOSIG="
"54511099999","2022-01-02T04:30:00","4","40.080111","116.584556","35.35","BEIJING CAPITAL INTERNATIONAL AIRPORT, CH","FM-15","99999","V020","190,1,V,0020,1","99999,9,9,Y","009900,5,9,9","+0010,1","-0160,1","99999,9",,,,,,,,,,,,,"10310,1,99999,9",,,,,"MET061METAR ZBAA 020430Z 19002MPS 150V240 CAVOK 01/M16 Q1031 NOSIG="
"54511099999","2022-01-02T05:00:00","4","40.080111","116.584556","35.35","BEIJING CAPITAL INTERNATIONAL AIRPORT, CH","FM-15","99999","V020","210,1,V,0050,1","99999,9,9,Y","009900,5,9,9","+0010,1","-0170,1","99999,9",,,,,,,,,,,,,"10300,1,99999,9",,,"0100,1",,"MET064METAR ZBAA 020500Z 21005G10MPS 190V250 CAVOK 01/M17 Q1030 NOSIG="
"54511099999","2022-01-02T05:30:00","4","40.080111","116.584556","35.35","BEIJING CAPITAL INTERNATIONAL AIRPORT, CH","FM-15","99999","V020","190,1,V,0040,1","99999,9,9,Y","009900,5,9,9","+0020,1","-0160,1","99999,9",,,,,,,,,,,,,"10300,1,99999,9",,,,,"MET061METAR ZBAA 020530Z 19004MPS 150V230 CAVOK 02/M16 Q1030 NOSIG="
"54511099999","2022-01-02T06:00:00","4","40.080111","116.584556","35.35","BEIJING CAPITAL INTERNATIONAL AIRPORT, CH","FM-12","99999","V020","222,1,N,0035,1","99999,9,9,9","030000,1,9,9","+0017,1","-0172,1","10297,1","06,9999,9,9","24,0000,9,1",,"9999,9,9,999999,9,9","0,1,06,1","0,1,06,1",,,,"999,-0147,9","240,M,+0083,1","240,N,-0078,1","99999,9,10253,1","7,1,044,1,+057,1","00,1","0067,1","4,12,0067,1,214","SYN004BUFR"
"54511099999","2022-01-02T06:00:00","4","40.080111","116.584556","35.35","BEIJING CAPITAL INTERNATIONAL AIRPORT, CH","FM-15","99999","V020","200,1,V,0050,1","99999,9,9,Y","009900,5,9,9","+0020,1","-0170,1","99999,9",,,,,,,,,,,,,"10290,1,99999,9",,,,,"MET061METAR ZBAA 020600Z 20005MPS 160V220 CAVOK 02/M17 Q1029 NOSIG="
"54511099999","2022-01-02T06:30:00","4","40.080111","116.584556","35.35","BEIJING CAPITAL INTERNATIONAL AIRPORT, CH","FM-15","99999","V020","190,1,V,0040,1","99999,9,9,Y","009900,5,9,9","+0020,1","-0170,1","99999,9",,,,,,,,,,,,,"10290,1,99999,9",,,,,"MET061METAR ZBAA 020630Z 19004MPS 160V230 CAVOK 02/M17 Q1029 NOSIG="
"54511099999","2022-01-02T07:00:00","4","40.080111","116.584556","35.35","BEIJING CAPITAL INTERNATIONAL AIRPORT, CH","FM-15","99999","V020","999,9,V,0030,1","99999,9,9,Y","009900,5,9,9","+0020,1","-0170,1","99999,9",,,,,,,,,,,,,"10280,1,99999,9",,,,,"MET053METAR ZBAA 020700Z VRB03MPS CAVOK 02/M17 Q1028 NOSIG="
"54511099999","2022-01-02T07:30:00","4","40.080111","116.584556","35.35","BEIJING CAPITAL INTERNATIONAL AIRPORT, CH","FM-15","99999","V020","200,1,V,0030,1","99999,9,9,Y","009900,5,9,9","+0020,1","-0170,1","99999,9",,,,,,,,,,,,,"10280,1,99999,9",,,,,"MET061METAR ZBAA 020730Z 20003MPS 150V250 CAVOK 02/M17 Q1028 NOSIG="
"54511099999","2022-01-02T08:00:00","4","40.080111","116.584556","35.35","BEIJING CAPITAL INTERNATIONAL AIRPORT, CH","FM-15","99999","V020","190,1,V,0030,1","99999,9,9,Y","009900,5,9,9","+0010,1","-0180,1","99999,9",,,,,,,,,,,,,"10280,1,99999,9",,,,,"MET061METAR ZBAA 020800Z 19003MPS 170V260 CAVOK 01/M18 Q1028 NOSIG="
"54511099999","2022-01-02T08:30:00","4","40.080111","116.584556","35.35","BEIJING CAPITAL INTERNATIONAL AIRPORT, CH","FM-15","99999","V020","180,1,N,0040,1","99999,9,9,Y","009900,5,9,9","+0000,1","-0180,1","99999,9",,,,,,,,,,,,,"10280,1,99999,9",,,,,"MET053METAR ZBAA 020830Z 18004MPS CAVOK 00/M18 Q1028 NOSIG="
"54511099999","2022-01-02T09:00:00","4","40.080111","116.584556","35.35","BEIJING CAPITAL INTERNATIONAL AIRPORT, CH","FM-12","99999","V020","186,1,N,0020,1","99999,9,9,9","030000,1,9,9","+0002,1","-0180,1","10282,1","06,9999,9,9","12,9999,9,9","24,9999,9,9",,"0,1,03,1","0,1,03,1","99,9,+06250,1,99,9","9,AGL   ,+99999,+99999","99,99,9,99,9,99,9,06250,1,99,9,99,9","999,-0147,9","240,M,+0054,1","240,N,-0078,1","99999,9,10238,1","7,1,015,1,+007,1","00,1","0076,1","4,12,0076,1,214","SYN004BUFR"
"54511099999","2022-01-02T09:00:00","4","40.080111","116.584556","35.35","BEIJING CAPITAL INTERNATIONAL AIRPORT, CH","FM-15","99999","V020","180,1,N,0030,1","99999,9,9,Y","009900,5,9,9","+0000,1","-0160,1","99999,9",,,,,,,,,,,,,"10280,1,99999,9",,,,,"MET054METAR ZBAA 020900Z 18003MPS CAVOK M00/M16 Q1028 NOSIG="
"54511099999","2022-01-02T09:30:00","4","40.080111","116.584556","35.35","BEIJING CAPITAL INTERNATIONAL AIRPORT, CH","FM-15","99999","V020","180,1,N,0050,1","99999,9,9,Y","009900,5,9,9","+0000,1","-0180,1","99999,9",,,,,,,,,,,,,"10280,1,99999,9",,,,,"MET053METAR ZBAA 020930Z 18005MPS CAVOK 00/M18 Q1028 NOSIG="
"54511099999","2022-01-02T10:00:00","4","40.080111","116.584556","35.35","BEIJING CAPITAL INTERNATIONAL AIRPORT, CH","FM-15","99999","V020","180,1,N,0040,1","99999,9,9,Y","009900,5,9,9","+0000,1","-0160,1","99999,9",,,,,,,,,,,,,"10280,1,99999,9",,,,,"MET054METAR ZBAA 021000Z 18004MPS CAVOK M00/M16 Q1028 NOSIG="
"54511099999","2022-01-02T10:30:00","4","40.080111","116.584556","35.35","BEIJING CAPITAL INTERNATIONAL AIRPORT, CH","FM-15","99999","V020","160,1,N,0020,1","99999,9,9,Y","009900,5,9,9","-0010,1","-0160,1","99999,9",,,,,,,,,,,,,"10280,1,99999,9",,,,,"MET054METAR ZBAA 021030Z 16002MPS CAVOK M01/M16 Q1028 NOSIG="
"54511099999","2022-01-02T11:00:00","4","40.080111","116.584556","35.35","BEIJING CAPITAL INTERNATIONAL AIRPORT, CH","FM-15","99999","V020","140,1,N,0020,1","99999,9,9,Y","009900,5,9,9","-0020,1","-0160,1","99999,9",,,,,,,,,,,,,"10280,1,99999,9",,,,,"MET054METAR ZBAA 021100Z 14002MPS CAVOK M02/M16 Q1028 NOSIG="
"54511099999","2022-01-02T11:30:00","4","40.080111","116.584556","35.35","BEIJING CAPITAL INTERNATIONAL AIRPORT, CH","FM-15","99999","V020","160,1,N,0010,1","99999,9,9,Y","009900,5,9,9","-0020,1","-0150,1","99999,9",,,,,,,,,,,,,"10270,1,99999,9",,,,,"MET054METAR ZBAA 021130Z 16001MPS CAVOK M02/M15 Q1027 NOSIG="
"54511099999","2022-01-02T12:00:00","4","40.080111","116.584556","35.35","BEIJING CAPITAL INTERNATIONAL AIRPORT, CH","FM-12","99999","V020","188,1,N,0016,1","99999,9,9,9","025100,1,9,9","-0009,1","-0176,1","10279,1","06,9999,9,9","24,0000,9,1",,"9999,9,9,999999,9,9","0,1,06,1","0,1,06,1","99,9,+06370,1,99,9","9,AGL   ,+99999,+99999","99,99,9,99,9,99,9,06370,1,99,9,99,9","999,-0137,9","240,M,+0023,1","240,N,-0078,1","99999,9,10235,1","7,1,003,1,-040,1","00,1","0076,1","4,12,0076,1,214","SYN004BUFR"
"54511099999","2022-01-02T12:00:00","4","40.080111","116.584556","35.35","BEIJING CAPITAL INTERNATIONAL AIRPORT, CH","FM-15","99999","V020","999,9,V,0010,1","99999,9,9,Y","009900,5,9,9","-0030,1","-0150,1","99999,9",,,,,,,,,,,,,"10270,1,99999,9",,,,,"MET054METAR ZBAA 021200Z VRB01MPS CAVOK M03/M15 Q1027 NOSIG="
"54511099999","2022-01-02T12:30:00","4","40.080111","116.584556","35.35","BEIJING CAPITAL INTERNATIONAL AIRPORT, CH","FM-15","99999","V020","090,1,N,0010,1","99999,9,9,Y","009900,5,9,9","-0040,1","-0140,1","99999,9",,,,,,,,,,,,,"10270,1,99999,9",,,,,"MET054METAR ZBAA 021230Z 09001MPS CAVOK M04/M14 Q1027 NOSIG="
"54511099999","2022-01-02T13:00:00","4","40.080111","116.584556","35.35","BEIJING CAPITAL INTERNATIONAL AIRPORT, CH","FM-15","99999","V020","999,9,V,0010,1","99999,9,9,Y","009900,5,9,9","-0030,1","-0140,1","99999,9",,,,,,,,,,,,,"10270,1,99999,9",,,,,"MET054METAR ZBAA 021300Z VRB01MPS CAVOK M03/M14 Q1027 NOSIG="
"54511099999","2022-01-02T13:30:00","4","40.080111","116.584556","35.35","BEIJING CAPITAL INTERNATIONAL AIRPORT, CH","FM-15","99999","V020","080,1,N,0010,1","99999,9,9,Y","009900,5,9,9","-0050,1","-0130,1","99999,9",,,,,,,,,,,,,"10270,1,99999,9",,,,,"MET054METAR ZBAA 021330Z 08001MPS CAVOK M05/M13 Q1027 NOSIG="
"54511099999","2022-01-02T14:00:00","4","40.080111","116.584556","35.35","BEIJING CAPITAL INTERNATIONAL AIRPORT, CH","FM-15","99999","V020","080,1,N,0020,1","99999,9,9,Y","009900,5,9,9","-0050,1","-0140,1","99999,9",,,,,,,,,,,,,"10270,1,99999,9",,,,,"MET054METAR ZBAA 021400Z 08002MPS CAVOK M05/M14 Q1027 NOSIG="
"54511099999","2022-01-02T14:30:00","4","40.080111","116.584556","35.35","BEIJING CAPITAL INTERNATIONAL AIRPORT, CH","FM-15","99999","V020","080,1,N,0010,1","99999,9,9,Y","009900,5,9,9","-0050,1","-0140,1","99999,9",,,,,,,,,,,,,"10270,1,99999,9",,,,,"MET054METAR ZBAA 021430Z 08001MPS CAVOK M05/M14 Q1027 NOSIG="
"54511099999","2022-01-02T15:00:00","4","40.080111","116.584556","35.35","BEIJING CAPITAL INTERNATIONAL AIRPORT, CH","FM-12","99999","V020","150,1,N,0008,1","99999,9,9,9","017700,1,9,9","-0030,1","-0163,1","10272,1","06,9999,9,9","12,9999,9,9","24,9999,9,9",,,,"99,9,+05230,1,99,9","9,AGL   ,+99999,+99999","99,99,9,99,9,99,9,05230,1,99,9,99,9","999,-0080,9","240,M,+0023,1","240,N,-0078,1","99999,9,10228,1","7,1,007,1,-061,1","00,1","0076,1","4,12,0076,1,214","SYN004BUFR"
"54511099999","2022-01-02T15:00:00","4","40.080111","116.584556","35.35","BEIJING CAPITAL INTERNATIONAL AIRPORT, CH","FM-15","99999","V020","999,9,V,0010,1","99999,9,9,Y","009900,5,9,9","-0060,1","-0140,1","99999,9",,,,,,,,,,,,,"10270,1,99999,9",,,,,"MET054METAR ZBAA 021500Z VRB01MPS CAVOK M06/M14 Q1027 NOSIG="
"54511099999","2022-01-02T15:30:00","4","40.080111","116.584556","35.35","BEIJING CAPITAL INTERNATIONAL AIRPORT, CH","FM-15","99999","V020","080,1,N,0010,1","99999,9,9,Y","009900,5,9,9","-0060,1","-0140,1","99999,9",,,,,,,,,,,,,"10270,1,99999,9",,,,,"MET054METAR ZBAA 021530Z 08001MPS CAVOK M06/M14 Q1027 NOSIG="
"54511099999","2022-01-02T16:00:00","4","40.080111","116.584556","35.35","BEIJING CAPITAL INTERNATIONAL AIRPORT, CH","FM-15","99999","V020","080,1,N,0020,1","99999,9,9,Y","009900,5,9,9","-0040,1","-0140,1","99999,9",,,,,,,,,,,,,"10260,1,99999,9",,,,,"MET054METAR ZBAA 021600Z 08002MPS CAVOK M04/M14 Q1026 NOSIG="
"54511099999","2022-01-02T16:30:00","4","40.080111","116.584556","35.35","BEIJING CAPITAL INTERNATIONAL AIRPORT, CH","FM-15","99999","V020","070,1,N,0010,1","99999,9,9,Y","009900,5,9,9","-0050,1","-0140,1","99999,9",,,,,,,,,,,,,"10260,1,99999,9",,,,,"MET054METAR ZBAA 021630Z 07001MPS CAVOK M05/M14 Q1026 NOSIG="
"54511099999","2022-01-02T17:00:00","4","40.080111","116.584556","35.35","BEIJING CAPITAL INTERNATIONAL AIRPORT, CH","FM-15","99999","V020","010,1,N,0010,1","99999,9,9,Y","009900,5,9,9","-0060,1","-0140,1","99999,9",,,,,,,,,,,,,"10260,1,99999,9",,,,,"MET054METAR ZBAA 021700Z 01001MPS CAVOK M06/M14 Q1026 NOSIG="
"54511099999","2022-01-02T17:30:00","4","40.080111","116.584556","35.35","BEIJING CAPITAL INTERNATIONAL AIRPORT, CH","FM-15","99999","V020","340,1,N,0020,1","99999,9,9,Y","009900,5,9,9","-0070,1","-0140,1","99999,9",,,,,,,,,,,,,"10260,1,99999,9",,,,,"MET054METAR ZBAA 021730Z 34002MPS CAVOK M07/M14 Q1026 NOSIG="
"54511099999","2022-01-02T18:00:00","4","40.080111","116.584556","35.35","BEIJING CAPITAL INTERNATIONAL AIRPORT, CH","FM-12","99999","V020","048,1,N,0008,1","99999,9,9,9","016000,1,9,9","-0055,1","-0150,1","10263,1","06,9999,9,9","12,9999,9,9","24,9999,9,9",,"0,1,99,9","0,1,99,9",,,,"999,-0121,9","240,M,+0023,1","240,N,-0078,1","99999,9,10219,1","7,1,009,1,-073,1","00,1","0076,1","4,12,0076,1,214","SYN004BUFR"
"54511099999","2022-01-02T18:00:00","4","40.080111","116.584556","35.35","BEIJING CAPITAL INTERNATIONAL AIRPORT, CH","FM-15","99999","V020","030,1,N,0010,1","99999,9,9,Y","009900,5,9,9","-0080,1","-0150,1","99999,9",,,,,,,,,,,,,"10260,1,99999,9",,,,,"MET054METAR ZBAA 021800Z 03001MPS CAVOK M08/M15 Q1026 NOSIG="
"54511099999","2022-01-02T18:30:00","4","40.080111","116.584556","35.35","BEIJING CAPITAL INTERNATIONAL AIRPORT, CH","FM-15","99999","V020","999,9,C,0000,1","99999,9,9,Y","009900,5,9,9","-0080,1","-0140,1","99999,9",,,,,,,,,,,,,"10260,1,99999,9",,,,,"MET054METAR ZBAA 021830Z 00000MPS CAVOK M08/M14 Q1026 NOSIG="
"54511099999","2022-01-02T19:00:00","4","40.080111","116.584556","35.35","BEIJING CAPITAL INTERNATIONAL AIRPORT, CH","FM-15","99999","V020","340,1,N,0020,1","99999,9,9,Y","009900,5,9,9","-0100,1","-0140,1","99999,9",,,,,,,,,,,,,"10260,1,99999,9",,,,,"MET054METAR ZBAA 021900Z 34002MPS CAVOK M10/M14 Q1026 NOSIG="
"54511099999","2022-01-02T19:30:00","4","40.080111","116.584556","35.35","BEIJING CAPITAL INTERNATIONAL AIRPORT, CH","FM-15","99999","V020","350,1,N,0020,1","99999,9,9,Y","009900,5,9,9","-0090,1","-0140,1","99999,9",,,,,,,,,,,,,"10250,1,99999,9",,,,,"MET054METAR ZBAA 021930Z 35002MPS CAVOK M09/M14 Q1025 NOSIG="
"54511099999","2022-01-02T20:00:00","4","40.080111","116.584556","35.35","BEIJING CAPITAL INTERNATIONAL AIRPORT, CH","FM-15","99999","V020","350,1,N,0020,1","99999,9,9,Y","009900,5,9,9","-0100,1","-0140,1","99999,9",,,,,,,,,,,,,"10250,1,99999,9",,,,,"MET054METAR ZBAA 022000Z 35002MPS CAVOK M10/M14 Q1025 NOSIG="
"54511099999","2022-01-02T20:30:00","4","40.080111","116.584556","35.35","BEIJING CAPITAL INTERNATIONAL AIRPORT, CH","FM-15","99999","V020","350,1,N,0020,1","99999,9,9,Y","009900,5,9,9","-0090,1","-0140,1","99999,9",,,,,,,,,,,,,"10250,1,99999,9",,,,,"MET054METAR ZBAA 022030Z 35002MPS CAVOK M09/M14 Q1025 NOSIG="
"54511099999","2022-01-02T21:00:00","4","40.080111","116.584556","35.35","BEIJING CAPITAL INTERNATIONAL AIRPORT, CH","FM-12","99999","V020","029,1,N,0007,1","99999,9,9,9","010500,1,9,9","-0072,1","-0146,1","10256,1","06,9999,9,9","12,9999,9,9","24,9999,9,9",,,,,,,"999,-0137,9","240,M,+0023,1","240,N,-0078,1","99999,9,10212,1","7,1,007,1,-079,1","00,1",,"4,12,0037,1,177","SYN004BUFR"
"54511099999","2022-01-02T21:00:00","4","40.080111","116.584556","35.35","BEIJING CAPITAL INTERNATIONAL AIRPORT, CH","FM-15","99999","V020","350,1,N,0010,1","99999,9,9,Y","009900,5,9,9","-0090,1","-0150,1","99999,9",,,,,,,,,,,,,"10250,1,99999,9",,,,,"MET054METAR ZBAA 022100Z 35001MPS CAVOK M09/M15 Q1025 NOSIG="
"54511099999","2022-01-02T21:30:00","4","40.080111","116.584556","35.35","BEIJING CAPITAL INTERNATIONAL AIRPORT, CH","FM-15","99999","V020","360,1,N,0010,1","99999,9,9,Y","009900,5,9,9","-0110,1","-0140,1","99999,9",,,,,,,,,,,,,"10250,1,99999,9",,,,,"MET054METAR ZBAA 022130Z 36001MPS CAVOK M11/M14 Q1025 NOSIG="
"54511099999","2022-01-02T22:00:00","4","40.080111","116.584556","35.35","BEIJING CAPITAL INTERNATIONAL AIRPORT, CH","FM-15","99999","V020","360,1,N,0010,1","99999,9,9,Y","009900,5,9,9","-0100,1","-0150,1","99999,9",,,,,,,,,,,,,"10250,1,99999,9",,,,,"MET054METAR ZBAA 022200Z 36001MPS CAVOK M10/M15 Q1025 NOSIG="
"54511099999","2022-01-02T22:30:00","4","40.080111","116.584556","35.35","BEIJING CAPITAL INTERNATIONAL AIRPORT, CH","FM-15","99999","V020","340,1,N,0020,1","99999,9,9,Y","009900,5,9,9","-0100,1","-0140,1","99999,9",,,,,,,,,,,,,"10260,1,99999,9",,,,,"MET054METAR ZBAA 022230Z 34002MPS CAVOK M10/M14 Q1026 NOSIG="
"54511099999","2022-01-02T23:00:00","4","40.080111","116.584556","35.35","BEIJING CAPITAL INTERNATIONAL AIRPORT, CH","FM-15","99999","V020","340,1,N,0020,1","99999,9,9,Y","009900,5,9,9","-0080,1","-0140,1","99999,9",,,,,,,,,,,,,"10260,1,99999,9",,,,,"MET054METAR ZBAA 022300Z 34002MPS CAVOK M08/M14 Q1026 NOSIG="
"54511099999","2022-01-02T23:30:00","4","40.080111","116.584556","35.35","BEIJING CAPITAL INTERNATIONAL AIRPORT, CH","FM-15","99999","V020","320,1,N,0020,1","99999,9,9,Y","009900,5,9,9","-0080,1","-0130,1","99999,9",,,,,,,,,,,,,"10260,1,99999,9",,,,,"MET054METAR ZBAA 022330Z 32002MPS CAVOK M08/M13 Q1026 NOSIG="
"54511099999","2022-01-03T00:00:00","4","40.080111","116.584556","35.35","BEIJING CAPITAL INTERNATIONAL AIRPORT, CH","FM-12","99999","V020","061,1,N,0011,1","99999,9,9,9","008000,1,9,9","-0077,1","-0135,1","10267,1","06,9999,9,9","24,0000,9,1",,"9999,9,9,999999,9,9","0,1,12,1","0,1,12,1",,,,"999,-0148,9","240,M,+0023,1","240,N,-0081,1","99999,9,10223,1","2,1,011,1,-075,1","00,1",,"4,12,0027,1,188","SYN004BUFR"
"54511099999","2022-01-03T00:00:00","4","40.080111","116.584556","35.35","BEIJING CAPITAL INTERNATIONAL AIRPORT, CH","FM-15","99999","V020","330,1,N,0020,1","99999,9,9,Y","009900,5,9,9","-0080,1","-0140,1","99999,9",,,,,,,,,,,,,"10260,1,99999,9",,,,,"MET054METAR ZBAA 030000Z 33002MPS CAVOK M08/M14 Q1026 NOSIG="
"54511099999","2022-01-03T00:30:00","4","40.080111","116.584556","35.35","BEIJING CAPITAL INTERNATIONAL AIRPORT, CH","FM-15","99999","V020","350,1,N,0020,1","99999,9,9,Y","009900,5,9,9","-0060,1","-0120,1","99999,9",,,,,,,,,,,,,"10270,1,99999,9",,,,,"MET054METAR ZBAA 030030Z 35002MPS CAVOK M06/M12 Q1027 NOSIG="
"54511099999","2022-01-03T01:00:00","4","40.080111","116.584556","35.35","BEIJING CAPITAL INTERNATIONAL AIRPORT, CH","FM-15","99999","V020","350,1,N,0040,1","99999,9,9,Y","009900,5,9,9","-0030,1","-0110,1","99999,9",,,,,,,,,,,,,"10270,1,99999,9",,,,,"MET054METAR ZBAA 030100Z 35004MPS CAVOK M03/M11 Q1027 NOSIG="
"54511099999","2022-01-03T01:30:00","4","40.080111","116.584556","35.35","BEIJING CAPITAL INTERNATIONAL AIRPORT, CH","FM-15","99999","V020","340,1,N,0040,1","99999,9,9,Y","009900,5,9,9","-0020,1","-0110,1","99999,9",,,,,,,,,,,,,"10270,1,99999,9",,,,,"MET054METAR ZBAA 030130Z 34004MPS CAVOK M02/M11 Q1027 NOSIG="
"54511099999","2022-01-03T02:00:00","4","40.080111","116.584556","35.35","BEIJING CAPITAL INTERNATIONAL AIRPORT, CH","FM-15","99999","V020","330,1,N,0030,1","99999,9,9,Y","009900,5,9,9","+0000,1","-0120,1","99999,9",,,,,,,,,,,,,"10270,1,99999,9",,,,,"MET054METAR ZBAA 030200Z 33003MPS CAVOK M00/M12 Q1027 NOSIG="
"54511099999","2022-01-03T02:30:00","4","40.080111","116.584556","35.35","BEIJING CAPITAL INTERNATIONAL AIRPORT, CH","FM-15","99999","V020","330,1,N,0030,1","99999,9,9,Y","009900,5,9,9","+0010,1","-0130,1","99999,9",,,,,,,,,,,,,"10270,1,99999,9",,,,,"MET053METAR ZBAA 030230Z 33003MPS CAVOK 01/M13 Q1027 NOSIG="
"54511099999","2022-01-03T03:00:00","4","40.080111","116.584556","35.35","BEIJING CAPITAL INTERNATIONAL AIRPORT, CH","FM-12","99999","V020","020,1,N,0021,1","99999,9,9,9","025100,1,9,9","+0011,1","-0150,1","10275,1","06,9999,9,9","12,9999,9,9","24,9999,9,9",,"0,1,03,1","0,1,03,1",,,,"999,-0148,9","240,M,+0023,1","240,N,-0081,1","99999,9,10231,1","2,1,008,1,-066,1","00,1",,"4,12,0039,1,034","SYN004BUFR"
"54511099999","2022-01-03T03:00:00","4","40.080111","116.584556","35.35","BEIJING CAPITAL INTERNATIONAL AIRPORT, CH","FM-15","99999","V020","360,1,V,0030,1","99999,9,9,Y","009900,5,9,9","+0020,1","-0140,1","99999,9",,,,,,,,,,,,,"10270,1,99999,9",,,,,"MET061METAR ZBAA 030300Z 36003MPS 320V040 CAVOK 02/M14 Q1027 NOSIG="
"54511099999","2022-01-03T03:30:00","4","40.080111","116.584556","35.35","BEIJING CAPITAL INTERNATIONAL AIRPORT, CH","FM-15","99999","V020","330,1,V,0030,1","99999,9,9,Y","009900,5,9,9","+0030,1","-0150,1","99999,9",,,,,,,,,,,,,"10270,1,99999,9",,,,,"MET061METAR ZBAA 030330Z 33003MPS 300V010 CAVOK 03/M15 Q1027 NOSIG="
"54511099999","2022-01-03T04:00:00","4","40.080111","116.584556","35.35","BEIJING CAPITAL INTERNATIONAL AIRPORT, CH","FM-15","99999","V020","340,1,N,0040,1","99999,9,9,Y","009900,5,9,9","+0040,1","-0150,1","99999,9",,,,,,,,,,,,,"10260,1,99999,9",,,,,"MET053METAR ZBAA 030400Z 34004MPS CAVOK 04/M15 Q1026 NOSIG="
"54511099999","2022-01-03T04:30:00","4","40.080111","116.584556","35.35","BEIJING CAPITAL INTERNATIONAL AIRPORT, CH","FM-15","99999","V020","350,1,V,0040,1","99999,9,9,Y","009900,5,9,9","+0040,1","-0150,1","99999,9",,,,,,,,,,,,,"10260,1,99999,9",,,,,"MET061METAR ZBAA 030430Z 35004MPS 320V020 CAVOK 04/M15 Q1026 NOSIG="
"54511099999","2022-01-03T05:00:00","4","40.080111","116.584556","35.35","BEIJING CAPITAL INTERNATIONAL AIRPORT, CH","FM-15","99999","V020","350,1,N,0040,1","99999,9,9,Y","009900,5,9,9","+0050,1","-0160,1","99999,9",,,,,,,,,,,,,"10260,1,99999,9",,,,,"MET053METAR ZBAA 030500Z 35004MPS CAVOK 05/M16 Q1026 NOSIG="
"54511099999","2022-01-03T05:30:00","4","40.080111","116.584556","35.35","BEIJING CAPITAL INTERNATIONAL AIRPORT, CH","FM-15","99999","V020","350,1,N,0030,1","99999,9,9,Y","009900,5,9,9","+0050,1","-0160,1","99999,9",,,,,,,,,,,,,"10250,1,99999,9",,,,,"MET053METAR ZBAA 030530Z 35003MPS CAVOK 05/M16 Q1025 NOSIG="
"54511099999","2022-01-03T06:00:00","4","40.080111","116.584556","35.35","BEIJING CAPITAL INTERNATIONAL AIRPORT, CH","FM-12","99999","V020","359,1,N,0024,1","99999,9,9,9","028500,1,9,9","+0055,1","-0170,1","10258,1","06,9999,9,9","24,0000,9,1",,"9999,9,9,999999,9,9","0,1,06,1","0,1,06,1",,,,"999,-0148,9","240,M,+0056,1","240,N,-0081,1","99999,9,10214,1","7,1,017,1,-039,1","00,1","0053,1","4,12,0053,1,338","SYN004BUFR"
"54511099999","2022-01-03T06:00:00","4","40.080111","116.584556","35.35","BEIJING CAPITAL INTERNATIONAL AIRPORT, CH","FM-15","99999","V020","020,1,V,0020,1","99999,9,9,Y","009900,5,9,9","+0050,1","-0160,1","99999,9",,,,,,,,,,,,,"10250,1,99999,9",,,,,"MET061METAR ZBAA 030600Z 02002MPS 340V060 CAVOK 05/M16 Q1025 NOSIG="
"54511099999","2022-01-03T06:30:00","4","40.080111","116.584556","35.35","BEIJING CAPITAL INTERNATIONAL AIRPORT, CH","FM-15","99999","V020","040,1,V,0020,1","99999,9,9,Y","009900,5,9,9","+0050,1","-0160,1","99999,9",,,,,,,,,,,,,"10250,1,99999,9",,,,,"MET061METAR ZBAA 030630Z 04002MPS 350V090 CAVOK 05/M16 Q1025 NOSIG="
"54511099999","2022-01-03T07:00:00","4","40.080111","116.584556","35.35","BEIJING CAPITAL INTERNATIONAL AIRPORT, CH","FM-15","99999","V020","030,1,V,0030,1","99999,9,9,Y","009900,5,9,9","+0050,1","-0160,1","99999,9",,,,,,,,,,,,,"10250,1,99999,9",,,,,"MET061METAR ZBAA 030700Z 03003MPS 350V080 CAVOK 05/M16 Q1025 NOSIG="
"54511099999","2022-01-03T07:30:00","4","40.080111","116.584556","35.35","BEIJING CAPITAL INTERNATIONAL AIRPORT, CH","FM-15","99999","V020","050,1,V,0020,1","99999,9,9,Y","009900,5,9,9","+0050,1","-0170,1","99999,9",,,,,,,,,,,,,"10260,1,99999,9",,,,,"MET061METAR ZBAA 030730Z 05002MPS 010V090 CAVOK 05/M17 Q1026 NOSIG="
"54511099999","2022-01-03T08:00:00","4","40.080111","116.584556","35.35","BEIJING CAPITAL INTERNATIONAL AIRPORT, CH","FM-15","99999","V020","050,1,N,0020,1","99999,9,9,Y","009900,5,9,9","+0050,1","-0170,1","99999,9",,,,,,,,,,,,,"10260,1,99999,9",,,,,"MET053METAR ZBAA 030800Z 05002MPS CAVOK 05/M17 Q1026 NOSIG="
"54511099999","2022-01-03T08:30:00","4","40.080111","116.584556","35.35","BEIJING CAPITAL INTERNATIONAL AIRPORT, CH","FM-15","99999","V020","999,9,V,0010,1","99999,9,9,Y","009900,5,9,9","+0040,1","-0170,1","99999,9",,,,,,,,,,,,,"10260,1,99999,9",,,,,"MET053METAR ZBAA 030830Z VRB01MPS CAVOK 04/M17 Q1026 NOSIG="
"54511099999","2022-01-03T09:00:00","4","40.080111","116.584556","35.35","BEIJING CAPITAL INTERNATIONAL AIRPORT, CH","FM-12","99999","V020","046,1,N,0009,1","99999,9,9,9","030000,1,9,9","+0040,1","-0170,1","10268,1","06,9999,9,9","12,9999,9,9","24,9999,9,9",,"0,1,03,1","0,1,03,1",,,,"999,-0148,9","240,M,+0065,1","240,N,-0081,1","99999,9,10224,1","2,1,010,1,-014,1","00,1","0053,1","4,12,0053,1,338","SYN004BUFR"
"54511099999","2022-01-03T09:00:00","4","40.080111","116.584556","35.35","BEIJING CAPITAL INTERNATIONAL AIRPORT, CH","FM-15","99999","V020","999,9,C,0000,1","99999,9,9,Y","009900,5,9,9","+0020,1","-0170,1","99999,9",,,,,,,,,,,,,"10260,1,99999,9",,,,,"MET053METAR ZBAA 030900Z 00000MPS CAVOK 02/M17 Q1026 NOSIG="
"54511099999","2022-01-03T09:30:00","4","40.080111","116.584556","35.35","BEIJING CAPITAL INTERNATIONAL AIRPORT, CH","FM-15","99999","V020","050,1,N,0010,1","99999,9,9,Y","009900,5,9,9","-0020,1","-0150,1","99999,9",,,,,,,,,,,,,"10270,1,99999,9",,,,,"MET054METAR ZBAA 030930Z 05001MPS CAVOK M02/M15 Q1027 NOSIG="
"54511099999","2022-01-03T10:00:00","4","40.080111","116.584556","35.35","BEIJING CAPITAL INTERNATIONAL AIRPORT, CH","FM-15","99999","V020","999,9,C,0000,1","99999,9,9,Y","009900,5,9,9","-0030,1","-0150,1","99999,9",,,,,,,,,,,,,"10270,1,99999,9",,,,,"MET054METAR ZBAA 031000Z 00000MPS CAVOK M03/M15 Q1027 NOSIG="
"54511099999","2022-01-03T10:30:00","4","40.080111","116.584556","35.35","BEIJING CAPITAL INTERNATIONAL AIRPORT, CH","FM-15","99999","V020","020,1,N,0010,1","99999,9,9,Y","009900,5,9,9","-0050,1","-0140,1","99999,9",,,,,,,,,,,,,"10270,1,99999,9",,,,,"MET054METAR ZBAA 031030Z 02001MPS CAVOK M05/M14 Q1027 NOSIG="
"54511099999","2022-01-03T11:00:00","4","40.080111","116.584556","35.35","BEIJING CAPITAL INTERNATIONAL AIRPORT, CH","FM-15","99999","V020","999,9,V,0010,1","99999,9,9,Y","009900,5,9,9","-0020,1","-0130,1","99999,9",,,,,,,,,,,,,"10280,1,99999,9",,,,,"MET054METAR ZBAA 031100Z VRB01MPS CAVOK M02/M13 Q1028 NOSIG="
"54511099999","2022-01-03T11:30:00","4","40.080111","116.584556","35.35","BEIJING CAPITAL INTERNATIONAL AIRPORT, CH","FM-15","99999","V020","999,9,V,0010,1","99999,9,9,Y","009900,5,9,9","-0040,1","-0140,1","99999,9",,,,,,,,,,,,,"10280,1,99999,9",,,,,"MET054METAR ZBAA 031130Z VRB01MPS CAVOK M04/M14 Q1028 NOSIG="
"54511099999","2022-01-03T12:00:00","4","40.080111","116.584556","35.35","BEIJING CAPITAL INTERNATIONAL AIRPORT, CH","FM-12","99999","V020","084,1,N,0004,1","99999,9,9,9","010300,1,9,9","-0022,1","-0126,1","10289,1","06,9999,9,9","24,0000,9,1",,"9999,9,9,999999,9,9","0,1,06,1","0,1,06,1",,,,"999,-0135,9","240,M,+0065,1","240,N,-0081,1","99999,9,10245,1","2,1,021,1,+010,1","00,1","0053,1","4,12,0053,1,338","SYN004BUFR"
"54511099999","2022-01-03T12:00:00","4","40.080111","116.584556","35.35","BEIJING CAPITAL INTERNATIONAL AIRPORT, CH","FM-15","99999","V020","999,9,V,0010,1","99999,9,9,Y","009900,5,9,9","-0030,1","-0140,1","99999,9",,,,,,,,,,,,,"10280,1,99999,9",,,,,"MET054METAR ZBAA 031200Z VRB01MPS CAVOK M03/M14 Q1028 NOSIG="
"54511099999","2022-01-03T12:30:00","4","40.080111","116.584556","35.35","BEIJING CAPITAL INTERNATIONAL AIRPORT, CH","FM-15","99999","V020","999,9,V,0010,1","99999,9,9,Y","009900,5,9,9","-0030,1","-0140,1","99999,9",,,,,,,,,,,,,"10290,1,99999,9",,,,,"MET054METAR ZBAA 031230Z VRB01MPS CAVOK M03/M14 Q1029 NOSIG="
"54511099999","2022-01-03T13:00:00","4","40.080111","116.584556","35.35","BEIJING CAPITAL INTERNATIONAL AIRPORT, CH","FM-15","99999","V020","999,9,V,0010,1","99999,9,9,Y","009900,5,9,9","-0030,1","-0140,1","99999,9",,,,,,,,,,,,,"10290,1,99999,9",,,,,"MET054METAR ZBAA 031300Z VRB01MPS CAVOK M03/M14 Q1029 NOSIG="
"54511099999","2022-01-03T13:30:00","4","40.080111","116.584556","35.35","BEIJING CAPITAL INTERNATIONAL AIRPORT, CH","FM-15","99999","V020","999,9,V,0010,1","99999,9,9,Y","009900,5,9,9","-0060,1","-0140,1","99999,9",,,,,,,,,,,,,"10290,1,99999,9",,,,,"MET054METAR ZBAA 031330Z VRB01MPS CAVOK M06/M14 Q1029 NOSIG="
"54511099999","2022-01-03T14:00:00","4","40.080111","116.584556","35.35","BEIJING CAPITAL INTERNATIONAL AIRPORT, CH","FM-15","99999","V020","320,1,V,0020,1","99999,9,9,Y","009900,5,9,9","-0050,1","-0120,1","99999,9",,,,,,,,,,,,,"10290,1,99999,9",,,,,"MET062METAR ZBAA 031400Z 32002MPS 290V350 CAVOK M05/M12 Q1029 NOSIG="
"54511099999","2022-01-03T14:30:00","4","40.080111","116.584556","35.35","BEIJING CAPITAL INTERNATIONAL AIRPORT, CH","FM-15","99999","V020","350,1,N,0030,1","99999,9,9,Y","009900,5,9,9","-0060,1","-0140,1","99999,9",,,,,,,,,,,,,"10290,1,99999,9",,,,,"MET054METAR ZBAA 031430Z 35003MPS CAVOK M06/M14 Q1029 NOSIG="
"54511099999","2022-01-03T15:00:00","4","40.080111","116.584556","35.35","BEIJING CAPITAL INTERNATIONAL AIRPORT, CH","FM-12","99999","V020","211,1,N,0005,1","99999,9,9,9","007600,1,9,9","-0039,1","-0125,1","10303,1","06,9999,9,9","12,9999,9,9","24,9999,9,9",,,,,,,"999,-0120,9","240,M,+0065,1","240,N,-0081,1","99999,9,10259,1","2,1,014,1,+031,1","00,1","0053,1","4,12,0053,1,338","SYN004BUFR"
"54511099999","2022-01-03T15:00:00","4","40.080111","116.584556","35.35","BEIJING CAPITAL INTERNATIONAL AIRPORT, CH","FM-15","99999","V020","340,1,V,0020,1","99999,9,9,Y","009900,5,9,9","-0060,1","-0130,1","99999,9",,,,,,,,,,,,,"10300,1,99999,9",,,,,"MET062METAR ZBAA 031500Z 34002MPS 300V360 CAVOK M06/M13 Q1030 NOSIG="
"54511099999","2022-01-03T15:30:00","4","40.080111","116.584556","35.35","BEIJING CAPITAL INTERNATIONAL AIRPORT, CH","FM-15","99999","V020","340,1,N,0020,1","99999,9,9,Y","009900,5,9,9","-0060,1","-0140,1","99999,9",,,,,,,,,,,,,"10300,1,99999,9",,,,,"MET054METAR ZBAA 031530Z 34002MPS CAVOK M06/M14 Q1030 NOSIG="
"54511099999","2022-01-03T16:00:00","4","40.080111","116.584556","35.35","BEIJING CAPITAL INTERNATIONAL AIRPORT, CH","FM-15","99999","V020","320,1,N,0020,1","99999,9,9,Y","009900,5,9,9","-0060,1","-0140,1","99999,9",,,,,,,,,,,,,"10300,1,99999,9",,,,,"MET054METAR ZBAA 031600Z 32002MPS CAVOK M06/M14 Q1030 NOSIG="
"54511099999","2022-01-03T16:30:00","4","40.080111","116.584556","35.35","BEIJING CAPITAL INTERNATIONAL AIRPORT, CH","FM-15","99999","V020","290,1,N,0010,1","99999,9,9,Y","009900,5,9,9","-0050,1","-0140,1","99999,9",,,,,,,,,,,,,"10310,1,99999,9",,,,,"MET054METAR ZBAA 031630Z 29001MPS CAVOK M05/M14 Q1031 NOSIG="
"54511099999","2022-01-03T17:00:00","4","40.080111","116.584556","35.35","BEIJING CAPITAL INTERNATIONAL AIRPORT, CH","FM-15","99999","V020","350,1,N,0010,1","99999,9,9,Y","009900,5,9,9","-0090,1","-0150,1","99999,9",,,,,,,,,,,,,"10310,1,99999,9",,,,,"MET054METAR ZBAA 031700Z 35001MPS CAVOK M09/M15 Q1031 NOSIG="
"54511099999","2022-01-03T17:30:00","4","40.080111","116.584556","35.35","BEIJING CAPITAL INTERNATIONAL AIRPORT, CH","FM-15","99999","V020","340,1,N,0010,1","99999,9,9,Y","009900,5,9,9","-0090,1","-0140,1","99999,9",,,,,,,,,,,,,"10310,1,99999,9",,,,,"MET054METAR ZBAA 031730Z 34001MPS CAVOK M09/M14 Q1031 NOSIG="
"54511099999","2022-01-03T18:00:00","4","40.080111","116.584556","35.35","BEIJING CAPITAL INTERNATIONAL AIRPORT, CH","FM-12","99999","V020","052,1,N,0011,1","99999,9,9,9","011800,1,9,9","-0052,1","-0120,1","10316,1","06,9999,9,9","12,9999,9,9","24,9999,9,9",,"0,1,99,9","0,1,99,9",,,,"999,-0133,9","240,M,+0065,1","240,N,-0081,1","99999,9,10272,1","2,1,013,1,+053,1","00,1",,"4,12,0037,1,006","SYN004BUFR"
"54511099999","2022-01-03T18:00:00","4","40.080111","116.584556","35.35","BEIJING CAPITAL INTERNATIONAL AIRPORT, CH","FM-15","99999","V020","999,9,V,0010,1","99999,9,9,Y","009900,5,9,9","-0070,1","-0140,1","99999,9",,,,,,,,,,,,,"10320,1,99999,9",,,,,"MET054METAR ZBAA 031800Z VRB01MPS CAVOK M07/M14 Q1032 NOSIG="
"54511099999","2022-01-03T18:30:00","4","40.080111","116.584556","35.35","BEIJING CAPITAL INTERNATIONAL AIRPORT, CH","FM-15","99999","V020","330,1,N,0020,1","99999,9,9,Y","009900,5,9,9","-0080,1","-0140,1","99999,9",,,,,,,,,,,,,"10320,1,99999,9",,,,,"MET054METAR ZBAA 031830Z 33002MPS CAVOK M08/M14 Q1032 NOSIG="
"54511099999","2022-01-03T19:00:00","4","40.080111","116.584556","35.35","BEIJING CAPITAL INTERNATIONAL AIRPORT, CH","FM-15","99999","V020","999,9,V,0010,1","99999,9,9,Y","009900,5,9,9","-0100,1","-0130,1","99999,9",,,,,,,,,,,,,"10320,1,99999,9",,,,,"MET054METAR ZBAA 031900Z VRB01MPS CAVOK M10/M13 Q1032 NOSIG="
"54511099999","2022-01-03T19:30:00","4","40.080111","116.584556","35.35","BEIJING CAPITAL INTERNATIONAL AIRPORT, CH","FM-15","99999","V020","360,1,N,0010,1","99999,9,9,Y","009900,5,9,9","-0090,1","-0130,1","99999,9",,,,,,,,,,,,,"10310,1,99999,9",,,,,"MET054METAR ZBAA 031930Z 36001MPS CAVOK M09/M13 Q1031 NOSIG="
"54511099999","2022-01-03T20:00:00","4","40.080111","116.584556","35.35","BEIJING CAPITAL INTERNATIONAL AIRPORT, CH","FM-15","99999","V020","999,9,V,0010,1","99999,9,9,Y","009900,5,9,9","-0100,1","-0130,1","99999,9",,,,,,,,,,,,,"10310,1,99999,9",,,,,"MET054METAR ZBAA 032000Z VRB01MPS CAVOK M10/M13 Q1031 NOSIG="
"54511099999","2022-01-03T20:30:00","4","40.080111","116.584556","35.35","BEIJING CAPITAL INTERNATIONAL AIRPORT, CH","FM-15","99999","V020","360,1,N,0010,1","99999,9,9,Y","009900,5,9,9","-0100,1","-0130,1","99999,9",,,,,,,,,,,,,"10310,1,99999,9",,,,,"MET054METAR ZBAA 032030Z 36001MPS CAVOK M10/M13 Q1031 NOSIG="
"54511099999","2022-01-03T21:00:00","4","40.080111","116.584556","35.35","BEIJING CAPITAL INTERNATIONAL AIRPORT, CH","FM-12","99999","V020","051,1,N,0013,1","99999,9,9,9","021900,1,9,9","-0054,1","-0147,1","10316,1","06,9999,9,9","12,9999,9,9","24,9999,9,9",,,,,,,"999,-0141,9","240,M,+0065,1","240,N,-0081,1","99999,9,10272,1","4,1,000,1,+060,1","00,1",,"4,12,0028,1,053","SYN004BUFR"
"54511099999","2022-01-03T21:00:00","4","40.080111","116.584556","35.35","BEIJING CAPITAL INTERNATIONAL AIRPORT, CH","FM-15","99999","V020","360,1,N,0010,1","99999,9,9,Y","009900,5,9,9","-0110,1","-0130,1","99999,9",,,,,,,,,,,,,"10310,1,99999,9",,,,,"MET054METAR ZBAA 032100Z 36001MPS CAVOK M11/M13 Q1031 NOSIG="
"54511099999","2022-01-03T21:30:00","4","40.080111","116.584556","35.35","BEIJING CAPITAL INTERNATIONAL AIRPORT, CH","FM-15","99999","V020","999,9,V,0010,1","99999,9,9,Y","009900,5,9,9","-0090,1","-0130,1","99999,9",,,,,,,,,,,,,"10310,1,99999,9",,,,,"MET054METAR ZBAA 032130Z VRB01MPS CAVOK M09/M13 Q1031 NOSIG="
"54511099999","2022-01-03T22:00:00","4","40.080111","116.584556","35.35","BEIJING CAPITAL INTERNATIONAL AIRPORT, CH","FM-15","99999","V020","350,1,N,0020,1","99999,9,9,Y","009900,5,9,9","-0100,1","-0130,1","99999,9",,,,,,,,,,,,,"10320,1,99999,9",,,,,"MET054METAR ZBAA 032200Z 35002MPS CAVOK M10/M13 Q1032 NOSIG="
"54511099999","2022-01-03T22:30:00","4","40.080111","116.584556","35.35","BEIJING CAPITAL INTERNATIONAL AIRPORT, CH","FM-15","99999","V020","350,1,N,0020,1","99999,9,9,Y","009900,5,9,9","-0100,1","-0140,1","99999,9",,,,,,,,,,,,,"10320,1,99999,9",,,,,"MET054METAR ZBAA 032230Z 35002MPS CAVOK M10/M14 Q1032 NOSIG="
"54511099999","2022-01-03T23:00:00","4","40.080111","116.584556","35.35","BEIJING CAPITAL INTERNATIONAL AIRPORT, CH","FM-15","99999","V020","350,1,N,0010,1","99999,9,9,Y","009900,5,9,9","-0090,1","-0130,1","99999,9",,,,,,,,,,,,,"10320,1,99999,9",,,,,"MET054METAR ZBAA 032300Z 35001MPS CAVOK M09/M13 Q1032 NOSIG="
"54511099999","2022-01-03T23:30:00","4","40.080111","116.584556","35.35","BEIJING CAPITAL INTERNATIONAL AIRPORT, CH","FM-15","99999","V020","340,1,N,0020,1","99999,9,9,Y","009900,5,9,9","-0090,1","-0130,1","99999,9",,,,,,,,,,,,,"10320,1,99999,9",,,,,"MET054METAR ZBAA 032330Z 34002MPS CAVOK M09/M13 Q1032 NOSIG="
"54511099999","2022-01-04T00:00:00","4","40.080111","116.584556","35.35","BEIJING CAPITAL INTERNATIONAL AIRPORT, CH","FM-12","99999","V020","040,1,N,0014,1","99999,9,9,9","014000,1,9,9","-0054,1","-0117,1","10328,1","06,9999,9,9","24,0000,9,1",,"9999,9,9,999999,9,9","0,1,12,1","0,1,12,1",,,,"999,-0143,9","240,M,+0065,1","240,N,-0077,1","99999,9,10284,1","2,1,012,1,+061,1","00,1",,"4,12,0030,1,048","SYN004BUFR"
"54511099999","2022-01-04T00:00:00","4","40.080111","116.584556","35.35","BEIJING CAPITAL INTERNATIONAL AIRPORT, CH","FM-15","99999","V020","350,1,N,0020,1","99999,9,9,Y","009900,5,9,9","-0090,1","-0140,1","99999,9",,,,,,,,,,,,,"10320,1,99999,9",,,,,"MET054METAR ZBAA 040000Z 35002MPS CAVOK M09/M14 Q1032 NOSIG="
"54511099999","2022-01-04T00:30:00","4","40.080111","116.584556","35.35","BEIJING CAPITAL INTERNATIONAL AIRPORT, CH","FM-15","99999","V020","350,1,N,0020,1","99999,9,9,Y","009900,5,9,9","-0070,1","-0130,1","99999,9",,,,,,,,,,,,,"10330,1,99999,9",,,,,"MET054METAR ZBAA 040030Z 35002MPS CAVOK M07/M13 Q1033 NOSIG="
"54511099999","2022-01-04T01:00:00","4","40.080111","116.584556","35.35","BEIJING CAPITAL INTERNATIONAL AIRPORT, CH","FM-15","99999","V020","350,1,N,0030,1","99999,9,9,Y","009900,5,9,9","-0040,1","-0100,1","99999,9",,,,,,,,,,,,,"10330,1,99999,9",,,,,"MET054METAR ZBAA 040100Z 35003MPS CAVOK M04/M10 Q1033 NOSIG="
"54511099999","2022-01-04T01:30:00","4","40.080111","116.584556","35.35","BEIJING CAPITAL INTERNATIONAL AIRPORT, CH","FM-15","99999","V020","340,1,N,0030,1","99999,9,9,Y","009900,5,9,9","-0020,1","-0120,1","99999,9",,,,,,,,,,,,,"10330,1,99999,9",,,,,"MET054METAR ZBAA 040130Z 34003MPS CAVOK M02/M12 Q1033 NOSIG="
"54511099999","2022-01-04T02:00:00","4","40.080111","116.584556","35.35","BEIJING CAPITAL INTERNATIONAL AIRPORT, CH","FM-15","99999","V020","350,1,N,0030,1","99999,9,9,Y","009900,5,9,9","-0010,1","-0120,1","99999,9",,,,,,,,,,,,,"10330,1,99999,9",,,,,"MET054METAR ZBAA 040200Z 35003MPS CAVOK M01/M12 Q1033 NOSIG="
"54511099999","2022-01-04T02:30:00","4","40.080111","116.584556","35.35","BEIJING CAPITAL INTERNATIONAL AIRPORT, CH","FM-15","99999","V020","320,1,N,0030,1","99999,9,9,Y","009900,5,9,9","+0000,1","-0120,1","99999,9",,,,,,,,,,,,,"10330,1,99999,9",,,,,"MET054METAR ZBAA 040230Z 32003MPS CAVOK M00/M12 Q1033 NOSIG="
"54511099999","2022-01-04T03:00:00","4","40.080111","116.584556","35.35","BEIJING CAPITAL INTERNATIONAL AIRPORT, CH","FM-12","99999","V020","061,1,N,0019,1","99999,9,9,9","013400,1,9,9","+0000,1","-0085,1","10331,1","06,9999,9,9","12,9999,9,9","24,9999,9,9",,"0,1,03,1","0,1,03,1",,,,"999,-0143,9","240,M,+0065,1","240,N,-0069,1","99999,9,10287,1","2,1,003,1,+056,1","00,1",,"4,12,0044,1,053","SYN004BUFR"
"54511099999","2022-01-04T03:00:00","4","40.080111","116.584556","35.35","BEIJING CAPITAL INTERNATIONAL AIRPORT, CH","FM-15","99999","V020","310,1,V,0020,1","99999,9,9,Y","009900,5,9,9","+0010,1","-0120,1","99999,9",,,,,,,,,,,,,"10330,1,99999,9",,,,,"MET061METAR ZBAA 040300Z 31002MPS 270V030 CAVOK 01/M12 Q1033 NOSIG="
"54511099999","2022-01-04T03:30:00","4","40.080111","116.584556","35.35","BEIJING CAPITAL INTERNATIONAL AIRPORT, CH","FM-15","99999","V020","090,1,V,0020,1","99999,9,9,Y","009900,5,9,9","+0010,1","-0100,1","99999,9",,,,,,,,,,,,,"10320,1,99999,9",,,,,"MET061METAR ZBAA 040330Z 09002MPS 030V140 CAVOK 01/M10 Q1032 NOSIG="
"54511099999","2022-01-04T04:00:00","4","40.080111","116.584556","35.35","BEIJING CAPITAL INTERNATIONAL AIRPORT, CH","FM-15","99999","V020","999,9,V,0010,1","99999,9,9,Y","009900,5,9,9","+0020,1","-0100,1","99999,9",,,,,,,,,,,,,"10320,1,99999,9",,,,,"MET053METAR ZBAA 040400Z VRB01MPS CAVOK 02/M10 Q1032 NOSIG="
"54511099999","2022-01-04T04:30:00","4","40.080111","116.584556","35.35","BEIJING CAPITAL INTERNATIONAL AIRPORT, CH","FM-15","99999","V020","999,9,V,0010,1","99999,9,9,Y","009900,5,9,9","+0020,1","-0090,1","99999,9",,,,,,,,,,,,,"10310,1,99999,9",,,,,"MET053METAR ZBAA 040430Z VRB01MPS CAVOK 02/M09 Q1031 NOSIG="
"54511099999","2022-01-04T05:00:00","4","40.080111","116.584556","35.35","BEIJING CAPITAL INTERNATIONAL AIRPORT, CH","FM-15","99999","V020","999,9,V,0020,1","99999,9,9,Y","009900,5,9,9","+0020,1","-0090,1","99999,9",,,,,,,,,,,,,"10310,1,99999,9",,,,,"MET053METAR ZBAA 040500Z VRB02MPS CAVOK 02/M09 Q1031 NOSIG="
"54511099999","2022-01-04T05:30:00","4","40.080111","116.584556","35.35","BEIJING CAPITAL INTERNATIONAL AIRPORT, CH","FM-15","99999","V020","030,1,V,0020,1","99999,9,9,Y","009900,5,9,9","+0020,1","-0090,1","99999,9",,,,,,,,,,,,,"10300,1,99999,9",,,,,"MET061METAR ZBAA 040530Z 03002MPS 350V070 CAVOK 02/M09 Q1030 NOSIG="
"54511099999","2022-01-04T06:00:00","4","40.080111","116.584556","35.35","BEIJING CAPITAL INTERNATIONAL AIRPORT, CH","FM-12","99999","V020","053,1,N,0018,1","99999,9,9,9","013200,1,9,9","+0027,1","-0095,1","10301,1","06,9999,9,9","24,0000,9,1",,"9999,9,9,999999,9,9","0,1,06,1","0,1,06,1",,,,"999,-0143,9","240,M,+0065,1","240,N,-0069,1","99999,9,10257,1","7,1,030,1,+043,1","00,1",,"4,12,0044,1,053","SYN004BUFR"
"54511099999","2022-01-04T06:00:00","4","40.080111","116.584556","35.35","BEIJING CAPITAL INTERNATIONAL AIRPORT, CH","FM-15","99999","V020","999,9,V,0010,1","99999,9,9,Y","009900,5,9,9","+0030,1","-0090,1","99999,9",,,,,,,,,,,,,"10300,1,99999,9",,,,,"MET053METAR ZBAA 040600Z VRB01MPS CAVOK 03/M09 Q1030 NOSIG="
"54511099999","2022-01-04T06:30:00","4","40.080111","116.584556","35.35","BEIJING CAPITAL INTERNATIONAL AIRPORT, CH","FM-15","99999","V020","110,1,V,0020,1","99999,9,9,Y","009900,5,9,9","+0030,1","-0100,1","99999,9",,,,,,,,,,,,,"10300,1,99999,9",,,,,"MET061METAR ZBAA 040630Z 11002MPS 030V150 CAVOK 03/M10 Q1030 NOSIG="
"54511099999","2022-01-04T07:00:00","4","40.080111","116.584556","35.35","BEIJING CAPITAL INTERNATIONAL AIRPORT, CH","FM-15","99999","V020","140,1,V,0020,1","99999,9,9,Y","009900,5,9,9","+0030,1","-0090,1","99999,9",,,,,,,,,,,,,"10290,1,99999,9",,,,,"MET061METAR ZBAA 040700Z 14002MPS 080V200 CAVOK 03/M09 Q1029 NOSIG="
"54511099999","2022-01-04T07:30:00","4","40.080111","116.584556","35.35","BEIJING CAPITAL INTERNATIONAL AIRPORT, CH","FM-15","99999","V020","999,9,V,0010,1","99999,9,9,Y","009900,5,9,9","+0030,1","-0090,1","99999,9",,,,,,,,,,,,,"10290,1,99999,9",,,,,"MET053METAR ZBAA 040730Z VRB01MPS CAVOK 03/M09 Q1029 NOSIG="
"54511099999","2022-01-04T08:00:00","4","40.080111","116.584556","35.35","BEIJING CAPITAL INTERNATIONAL AIRPORT, CH","FM-15","99999","V020","140,1,V,0020,1","99999,9,9,Y","009900,5,9,9","+0030,1","-0100,1","99999,9",,,,,,,,,,,,,"10290,1,99999,9",,,,,"MET061METAR ZBAA 040800Z 14002MPS 050V200 CAVOK 03/M10 Q1029 NOSIG="
"54511099999","2022-01-04T08:30:00","4","40.080111","116.584556","35.35","BEIJING CAPITAL INTERNATIONAL AIRPORT, CH","FM-15","99999","V020","170,1,V,0020,1","99999,9,9,Y","009900,5,9,9","+0020,1","-0100,1","99999,9",,,,,,,,,,,,,"10300,1,99999,9",,,,,"MET061METAR ZBAA 040830Z 17002MPS 130V210 CAVOK 02/M10 Q1030 NOSIG="
"54511099999","2022-01-04T09:00:00","4","40.080111","116.584556","35.35","BEIJING CAPITAL INTERNATIONAL AIRPORT, CH","FM-12","99999","V020","208,1,N,0005,1","99999,9,9,9","012900,1,9,9","+0015,1","-0110,1","10302,1","06,9999,9,9","12,9999,9,9","24,9999,9,9",,"0,1,03,1","0,1,03,1",,,,"999,-0143,9","240,M,+0039,1","240,N,-0069,1","99999,9,10258,1","2,1,001,1,+034,1","00,1",,"4,12,0044,1,053","SYN004BUFR"
"54511099999","2022-01-04T09:00:00","4","40.080111","116.584556","35.35","BEIJING CAPITAL INTERNATIONAL AIRPORT, CH","FM-15","99999","V020","999,9,C,0000,1","99999,9,9,Y","009900,5,9,9","+0000,1","-0100,1","99999,9",,,,,,,,,,,,,"10300,1,99999,9",,,,,"MET054METAR ZBAA 040900Z 00000MPS CAVOK M00/M10 Q1030 NOSIG="
"54511099999","2022-01-04T09:30:00","4","40.080111","116.584556","35.35","BEIJING CAPITAL INTERNATIONAL AIRPORT, CH","FM-15","99999","V020","999,9,V,0010,1","99999,9,9,Y","009900,5,9,9","-0020,1","-0100,1","99999,9",,,,,,,,,,,,,"10300,1,99999,9",,,,,"MET054METAR ZBAA 040930Z VRB01MPS CAVOK M02/M10 Q1030 NOSIG="
"54511099999","2022-01-04T10:00:00","4","40.080111","116.584556","35.35","BEIJING CAPITAL INTERNATIONAL AIRPORT, CH","FM-15","99999","V020","050,1,N,0010,1","99999,9,9,Y","009900,5,9,9","-0040,1","-0090,1","99999,9",,,,,,,,,,,,,"10300,1,99999,9",,,,,"MET054METAR ZBAA 041000Z 05001MPS CAVOK M04/M09 Q1030 NOSIG="
"54511099999","2022-01-04T10:30:00","4","40.080111","116.584556","35.35","BEIJING CAPITAL INTERNATIONAL AIRPORT, CH","FM-15","99999","V020","999,9,C,0000,1","99999,9,9,Y","009900,5,9,9","-0030,1","-0090,1","99999,9",,,,,,,,,,,,,"10300,1,99999,9",,,,,"MET054METAR ZBAA 041030Z 00000MPS CAVOK M03/M09 Q1030 NOSIG="
"54511099999","2022-01-04T11:00:00","4","40.080111","116.584556","35.35","BEIJING CAPITAL INTERNATIONAL AIRPORT, CH","FM-15","99999","V020","999,9,V,0010,1","99999,9,9,Y","009900,5,9,9","-0040,1","-0090,1","99999,9",,,,,,,,,,,,,"10310,1,99999,9",,,,,"MET054METAR ZBAA 041100Z VRB01MPS CAVOK M04/M09 Q1031 NOSIG="
"54511099999","2022-01-04T11:30:00","4","40.080111","116.584556","35.35","BEIJING CAPITAL INTERNATIONAL AIRPORT, CH","FM-15","99999","V020","350,1,N,0020,1","99999,9,9,Y","009900,5,9,9","-0050,1","-0100,1","99999,9",,,,,,,,,,,,,"10310,1,99999,9",,,,,"MET054METAR ZBAA 041130Z 35002MPS CAVOK M05/M10 Q1031 NOSIG="
"54511099999","2022-01-04T12:00:00","4","40.080111","116.584556","35.35","BEIJING CAPITAL INTERNATIONAL AIRPORT, CH","FM-12","99999","V020","360,1,N,0002,1","99999,9,9,9","006300,1,9,9","-0035,1","-0099,1","10315,1","06,9999,9,9","24,0000,9,1",,"9999,9,9,999999,9,9","0,1,06,1","0,1,06,1",,,,"999,-0124,9","240,M,+0039,1","240,N,-0069,1","99999,9,10270,1","2,1,012,1,+025,1","05,1",,"4,12,0044,1,053","SYN004BUFR"
"54511099999","2022-01-04T12:00:00","4","40.080111","116.584556","35.35","BEIJING CAPITAL INTERNATIONAL AIRPORT, CH","FM-15","99999","V020","999,9,V,0010,1","99999,9,9,Y","009900,5,9,9","-0040,1","-0080,1","99999,9",,,,,,,,,,,,,"10310,1,99999,9",,,,,"MET054METAR ZBAA 041200Z VRB01MPS CAVOK M04/M08 Q1031 NOSIG="
"54511099999","2022-01-04T12:30:00","4","40.080111","116.584556","35.35","BEIJING CAPITAL INTERNATIONAL AIRPORT, CH","FM-15","99999","V020","050,1,N,0010,1","99999,9,9,Y","009900,5,9,9","-0060,1","-0100,1","99999,9",,,,,,,,,,,,,"10310,1,99999,9",,,,,"MET054METAR ZBAA 041230Z 05001MPS CAVOK M06/M10 Q1031 NOSIG="
"54511099999","2022-01-04T13:00:00","4","40.080111","116.584556","35.35","BEIJING CAPITAL INTERNATIONAL AIRPORT, CH","FM-15","99999","V020","999,9,V,0010,1","99999,9,9,Y","009900,5,9,9","-0060,1","-0090,1","99999,9",,,,,,,,,,,,,"10310,1,99999,9",,,,,"MET054METAR ZBAA 041300Z VRB01MPS CAVOK M06/M09 Q1031 NOSIG="
"54511099999","2022-01-04T13:30:00","4","40.080111","116.584556","35.35","BEIJING CAPITAL INTERNATIONAL AIRPORT, CH","FM-15","99999","V020","080,1,N,0010,1","99999,9,9,Y","009900,5,9,9","-0060,1","-0090,1","99999,9",,,,,,,,,,,,,"10310,1,99999,9",,,,,"MET054METAR ZBAA 041330Z 08001MPS CAVOK M06/M09 Q1031 NOSIG="
"54511099999","2022-01-04T14:00:00","4","40.080111","116.584556","35.35","BEIJING CAPITAL INTERNATIONAL AIRPORT, CH","FM-15","99999","V020","070,1,N,0020,1","99999,9,9,Y","009900,5,9,9","-0060,1","-0100,1","99999,9",,,,,,,,,,,,,"10310,1,99999,9",,,,,"MET054METAR ZBAA 041400Z 07002MPS CAVOK M06/M10 Q1031 NOSIG="
"54511099999","2022-01-04T14:30:00","4","40.080111","116.584556","35.35","BEIJING CAPITAL INTERNATIONAL AIRPORT, CH","FM-15","99999","V020","080,1,N,0020,1","99999,9,9,Y","009900,5,9,9","-0050,1","-0080,1","99999,9",,,,,,,,,,,,,"10310,1,99999,9",,,,,"MET054METAR ZBAA 041430Z 08002MPS CAVOK M05/M08 Q1031 NOSIG="
"54511099999","2022-01-04T15:00:00","4","40.080111","116.584556","35.35","BEIJING CAPITAL INTERNATIONAL AIRPORT, CH","FM-12","99999","V020","212,1,N,0010,1","99999,9,9,9","008500,1,9,9","-0040,1","-0088,1","10315,1","06,9999,9,9","12,9999,9,9","24,9999,9,9",,,,,,,"999,-0113,9","240,M,+0039,1","240,N,-0069,1","99999,9,10271,1","2,1,001,1,+012,1","00,1",,"4,12,0039,1,048","SYN004BUFR"
"54511099999","2022-01-04T15:00:00","4","40.080111","116.584556","35.35","BEIJING CAPITAL INTERNATIONAL AIRPORT, CH","FM-15","99999","V020","080,1,N,0020,1","99999,9,9,Y","009900,5,9,9","-0040,1","-0070,1","99999,9",,,,,,,,,,,,,"10310,1,99999,9",,,,,"MET054METAR ZBAA 041500Z 08002MPS CAVOK M04/M07 Q1031 NOSIG="
"54511099999","2022-01-04T15:30:00","4","40.080111","116.584556","35.35","BEIJING CAPITAL INTERNATIONAL AIRPORT, CH","FM-15","99999","V020","100,1,V,0020,1","99999,9,9,Y","009900,5,9,9","-0040,1","-0070,1","99999,9",,,,,,,,,,,,,"10310,1,99999,9",,,,,"MET062METAR ZBAA 041530Z 10002MPS 070V130 CAVOK M04/M07 Q1031 NOSIG="
"54511099999","2022-01-04T16:00:00","4","40.080111","116.584556","35.35","BEIJING CAPITAL INTERNATIONAL AIRPORT, CH","FM-15","99999","V020","110,1,N,0020,1","99999,9,9,Y","009900,5,9,9","-0030,1","-0060,1","99999,9",,,,,,,,,,,,,"10310,1,99999,9",,,,,"MET054METAR ZBAA 041600Z 11002MPS CAVOK M03/M06 Q1031 NOSIG="
"54511099999","2022-01-04T16:30:00","4","40.080111","116.584556","35.35","BEIJING CAPITAL INTERNATIONAL AIRPORT, CH","FM-15","99999","V020","110,1,N,0010,1","99999,9,9,Y","009900,5,9,9","-0030,1","-0060,1","99999,9",,,,,,,,,,,,,"10310,1,99999,9",,,,,"MET054METAR ZBAA 041630Z 11001MPS CAVOK M03/M06 Q1031 NOSIG="
"54511099999","2022-01-04T17:00:00","4","40.080111","116.584556","35.35","BEIJING CAPITAL INTERNATIONAL AIRPORT, CH","FM-15","99999","V020","080,1,N,0010,1","99999,9,9,Y","009900,5,9,9","-0040,1","-0070,1","99999,9",,,,,,,,,,,,,"10310,1,99999,9",,,,,"MET054METAR ZBAA 041700Z 08001MPS CAVOK M04/M07 Q1031 NOSIG="
"54511099999","2022-01-04T17:30:00","4","40.080111","116.584556","35.35","BEIJING CAPITAL INTERNATIONAL AIRPORT, CH","FM-15","99999","V020","999,9,V,0010,1","99999,9,9,Y","009900,5,9,9","-0070,1","-0090,1","99999,9",,,,,,,,,,,,,"10310,1,99999,9",,,,,"MET054METAR ZBAA 041730Z VRB01MPS CAVOK M07/M09 Q1031 NOSIG="
"54511099999","2022-01-04T18:00:00","4","40.080111","116.584556","35.35","BEIJING CAPITAL INTERNATIONAL AIRPORT, CH","FM-12","99999","V020","036,1,N,0013,1","99999,9,9,9","009700,1,9,9","-0042,1","-0067,1","10314,1","06,9999,9,9","12,9999,9,9","24,9999,9,9",,"0,1,99,9","0,1,99,9","99,9,+09510,1,99,9","9,AGL   ,+99999,+99999","99,99,9,99,9,99,9,09510,1,99,9,99,9","999,-0119,9","240,M,+0039,1","240,N,-0069,1","99999,9,10270,1","7,1,001,1,-002,1","00,1",,"4,12,0035,1,039","SYN004BUFR"
"54511099999","2022-01-04T18:00:00","4","40.080111","116.584556","35.35","BEIJING CAPITAL INTERNATIONAL AIRPORT, CH","FM-15","99999","V020","999,9,V,0010,1","99999,9,9,Y","009900,5,9,9","-0080,1","-0100,1","99999,9",,,,,,,,,,,,,"10310,1,99999,9",,,,,"MET054METAR ZBAA 041800Z VRB01MPS CAVOK M08/M10 Q1031 NOSIG="
"54511099999","2022-01-04T18:30:00","4","40.080111","116.584556","35.35","BEIJING CAPITAL INTERNATIONAL AIRPORT, CH","FM-15","99999","V020","330,1,N,0020,1","99999,9,9,Y","009900,5,9,9","-0070,1","-0080,1","99999,9",,,,,,,,,,,,,"10310,1,99999,9",,,,,"MET054METAR ZBAA 041830Z 33002MPS CAVOK M07/M08 Q1031 NOSIG="
"54511099999","2022-01-04T19:00:00","4","40.080111","116.584556","35.35","BEIJING CAPITAL INTERNATIONAL AIRPORT, CH","FM-15","99999","V020","340,1,N,0010,1","99999,9,9,Y","009900,5,9,9","-0090,1","-0110,1","99999,9",,,,,,,,,,,,,"10310,1,99999,9",,,,,"MET054METAR ZBAA 041900Z 34001MPS CAVOK M09/M11 Q1031 NOSIG="
"54511099999","2022-01-04T19:30:00","4","40.080111","116.584556","35.35","BEIJING CAPITAL INTERNATIONAL AIRPORT, CH","FM-15","99999","V020","340,1,N,0010,1","99999,9,9,Y","009900,5,9,9","-0080,1","-0090,1","99999,9",,,,,,,,,,,,,"10310,1,99999,9",,,,,"MET054METAR ZBAA 041930Z 34001MPS CAVOK M08/M09 Q1031 NOSIG="
"54511099999","2022-01-04T20:00:00","4","40.080111","116.584556","35.35","BEIJING CAPITAL INTERNATIONAL AIRPORT, CH","FM-15","99999","V020","330,1,N,0010,1","99999,9,9,Y","009900,5,9,9","-0090,1","-0100,1","99999,9",,,,,,,,,,,,,"10300,1,99999,9",,,,,"MET054METAR ZBAA 042000Z 33001MPS CAVOK M09/M10 Q1030 NOSIG="
"54511099999","2022-01-04T20:30:00","4","40.080111","116.584556","35.35","BEIJING CAPITAL INTERNATIONAL AIRPORT, CH","FM-15","99999","V020","350,1,N,0010,1","99999,9,9,Y","009900,5,9,9","-0090,1","-0100,1","99999,9",,,,,,,,,,,,,"10300,1,99999,9",,,,,"MET054METAR ZBAA 042030Z 35001MPS CAVOK M09/M10 Q1030 NOSIG="
"54511099999","2022-01-04T21:00:00","4","40.080111","116.584556","35.35","BEIJING CAPITAL INTERNATIONAL AIRPORT, CH","FM-12","99999","V020","047,1,N,0010,1","99999,9,9,9","007100,1,9,9","-0060,1","-0078,1","10301,1","06,9999,9,9","12,9999,9,9","24,9999,9,9",,,,,,,"999,-0135,9","240,M,+0039,1","240,N,-0069,1","99999,9,10257,1","7,1,013,1,-015,1","05,1",,"4,12,0032,1,056","SYN004BUFR"
"54511099999","2022-01-04T21:00:00","4","40.080111","116.584556","35.35","BEIJING CAPITAL INTERNATIONAL AIRPORT, CH","FM-15","99999","V020","350,1,N,0020,1","99999,9,9,Y","009900,5,9,9","-0080,1","-0090,1","99999,9",,,,,,,,,,,,,"10300,1,99999,9",,,,,"MET054METAR ZBAA 042100Z 35002MPS CAVOK M08/M09 Q1030 NOSIG="
"54511099999","2022-01-04T21:30:00","4","40.080111","116.584556","35.35","BEIJING CAPITAL INTERNATIONAL AIRPORT, CH","FM-15","99999","V020","340,1,N,0020,1","99999,9,9,Y","009900,5,9,9","-0090,1","-0110,1","99999,9",,,,,,,,,,,,,"10300,1,99999,9",,,,,"MET054METAR ZBAA 042130Z 34002MPS CAVOK M09/M11 Q1030 NOSIG="
"54511099999","2022-01-04T22:00:00","4","40.080111","116.584556","35.35","BEIJING CAPITAL INTERNATIONAL AIRPORT, CH","FM-15","99999","V020","350,1,N,0010,1","99999,9,9,Y","009900,5,9,9","-0090,1","-0100,1","99999,9",,,,,,,,,,,,,"10300,1,99999,9",,,,,"MET054METAR ZBAA 042200Z 35001MPS CAVOK M09/M10 Q1030 NOSIG="
"54511099999","2022-01-04T22:30:00","4","40.080111","116.584556","35.35","BEIJING CAPITAL INTERNATIONAL AIRPORT, CH","FM-15","99999","V020","999,9,C,0000,1","99999,9,9,Y","009900,5,9,9","-0100,1","-0110,1","99999,9",,,,,,,,,,,,,"10300,1,99999,9",,,,,"MET054METAR ZBAA 042230Z 00000MPS CAVOK M10/M11 Q1030 NOSIG="
"54511099999","2022-01-04T23:00:00","4","40.080111","116.584556","35.35","BEIJING CAPITAL INTERNATIONAL AIRPORT, CH","FM-15","99999","V020","020,1,N,0010,1","99999,9,9,Y","009900,5,9,9","-0090,1","-0110,1","99999,9",,,,,,,,,,,,,"10300,1,99999,9",,,,,"MET054METAR ZBAA 042300Z 02001MPS CAVOK M09/M11 Q1030 NOSIG="
"54511099999","2022-01-04T23:30:00","4","40.080111","116.584556","35.35","BEIJING CAPITAL INTERNATIONAL AIRPORT, CH","FM-15","99999","V020","999,9,V,0010,1","99999,9,9,N","009999,1,9,9","-0080,1","-0090,1","99999,9",,,,,,,"04,1,+00610,1,99,9","9,AGL   ,+99999,+99999","99,99,9,04,1,99,9,00610,1,99,9,99,9",,,,"10300,1,99999,9",,,,,"MET060METAR ZBAA 042330Z VRB01MPS 9999 SCT020 M08/M09 Q1030 NOSIG="
"54511099999","2022-01-05T00:00:00","4","40.080111","116.584556","35.35","BEIJING CAPITAL INTERNATIONAL AIRPORT, CH","FM-12","99999","V020","055,1,N,0010,1","99999,9,9,9","006800,1,9,9","-0059,1","-0074,1","10310,1","06,9999,9,9","24,0000,9,1",,"9999,9,9,999999,9,9","0,1,12,1","0,1,12,1",,,,"999,-0138,9","240,M,+0039,1","240,N,-0071,1","99999,9,10265,1","2,1,008,1,-019,1","05,1",,"4,12,0032,1,056","SYN004BUFR"
"54511099999","2022-01-05T00:00:00","4","40.080111","116.584556","35.35","BEIJING CAPITAL INTERNATIONAL AIRPORT, CH","FM-15","99999","V020","999,9,V,0010,1","99999,9,9,N","009999,1,9,9","-0060,1","-0080,1","99999,9",,,,,,,"04,1,+00610,1,99,9","9,AGL   ,+99999,+99999","99,99,9,04,1,99,9,00610,1,99,9,99,9",,,,"10300,1,99999,9",,,,,"MET060METAR ZBAA 050000Z VRB01MPS 9999 SCT020 M06/M08 Q1030 NOSIG="
"54511099999","2022-01-05T00:30:00","4","40.080111","116.584556","35.35","BEIJING CAPITAL INTERNATIONAL AIRPORT, CH","FM-15","99999","V020","320,1,N,0020,1","99999,9,9,N","009999,1,9,9","-0040,1","-0060,1","99999,9",,,,,,,"04,1,+00610,1,99,9","9,AGL   ,+99999,+99999","99,99,9,04,1,99,9,00610,1,99,9,99,9",,,,"10310,1,99999,9",,,,,"MET060METAR ZBAA 050030Z 32002MPS 9999 SCT020 M04/M06 Q1031 NOSIG="
"54511099999","2022-01-05T01:00:00","4","40.080111","116.584556","35.35","BEIJING CAPITAL INTERNATIONAL AIRPORT, CH","FM-15","99999","V020","330,1,V,0020,1","99999,9,9,N","009999,1,9,9","-0030,1","-0060,1","99999,9",,,,,,,"04,1,+00610,1,99,9","9,AGL   ,+99999,+99999","99,99,9,04,1,99,9,00610,1,99,9,99,9",,,,"10310,1,99999,9",,,,,"MET068METAR ZBAA 050100Z 33002MPS 280V360 9999 SCT020 M03/M06 Q1031 NOSIG="
"54511099999","2022-01-05T01:30:00","4","40.080111","116.584556","35.35","BEIJING CAPITAL INTERNATIONAL AIRPORT, CH","FM-15","99999","V020","330,1,V,0020,1","99999,9,9,N","009999,1,9,9","-0030,1","-0060,1","99999,9",,,,,,,"04,1,+00610,1,99,9","9,AGL   ,+99999,+99999","99,99,9,04,1,99,9,00610,1,99,9,99,9",,,,"10310,1,99999,9",,,,,"MET068METAR ZBAA 050130Z 33002MPS 300V360 9999 SCT020 M03/M06 Q1031 NOSIG="
"54511099999","2022-01-05T02:00:00","4","40.080111","116.584556","35.35","BEIJING CAPITAL INTERNATIONAL AIRPORT, CH","FM-15","99999","V020","330,1,N,0030,1","99999,9,9,N","009999,1,9,9","-0020,1","-0060,1","99999,9",,,,,,,"04,1,+00610,1,99,9","9,AGL   ,+99999,+99999","99,99,9,04,1,99,9,00610,1,99,9,99,9",,,,"10310,1,99999,9",,,,,"MET060METAR ZBAA 050200Z 33003MPS 9999 SCT020 M02/M06 Q1031 NOSIG="
"54511099999","2022-01-05T02:30:00","4","40.080111","116.584556","35.35","BEIJING CAPITAL INTERNATIONAL AIRPORT, CH","FM-15","99999","V020","320,1,N,0030,1","99999,9,9,N","009999,1,9,9","-0020,1","-0060,1","99999,9",,,,,,,"04,1,+00610,1,99,9","9,AGL   ,+99999,+99999","99,99,9,04,1,99,9,00610,1,99,9,99,9",,,,"10310,1,99999,9",,,,,"MET060METAR ZBAA 050230Z 32003MPS 9999 SCT020 M02/M06 Q1031 NOSIG="
"54511099999","2022-01-05T03:00:00","4","40.080111","116.584556","35.35","BEIJING CAPITAL INTERNATIONAL AIRPORT, CH","FM-12","99999","V020","027,1,N,0017,1","99999,9,9,9","008600,1,9,9","+0007,1","-0045,1","10311,1","06,9999,9,9","12,9999,9,9","24,9999,9,9",,"0,1,03,1","0,1,03,1",,,,"999,-0138,9","240,M,+0039,1","240,N,-0071,1","99999,9,10267,1","2,1,002,1,-020,1","00,1",,"4,12,0040,1,031","SYN004BUFR"
"54511099999","2022-01-05T03:00:00","4","40.080111","116.584556","35.35","BEIJING CAPITAL INTERNATIONAL AIRPORT, CH","FM-15","99999","V020","340,1,N,0020,1","99999,9,9,N","009999,1,9,9","-0010,1","-0060,1","99999,9",,,,,,,"04,1,+00610,1,99,9","9,AGL   ,+99999,+99999","99,99,9,04,1,99,9,00610,1,99,9,99,9",,,,"10310,1,99999,9",,,,,"MET060METAR ZBAA 050300Z 34002MPS 9999 SCT020 M01/M06 Q1031 NOSIG="
"54511099999","2022-01-05T03:30:00","4","40.080111","116.584556","35.35","BEIJING CAPITAL INTERNATIONAL AIRPORT, CH","FM-15","99999","V020","320,1,N,0020,1","99999,9,9,N","009999,1,9,9","+0000,1","-0060,1","99999,9",,,,,,,"04,1,+00610,1,99,9","9,AGL   ,+99999,+99999","99,99,9,04,1,99,9,00610,1,99,9,99,9",,,,"10310,1,99999,9",,,,,"MET059METAR ZBAA 050330Z 32002MPS 9999 SCT020 00/M06 Q1031 NOSIG="
"54511099999","2022-01-05T04:00:00","4","40.080111","116.584556","35.35","BEIJING CAPITAL INTERNATIONAL AIRPORT, CH","FM-15","99999","V020","310,1,V,0020,1","99999,9,9,Y","009900,5,9,9","+0010,1","-0050,1","99999,9",,,,,,,,,,,,,"10300,1,99999,9",,,,,"MET061METAR ZBAA 050400Z 31002MPS 260V340 CAVOK 01/M05 Q1030 NOSIG="
"54511099999","2022-01-05T04:30:00","4","40.080111","116.584556","35.35","BEIJING CAPITAL INTERNATIONAL AIRPORT, CH","FM-15","99999","V020","320,1,V,0030,1","99999,9,9,Y","009900,5,9,9","+0020,1","-0060,1","99999,9",,,,,,,,,,,,,"10300,1,99999,9",,,,,"MET061METAR ZBAA 050430Z 32003MPS 270V350 CAVOK 02/M06 Q1030 NOSIG="
"54511099999","2022-01-05T05:00:00","4","40.080111","116.584556","35.35","BEIJING CAPITAL INTERNATIONAL AIRPORT, CH","FM-15","99999","V020","320,1,V,0020,1","99999,9,9,Y","009900,5,9,9","+0010,1","-0060,1","99999,9",,,,,,,,,,,,,"10290,1,99999,9",,,,,"MET061METAR ZBAA 050500Z 32002MPS 290V350 CAVOK 01/M06 Q1029 NOSIG="
"54511099999","2022-01-05T05:30:00","4","40.080111","116.584556","35.35","BEIJING CAPITAL INTERNATIONAL AIRPORT, CH","FM-15","99999","V020","310,1,V,0020,1","99999,9,9,Y","009900,5,9,9","+0020,1","-0060,1","99999,9",,,,,,,,,,,,,"10290,1,99999,9",,,,,"MET061METAR ZBAA 050530Z 31002MPS 270V350 CAVOK 02/M06 Q1029 NOSIG="
"54511099999","2022-01-05T06:00:00","4","40.080111","116.584556","35.35","BEIJING CAPITAL INTERNATIONAL AIRPORT, CH","FM-12","99999","V020","060,1,N,0014,1","99999,9,9,9","009100,1,9,9","+0026,1","-0058,1","10292,1","06,9999,9,9","24,0000,9,1",,"9999,9,9,999999,9,9","0,1,06,1","0,1,06,1",,,,"999,-0138,9","240,M,+0039,1","240,N,-0071,1","99999,9,10248,1","7,1,019,1,-009,1","00,1",,"4,12,0044,1,023","SYN004BUFR"
"54511099999","2022-01-05T06:00:00","4","40.080111","116.584556","35.35","BEIJING CAPITAL INTERNATIONAL AIRPORT, CH","FM-15","99999","V020","310,1,V,0020,1","99999,9,9,Y","009900,5,9,9","+0020,1","-0070,1","99999,9",,,,,,,,,,,,,"10290,1,99999,9",,,,,"MET061METAR ZBAA 050600Z 31002MPS 260V360 CAVOK 02/M07 Q1029 NOSIG="
"54511099999","2022-01-05T06:30:00","4","40.080111","116.584556","35.35","BEIJING CAPITAL INTERNATIONAL AIRPORT, CH","FM-15","99999","V020","320,1,V,0020,1","99999,9,9,Y","009900,5,9,9","+0030,1","-0070,1","99999,9",,,,,,,,,,,,,"10290,1,99999,9",,,,,"MET061METAR ZBAA 050630Z 32002MPS 280V350 CAVOK 03/M07 Q1029 NOSIG="
"54511099999","2022-01-05T07:00:00","4","40.080111","116.584556","35.35","BEIJING CAPITAL INTERNATIONAL AIRPORT, CH","FM-15","99999","V020","999,9,V,0010,1","99999,9,9,Y","009900,5,9,9","+0020,1","-0070,1","99999,9",,,,,,,,,,,,,"10290,1,99999,9",,,,,"MET053METAR ZBAA 050700Z VRB01MPS CAVOK 02/M07 Q1029 NOSIG="
"54511099999","2022-01-05T07:30:00","4","40.080111","116.584556","35.35","BEIJING CAPITAL INTERNATIONAL AIRPORT, CH","FM-15","99999","V020","999,9,V,0010,1","99999,9,9,Y","009900,5,9,9","+0020,1","-0070,1","99999,9",,,,,,,,,,,,,"10290,1,99999,9",,,,,"MET053METAR ZBAA 050730Z VRB01MPS CAVOK 02/M07 Q1029 NOSIG="
"54511099999","2022-01-05T08:00:00","4","40.080111","116.584556","35.35","BEIJING CAPITAL INTERNATIONAL AIRPORT, CH","FM-15","99999","V020","999,9,V,0010,1","99999,9,9,Y","009900,5,9,9","+0020,1","-0070,1","99999,9",,,,,,,,,,,,,"10290,1,99999,9",,,,,"MET053METAR ZBAA 050800Z VRB01MPS CAVOK 02/M07 Q1029 NOSIG="
"54511099999","2022-01-05T08:30:00","4","40.080111","116.584556","35.35","BEIJING CAPITAL INTERNATIONAL AIRPORT, CH","FM-15","99999","V020","999,9,V,0010,1","99999,9,9,Y","009900,5,9,9","+0020,1","-0080,1","99999,9",,,,,,,,,,,,,"10290,1,99999,9",,,,,"MET053METAR ZBAA 050830Z VRB01MPS CAVOK 02/M08 Q1029 NOSIG="
"54511099999","2022-01-05T09:00:00","4","40.080111","116.584556","35.35","BEIJING CAPITAL INTERNATIONAL AIRPORT, CH","FM-12","99999","V020","032,1,N,0008,1","99999,9,9,9","008500,1,9,9","+0007,1","-0066,1","10300,1","06,9999,9,9","12,9999,9,9","24,9999,9,9",,"0,1,03,1","0,1,03,1",,,,"999,-0138,9","240,M,+0029,1","240,N,-0071,1","99999,9,10256,1","2,1,008,1,-002,1","00,1",,"4,12,0044,1,023","SYN004BUFR"
"54511099999","2022-01-05T09:00:00","4","40.080111","116.584556","35.35","BEIJING CAPITAL INTERNATIONAL AIRPORT, CH","FM-15","99999","V020","999,9,V,0010,1","99999,9,9,Y","009900,5,9,9","+0010,1","-0070,1","99999,9",,,,,,,,,,,,,"10290,1,99999,9",,,,,"MET053METAR ZBAA 050900Z VRB01MPS CAVOK 01/M07 Q1029 NOSIG="
"54511099999","2022-01-05T09:30:00","4","40.080111","116.584556","35.35","BEIJING CAPITAL INTERNATIONAL AIRPORT, CH","FM-15","99999","V020","999,9,V,0010,1","99999,9,9,Y","009900,5,9,9","-0020,1","-0070,1","99999,9",,,,,,,,,,,,,"10300,1,99999,9",,,,,"MET054METAR ZBAA 050930Z VRB01MPS CAVOK M02/M07 Q1030 NOSIG="
"54511099999","2022-01-05T10:00:00","4","40.080111","116.584556","35.35","BEIJING CAPITAL INTERNATIONAL AIRPORT, CH","FM-15","99999","V020","999,9,V,0010,1","99999,9,9,Y","009900,5,9,9","-0030,1","-0080,1","99999,9",,,,,,,,,,,,,"10300,1,99999,9",,,,,"MET054METAR ZBAA 051000Z VRB01MPS CAVOK M03/M08 Q1030 NOSIG="
"54511099999","2022-01-05T10:30:00","4","40.080111","116.584556","35.35","BEIJING CAPITAL INTERNATIONAL AIRPORT, CH","FM-15","99999","V020","999,9,V,0010,1","99999,9,9,Y","009900,5,9,9","-0030,1","-0070,1","99999,9",,,,,,,,,,,,,"10300,1,99999,9",,,,,"MET054METAR ZBAA 051030Z VRB01MPS CAVOK M03/M07 Q1030 NOSIG="
"54511099999","2022-01-05T11:00:00","4","40.080111","116.584556","35.35","BEIJING CAPITAL INTERNATIONAL AIRPORT, CH","FM-15","99999","V020","999,9,V,0010,1","99999,9,9,Y","009900,5,9,9","-0030,1","-0080,1","99999,9",,,,,,,,,,,,,"10300,1,99999,9",,,,,"MET054METAR ZBAA 051100Z VRB01MPS CAVOK M03/M08 Q1030 NOSIG="
"54511099999","2022-01-05T11:30:00","4","40.080111","116.584556","35.35","BEIJING CAPITAL INTERNATIONAL AIRPORT, CH","FM-15","99999","V020","040,1,N,0010,1","99999,9,9,Y","009900,5,9,9","-0060,1","-0090,1","99999,9",,,,,,,,,,,,,"10310,1,99999,9",,,,,"MET054METAR ZBAA 051130Z 04001MPS CAVOK M06/M09 Q1031 NOSIG="
"54511099999","2022-01-05T12:00:00","4","40.080111","116.584556","35.35","BEIJING CAPITAL INTERNATIONAL AIRPORT, CH","FM-12","99999","V020","360,1,N,0001,1","99999,9,9,9","004500,1,9,9","-0030,1","-0069,1","10315,1","06,9999,9,9","24,0000,9,1",,"9999,9,9,999999,9,9","0,1,06,1","0,1,06,1",,,,"999,-0128,9","240,M,+0029,1","240,N,-0071,1","99999,9,10270,1","2,1,014,1,+000,1","05,1",,"4,12,0044,1,023","SYN004BUFR"
"54511099999","2022-01-05T12:00:00","4","40.080111","116.584556","35.35","BEIJING CAPITAL INTERNATIONAL AIRPORT, CH","FM-15","99999","V020","999,9,V,0010,1","99999,9,9,Y","009900,5,9,9","-0050,1","-0070,1","99999,9",,,,,,,,,,,,,"10310,1,99999,9",,,,,"MET054METAR ZBAA 051200Z VRB01MPS CAVOK M05/M07 Q1031 NOSIG="
"54511099999","2022-01-05T12:30:00","4","40.080111","116.584556","35.35","BEIJING CAPITAL INTERNATIONAL AIRPORT, CH","FM-15","99999","V020","999,9,V,0010,1","99999,9,9,Y","009900,5,9,9","-0050,1","-0080,1","99999,9",,,,,,,,,,,,,"10310,1,99999,9",,,,,"MET054METAR ZBAA 051230Z VRB01MPS CAVOK M05/M08 Q1031 NOSIG="
"54511099999","2022-01-05T13:00:00","4","40.080111","116.584556","35.35","BEIJING CAPITAL INTERNATIONAL AIRPORT, CH","FM-15","99999","V020","999,9,V,0010,1","99999,9,9,Y","009900,5,9,9","-0070,1","-0090,1","99999,9",,,,,,,,,,,,,"10310,1,99999,9",,,,,"MET054METAR ZBAA 051300Z VRB01MPS CAVOK M07/M09 Q1031 NOSIG="
"54511099999","2022-01-05T13:30:00","4","40.080111","116.584556","35.35","BEIJING CAPITAL INTERNATIONAL AIRPORT, CH","FM-15","99999","V020","999,9,V,0010,1","99999,9,9,Y","009900,5,9,9","-0040,1","-0060,1","99999,9",,,,,,,,,,,,,"10320,1,99999,9",,,,,"MET054METAR ZBAA 051330Z VRB01MPS CAVOK M04/M06 Q1032 NOSIG="
"54511099999","2022-01-05T14:00:00","4","40.080111","116.584556","35.35","BEIJING CAPITAL INTERNATIONAL AIRPORT, CH","FM-15","99999","V020","340,1,N,0020,1","99999,9,9,Y","009900,5,9,9","-0060,1","-0080,1","99999,9",,,,,,,,,,,,,"10320,1,99999,9",,,,,"MET054METAR ZBAA 051400Z 34002MPS CAVOK M06/M08 Q1032 NOSIG="
"54511099999","2022-01-05T14:30:00","4","40.080111","116.584556","35.35","BEIJING CAPITAL INTERNATIONAL AIRPORT, CH","FM-15","99999","V020","340,1,N,0030,1","99999,9,9,Y","009900,5,9,9","-0060,1","-0090,1","99999,9",,,,,,,,,,,,,"10320,1,99999,9",,,,,"MET054METAR ZBAA 051430Z 34003MPS CAVOK M06/M09 Q1032 NOSIG="
"54511099999","2022-01-05T15:00:00","4","40.080111","116.584556","35.35","BEIJING CAPITAL INTERNATIONAL AIRPORT, CH","FM-12","99999","V020","360,1,N,0000,1","99999,9,9,9","003200,1,9,9","-0047,1","-0069,1","10321,1","06,9999,9,9","12,9999,9,9","24,9999,9,9",,,,,,,"999,-0117,9","240,M,+0029,1","240,N,-0071,1","99999,9,10277,1","2,1,007,1,+006,1","05,1",,"4,12,0044,1,023","SYN004BUFR"
"54511099999","2022-01-05T15:00:00","4","40.080111","116.584556","35.35","BEIJING CAPITAL INTERNATIONAL AIRPORT, CH","FM-15","99999","V020","340,1,N,0030,1","99999,9,9,Y","009900,5,9,9","-0060,1","-0080,1","99999,9",,,,,,,,,,,,,"10320,1,99999,9",,,,,"MET054METAR ZBAA 051500Z 34003MPS CAVOK M06/M08 Q1032 NOSIG="
"54511099999","2022-01-05T15:30:00","4","40.080111","116.584556","35.35","BEIJING CAPITAL INTERNATIONAL AIRPORT, CH","FM-15","99999","V020","340,1,N,0020,1","99999,9,9,Y","009900,5,9,9","-0060,1","-0090,1","99999,9",,,,,,,,,,,,,"10320,1,99999,9",,,,,"MET054METAR ZBAA 051530Z 34002MPS CAVOK M06/M09 Q1032 NOSIG="
"54511099999","2022-01-05T16:00:00","4","40.080111","116.584556","35.35","BEIJING CAPITAL INTERNATIONAL AIRPORT, CH","FM-15","99999","V020","320,1,V,0020,1","99999,9,9,Y","009900,5,9,9","-0050,1","-0080,1","99999,9",,,,,,,,,,,,,"10320,1,99999,9",,,,,"MET062METAR ZBAA 051600Z 32002MPS 290V350 CAVOK M05/M08 Q1032 NOSIG="
"54511099999","2022-01-05T16:30:00","4","40.080111","116.584556","35.35","BEIJING CAPITAL INTERNATIONAL AIRPORT, CH","FM-15","99999","V020","310,1,N,0030,1","99999,9,9,Y","009900,5,9,9","-0060,1","-0080,1","99999,9",,,,,,,,,,,,,"10320,1,99999,9",,,,,"MET054METAR ZBAA 051630Z 31003MPS CAVOK M06/M08 Q1032 NOSIG="
"54511099999","2022-01-05T17:00:00","4","40.080111","116.584556","35.35","BEIJING CAPITAL INTERNATIONAL AIRPORT, CH","FM-15","99999","V020","330,1,N,0020,1","99999,9,9,Y","009900,5,9,9","-0060,1","-0090,1","99999,9",,,,,,,,,,,,,"10320,1,99999,9",,,,,"MET054METAR ZBAA 051700Z 33002MPS CAVOK M06/M09 Q1032 NOSIG="
"54511099999","2022-01-05T17:30:00","4","40.080111","116.584556","35.35","BEIJING CAPITAL INTERNATIONAL AIRPORT, CH","FM-15","99999","V020","310,1,N,0020,1","99999,9,9,Y","009900,5,9,9","-0040,1","-0070,1","99999,9",,,,,,,,,,,,,"10320,1,99999,9",,,,,"MET054METAR ZBAA 051730Z 31002MPS CAVOK M04/M07 Q1032 NOSIG="
"54511099999","2022-01-05T18:00:00","4","40.080111","116.584556","35.35","BEIJING CAPITAL INTERNATIONAL AIRPORT, CH","FM-12","99999","V020","319,1,N,0003,1","99999,9,9,9","003400,1,9,9","-0059,1","-0080,1","10329,1","06,9999,9,9","12,9999,9,9","24,9999,9,9",,"0,1,99,9","0,1,99,9",,,,"999,-0131,9","240,M,+0029,1","240,N,-0071,1","99999,9,10285,1","2,1,008,1,+015,1","05,1",,"4,12,0025,1,017","SYN004BUFR"
"54511099999","2022-01-05T18:00:00","4","40.080111","116.584556","35.35","BEIJING CAPITAL INTERNATIONAL AIRPORT, CH","FM-15","99999","V020","310,1,N,0020,1","99999,9,9,Y","009900,5,9,9","-0050,1","-0080,1","99999,9",,,,,,,,,,,,,"10320,1,99999,9",,,,,"MET054METAR ZBAA 051800Z 31002MPS CAVOK M05/M08 Q1032 NOSIG="
"54511099999","2022-01-05T18:30:00","4","40.080111","116.584556","35.35","BEIJING CAPITAL INTERNATIONAL AIRPORT, CH","FM-15","99999","V020","330,1,N,0020,1","99999,9,9,Y","009900,5,9,9","-0060,1","-0090,1","99999,9",,,,,,,,,,,,,"10330,1,99999,9",,,,,"MET054METAR ZBAA 051830Z 33002MPS CAVOK M06/M09 Q1033 NOSIG="
"54511099999","2022-01-05T19:00:00","4","40.080111","116.584556","35.35","BEIJING CAPITAL INTERNATIONAL AIRPORT, CH","FM-15","99999","V020","340,1,N,0030,1","99999,9,9,Y","009900,5,9,9","-0070,1","-0100,1","99999,9",,,,,,,,,,,,,"10330,1,99999,9",,,,,"MET054METAR ZBAA 051900Z 34003MPS CAVOK M07/M10 Q1033 NOSIG="
"54511099999","2022-01-05T19:30:00","4","40.080111","116.584556","35.35","BEIJING CAPITAL INTERNATIONAL AIRPORT, CH","FM-15","99999","V020","330,1,N,0040,1","99999,9,9,Y","009900,5,9,9","-0070,1","-0090,1","99999,9",,,,,,,,,,,,,"10330,1,99999,9",,,,,"MET054METAR ZBAA 051930Z 33004MPS CAVOK M07/M09 Q1033 NOSIG="
"54511099999","2022-01-05T20:00:00","4","40.080111","116.584556","35.35","BEIJING CAPITAL INTERNATIONAL AIRPORT, CH","FM-15","99999","V020","340,1,N,0030,1","99999,9,9,Y","009900,5,9,9","-0070,1","-0100,1","99999,9",,,,,,,,,,,,,"10330,1,99999,9",,,,,"MET054METAR ZBAA 052000Z 34003MPS CAVOK M07/M10 Q1033 NOSIG="
"54511099999","2022-01-05T20:30:00","4","40.080111","116.584556","35.35","BEIJING CAPITAL INTERNATIONAL AIRPORT, CH","FM-15","99999","V020","320,1,N,0030,1","99999,9,9,Y","009900,5,9,9","-0060,1","-0100,1","99999,9",,,,,,,,,,,,,"10330,1,99999,9",,,,,"MET054METAR ZBAA 052030Z 32003MPS CAVOK M06/M10 Q1033 NOSIG="
"54511099999","2022-01-05T21:00:00","4","40.080111","116.584556","35.35","BEIJING CAPITAL INTERNATIONAL AIRPORT, CH","FM-12","99999","V020","309,1,N,0006,1","99999,9,9,9","003500,1,9,9","-0070,1","-0088,1","10338,1","06,9999,9,9","12,9999,9,9","24,9999,9,9",,,,,,,"999,-0142,9","240,M,+0029,1","240,N,-0071,1","99999,9,10294,1","2,1,009,1,+037,1","05,1",,"4,12,0017,1,214","SYN004BUFR"
"54511099999","2022-01-05T21:00:00","4","40.080111","116.584556","35.35","BEIJING CAPITAL INTERNATIONAL AIRPORT, CH","FM-15","99999","V020","340,1,N,0040,1","99999,9,9,Y","009900,5,9,9","-0080,1","-0110,1","99999,9",,,,,,,,,,,,,"10330,1,99999,9",,,,,"MET054METAR ZBAA 052100Z 34004MPS CAVOK M08/M11 Q1033 NOSIG="
"54511099999","2022-01-05T21:30:00","4","40.080111","116.584556","35.35","BEIJING CAPITAL INTERNATIONAL AIRPORT, CH","FM-15","99999","V020","340,1,N,0030,1","99999,9,9,Y","009900,5,9,9","-0070,1","-0110,1","99999,9",,,,,,,,,,,,,"10340,1,99999,9",,,,,"MET054METAR ZBAA 052130Z 34003MPS CAVOK M07/M11 Q1034 NOSIG="
"54511099999","2022-01-05T22:00:00","4","40.080111","116.584556","35.35","BEIJING CAPITAL INTERNATIONAL AIRPORT, CH","FM-15","99999","V020","340,1,N,0020,1","99999,9,9,Y","009900,5,9,9","-0070,1","-0110,1","99999,9",,,,,,,,,,,,,"10340,1,99999,9",,,,,"MET054METAR ZBAA 052200Z 34002MPS CAVOK M07/M11 Q1034 NOSIG="
"54511099999","2022-01-05T22:30:00","4","40.080111","116.584556","35.35","BEIJING CAPITAL INTERNATIONAL AIRPORT, CH","FM-15","99999","V020","340,1,N,0030,1","99999,9,9,Y","009900,5,9,9","-0050,1","-0100,1","99999,9",,,,,,,,,,,,,"10340,1,99999,9",,,,,"MET054METAR ZBAA 052230Z 34003MPS CAVOK M05/M10 Q1034 NOSIG="
"54511099999","2022-01-05T23:00:00","4","40.080111","116.584556","35.35","BEIJING CAPITAL INTERNATIONAL AIRPORT, CH","FM-15","99999","V020","330,1,N,0020,1","99999,9,9,Y","009900,5,9,9","-0070,1","-0110,1","99999,9",,,,,,,,,,,,,"10340,1,99999,9",,,,,"MET054METAR ZBAA 052300Z 33002MPS CAVOK M07/M11 Q1034 NOSIG="
"54511099999","2022-01-05T23:30:00","4","40.080111","116.584556","35.35","BEIJING CAPITAL INTERNATIONAL AIRPORT, CH","FM-15","99999","V020","330,1,V,0020,1","99999,9,9,Y","009900,5,9,9","-0070,1","-0110,1","99999,9",,,,,,,,,,,,,"10340,1,99999,9",,,,,"MET062METAR ZBAA 052330Z 33002MPS 270V360 CAVOK M07/M11 Q1034 NOSIG="
"54511099999","2022-01-06T00:00:00","4","40.080111","116.584556","35.35","BEIJING CAPITAL INTERNATIONAL AIRPORT, CH","FM-12","99999","V020","052,1,N,0013,1","99999,9,9,9","005200,1,9,9","-0057,1","-0085,1","10353,1","06,9999,9,9","24,0000,9,1",,"9999,9,9,999999,9,9","0,1,12,1","0,1,12,1",,,,"999,-0146,9","240,M,+0029,1","240,N,-0074,1","99999,9,10308,1","2,1,014,1,+043,1","05,1",,"4,12,0018,1,256","SYN004BUFR"
"54511099999","2022-01-06T00:00:00","4","40.080111","116.584556","35.35","BEIJING CAPITAL INTERNATIONAL AIRPORT, CH","FM-15","99999","V020","999,9,V,0010,1","99999,9,9,Y","009900,5,9,9","-0060,1","-0110,1","99999,9",,,,,,,,,,,,,"10350,1,99999,9",,,,,"MET054METAR ZBAA 060000Z VRB01MPS CAVOK M06/M11 Q1035 NOSIG="
"54511099999","2022-01-06T00:30:00","4","40.080111","116.584556","35.35","BEIJING CAPITAL INTERNATIONAL AIRPORT, CH","FM-15","99999","V020","320,1,N,0030,1","99999,9,9,Y","009900,5,9,9","-0040,1","-0090,1","99999,9",,,,,,,,,,,,,"10350,1,99999,9",,,,,"MET054METAR ZBAA 060030Z 32003MPS CAVOK M04/M09 Q1035 NOSIG="
"54511099999","2022-01-06T01:00:00","4","40.080111","116.584556","35.35","BEIJING CAPITAL INTERNATIONAL AIRPORT, CH","FM-15","99999","V020","330,1,N,0030,1","99999,9,9,Y","009900,5,9,9","-0010,1","-0090,1","99999,9",,,,,,,,,,,,,"10350,1,99999,9",,,,,"MET054METAR ZBAA 060100Z 33003MPS CAVOK M01/M09 Q1035 NOSIG="
"54511099999","2022-01-06T01:30:00","4","40.080111","116.584556","35.35","BEIJING CAPITAL INTERNATIONAL AIRPORT, CH","FM-15","99999","V020","350,1,V,0020,1","99999,9,9,Y","009900,5,9,9","+0000,1","-0090,1","99999,9",,,,,,,,,,,,,"10360,1,99999,9",,,,,"MET062METAR ZBAA 060130Z 35002MPS 320V020 CAVOK M00/M09 Q1036 NOSIG="
"54511099999","2022-01-06T02:00:00","4","40.080111","116.584556","35.35","BEIJING CAPITAL INTERNATIONAL AIRPORT, CH","FM-15","99999","V020","010,1,N,0030,1","99999,9,9,Y","009900,5,9,9","+0000,1","-0100,1","99999,9",,,,,,,,,,,,,"10360,1,99999,9",,,,,"MET053METAR ZBAA 060200Z 01003MPS CAVOK 00/M10 Q1036 NOSIG="
"54511099999","2022-01-06T02:30:00","4","40.080111","116.584556","35.35","BEIJING CAPITAL INTERNATIONAL AIRPORT, CH","FM-15","99999","V020","060,1,V,0020,1","99999,9,9,Y","009900,5,9,9","+0020,1","-0110,1","99999,9",,,,,,,,,,,,,"10360,1,99999,9",,,,,"MET061METAR ZBAA 060230Z 06002MPS 020V100 CAVOK 02/M11 Q1036 NOSIG="
"54511099999","2022-01-06T03:00:00","4","40.080111","116.584556","35.35","BEIJING CAPITAL INTERNATIONAL AIRPORT, CH","FM-12","99999","V020","045,1,N,0026,1","99999,9,9,9","022200,1,9,9","+0032,1","-0127,1","10359,1","06,9999,9,9","12,9999,9,9","24,9999,9,9",,"0,1,03,1","0,1,03,1",,,,"999,-0146,9","240,M,+0032,1","240,N,-0074,1","99999,9,10315,1","2,1,007,1,+048,1","00,1",,"4,12,0047,1,045","SYN004BUFR"
"54511099999","2022-01-06T03:00:00","4","40.080111","116.584556","35.35","BEIJING CAPITAL INTERNATIONAL AIRPORT, CH","FM-15","99999","V020","080,1,V,0020,1","99999,9,9,Y","009900,5,9,9","+0020,1","-0120,1","99999,9",,,,,,,,,,,,,"10360,1,99999,9",,,,,"MET061METAR ZBAA 060300Z 08002MPS 030V160 CAVOK 02/M12 Q1036 NOSIG="
"54511099999","2022-01-06T03:30:00","4","40.080111","116.584556","35.35","BEIJING CAPITAL INTERNATIONAL AIRPORT, CH","FM-15","99999","V020","060,1,V,0020,1","99999,9,9,Y","009900,5,9,9","+0030,1","-0130,1","99999,9",,,,,,,,,,,,,"10350,1,99999,9",,,,,"MET061METAR ZBAA 060330Z 06002MPS 010V120 CAVOK 03/M13 Q1035 NOSIG="
"54511099999","2022-01-06T04:00:00","4","40.080111","116.584556","35.35","BEIJING CAPITAL INTERNATIONAL AIRPORT, CH","FM-15","99999","V020","060,1,V,0020,1","99999,9,9,Y","009900,5,9,9","+0040,1","-0130,1","99999,9",,,,,,,,,,,,,"10350,1,99999,9",,,,,"MET061METAR ZBAA 060400Z 06002MPS 020V090 CAVOK 04/M13 Q1035 NOSIG="
"54511099999","2022-01-06T04:30:00","4","40.080111","116.584556","35.35","BEIJING CAPITAL INTERNATIONAL AIRPORT, CH","FM-15","99999","V020","050,1,V,0020,1","99999,9,9,Y","009900,5,9,9","+0040,1","-0120,1","99999,9",,,,,,,,,,,,,"10340,1,99999,9",,,,,"MET061METAR ZBAA 060430Z 05002MPS 350V120 CAVOK 04/M12 Q1034 NOSIG="
"54511099999","2022-01-06T05:00:00","4","40.080111","116.584556","35.35","BEIJING CAPITAL INTERNATIONAL AIRPORT, CH","FM-15","99999","V020","999,9,V,0010,1","99999,9,9,Y","009900,5,9,9","+0060,1","-0100,1","99999,9",,,,,,,,,,,,,"10340,1,99999,9",,,,,"MET053METAR ZBAA 060500Z VRB01MPS CAVOK 06/M10 Q1034 NOSIG="
"54511099999","2022-01-06T05:30:00","4","40.080111","116.584556","35.35","BEIJING CAPITAL INTERNATIONAL AIRPORT, CH","FM-15","99999","V020","090,1,V,0020,1","99999,9,9,Y","009900,5,9,9","+0050,1","-0090,1","99999,9",,,,,,,,,,,,,"10340,1,99999,9",,,,,"MET061METAR ZBAA 060530Z 09002MPS 030V180 CAVOK 05/M09 Q1034 NOSIG="
"54511099999","2022-01-06T06:00:00","4","40.080111","116.584556","35.35","BEIJING CAPITAL INTERNATIONAL AIRPORT, CH","FM-12","99999","V020","145,1,N,0012,1","99999,9,9,9","014600,1,9,9","+0060,1","-0103,1","10338,1","06,9999,9,9","24,0000,9,1",,"9999,9,9,999999,9,9","0,1,06,1","0,1,06,1",,,,"999,-0146,9","240,M,+0060,1","240,N,-0074,1","99999,9,10294,1","7,1,021,1,+046,1","00,1",,"4,12,0047,1,045","SYN004BUFR"
"54511099999","2022-01-06T06:00:00","4","40.080111","116.584556","35.35","BEIJING CAPITAL INTERNATIONAL AIRPORT, CH","FM-15","99999","V020","130,1,V,0020,1","99999,9,9,Y","009900,5,9,9","+0060,1","-0100,1","99999,9",,,,,,,,,,,,,"10330,1,99999,9",,,,,"MET061METAR ZBAA 060600Z 13002MPS 080V170 CAVOK 06/M10 Q1033 NOSIG="
"54511099999","2022-01-06T06:30:00","4","40.080111","116.584556","35.35","BEIJING CAPITAL INTERNATIONAL AIRPORT, CH","FM-15","99999","V020","999,9,V,0010,1","99999,9,9,Y","009900,5,9,9","+0060,1","-0110,1","99999,9",,,,,,,,,,,,,"10330,1,99999,9",,,,,"MET053METAR ZBAA 060630Z VRB01MPS CAVOK 06/M11 Q1033 NOSIG="
"54511099999","2022-01-06T07:00:00","4","40.080111","116.584556","35.35","BEIJING CAPITAL INTERNATIONAL AIRPORT, CH","FM-15","99999","V020","170,1,V,0020,1","99999,9,9,Y","009900,5,9,9","+0060,1","-0110,1","99999,9",,,,,,,,,,,,,"10330,1,99999,9",,,,,"MET061METAR ZBAA 060700Z 17002MPS 140V230 CAVOK 06/M11 Q1033 NOSIG="
"54511099999","2022-01-06T07:30:00","4","40.080111","116.584556","35.35","BEIJING CAPITAL INTERNATIONAL AIRPORT, CH","FM-15","99999","V020","190,1,V,0030,1","99999,9,9,Y","009900,5,9,9","+0050,1","-0110,1","99999,9",,,,,,,,,,,,,"10330,1,99999,9",,,,,"MET061METAR ZBAA 060730Z 19003MPS 130V240 CAVOK 05/M11 Q1033 NOSIG="
"54511099999","2022-01-06T08:00:00","4","40.080111","116.584556","35.35","BEIJING CAPITAL INTERNATIONAL AIRPORT, CH","FM-15","99999","V020","170,1,V,0020,1","99999,9,9,Y","009900,5,9,9","+0050,1","-0110,1","99999,9",,,,,,,,,,,,,"10330,1,99999,9",,,,,"MET061METAR ZBAA 060800Z 17002MPS 120V230 CAVOK 05/M11 Q1033 NOSIG="
"54511099999","2022-01-06T08:30:00","4","40.080111","116.584556","35.35","BEIJING CAPITAL INTERNATIONAL AIRPORT, CH","FM-15","99999","V020","150,1,N,0020,1","99999,9,9,Y","009900,5,9,9","+0030,1","-0110,1","99999,9",,,,,,,,,,,,,"10330,1,99999,9",,,,,"MET053METAR ZBAA 060830Z 15002MPS CAVOK 03/M11 Q1033 NOSIG="
"54511099999","2022-01-06T09:00:00","4","40.080111","116.584556","35.35","BEIJING CAPITAL INTERNATIONAL AIRPORT, CH","FM-12","99999","V020","156,1,N,0016,1","99999,9,9,9","008900,1,9,9","+0042,1","-0095,1","10338,1","06,9999,9,9","12,9999,9,9","24,9999,9,9",,"0,1,03,1","0,1,03,1",,,,"999,-0146,9","240,M,+0065,1","240,N,-0074,1","99999,9,10294,1","4,1,000,1,+038,1","00,1",,"4,12,0047,1,045","SYN004BUFR"
"54511099999","2022-01-06T09:00:00","4","40.080111","116.584556","35.35","BEIJING CAPITAL INTERNATIONAL AIRPORT, CH","FM-15","99999","V020","130,1,N,0020,1","99999,9,9,Y","009900,5,9,9","+0020,1","-0100,1","99999,9",,,,,,,,,,,,,"10330,1,99999,9",,,,,"MET053METAR ZBAA 060900Z 13002MPS CAVOK 02/M10 Q1033 NOSIG="
"54511099999","2022-01-06T09:30:00","4","40.080111","116.584556","35.35","BEIJING CAPITAL INTERNATIONAL AIRPORT, CH","FM-15","99999","V020","140,1,N,0030,1","99999,9,9,Y","009900,5,9,9","+0020,1","-0080,1","99999,9",,,,,,,,,,,,,"10330,1,99999,9",,,,,"MET053METAR ZBAA 060930Z 14003MPS CAVOK 02/M08 Q1033 NOSIG="
"54511099999","2022-01-06T10:00:00","4","40.080111","116.584556","35.35","BEIJING CAPITAL INTERNATIONAL AIRPORT, CH","FM-15","99999","V020","130,1,N,0020,1","99999,9,9,Y","009900,5,9,9","+0020,1","-0080,1","99999,9",,,,,,,,,,,,,"10340,1,99999,9",,,,,"MET053METAR ZBAA 061000Z 13002MPS CAVOK 02/M08 Q1034 NOSIG="
"54511099999","2022-01-06T10:30:00","4","40.080111","116.584556","35.35","BEIJING CAPITAL INTERNATIONAL AIRPORT, CH","FM-15","99999","V020","130,1,N,0020,1","99999,9,9,Y","009900,5,9,9","+0000,1","-0080,1","99999,9",,,,,,,,,,,,,"10340,1,99999,9",,,,,"MET053METAR ZBAA 061030Z 13002MPS CAVOK 00/M08 Q1034 NOSIG="
"54511099999","2022-01-06T11:00:00","4","40.080111","116.584556","35.35","BEIJING CAPITAL INTERNATIONAL AIRPORT, CH","FM-15","99999","V020","120,1,N,0010,1","99999,9,9,Y","009900,5,9,9","-0020,1","-0080,1","99999,9",,,,,,,,,,,,,"10340,1,99999,9",,,,,"MET054METAR ZBAA 061100Z 12001MPS CAVOK M02/M08 Q1034 NOSIG="
"54511099999","2022-01-06T11:30:00","4","40.080111","116.584556","35.35","BEIJING CAPITAL INTERNATIONAL AIRPORT, CH","FM-15","99999","V020","090,1,N,0010,1","99999,9,9,Y","009900,5,9,9","-0040,1","-0080,1","99999,9",,,,,,,,,,,,,"10340,1,99999,9",,,,,"MET054METAR ZBAA 061130Z 09001MPS CAVOK M04/M08 Q1034 NOSIG="
"54511099999","2022-01-06T12:00:00","4","40.080111","116.584556","35.35","BEIJING CAPITAL INTERNATIONAL AIRPORT, CH","FM-12","99999","V020","063,1,N,0006,1","99999,9,9,9","005900,1,9,9","-0022,1","-0082,1","10346,1","06,9999,9,9","24,0000,9,1",,"9999,9,9,999999,9,9","0,1,06,1","0,1,06,1",,,,"999,-0132,9","240,M,+0065,1","240,N,-0074,1","99999,9,10301,1","2,1,007,1,+031,1","05,1",,"4,12,0047,1,045","SYN004BUFR"
"54511099999","2022-01-06T12:00:00","4","40.080111","116.584556","35.35","BEIJING CAPITAL INTERNATIONAL AIRPORT, CH","FM-15","99999","V020","070,1,N,0010,1","99999,9,9,Y","009900,5,9,9","-0040,1","-0080,1","99999,9",,,,,,,,,,,,,"10340,1,99999,9",,,,,"MET054METAR ZBAA 061200Z 07001MPS CAVOK M04/M08 Q1034 NOSIG="
"54511099999","2022-01-06T12:30:00","4","40.080111","116.584556","35.35","BEIJING CAPITAL INTERNATIONAL AIRPORT, CH","FM-15","99999","V020","070,1,N,0010,1","99999,9,9,Y","009900,5,9,9","-0040,1","-0080,1","99999,9",,,,,,,,,,,,,"10340,1,99999,9",,,,,"MET054METAR ZBAA 061230Z 07001MPS CAVOK M04/M08 Q1034 NOSIG="
"54511099999","2022-01-06T13:00:00","4","40.080111","116.584556","35.35","BEIJING CAPITAL INTERNATIONAL AIRPORT, CH","FM-15","99999","V020","070,1,N,0020,1","99999,9,9,Y","009900,5,9,9","-0050,1","-0090,1","99999,9",,,,,,,,,,,,,"10340,1,99999,9",,,,,"MET054METAR ZBAA 061300Z 07002MPS CAVOK M05/M09 Q1034 NOSIG="
"54511099999","2022-01-06T13:30:00","4","40.080111","116.584556","35.35","BEIJING CAPITAL INTERNATIONAL AIRPORT, CH","FM-15","99999","V020","070,1,N,0010,1","99999,9,9,Y","009900,5,9,9","-0060,1","-0090,1","99999,9",,,,,,,,,,,,,"10340,1,99999,9",,,,,"MET054METAR ZBAA 061330Z 07001MPS CAVOK M06/M09 Q1034 NOSIG="
"54511099999","2022-01-06T14:00:00","4","40.080111","116.584556","35.35","BEIJING CAPITAL INTERNATIONAL AIRPORT, CH","FM-15","99999","V020","050,1,N,0010,1","99999,9,9,Y","009900,5,9,9","-0060,1","-0080,1","99999,9",,,,,,,,,,,,,"10340,1,99999,9",,,,,"MET054METAR ZBAA 061400Z 05001MPS CAVOK M06/M08 Q1034 NOSIG="
"54511099999","2022-01-06T14:30:00","4","40.080111","116.584556","35.35","BEIJING CAPITAL INTERNATIONAL AIRPORT, CH","FM-15","99999","V020","060,1,N,0010,1","99999,9,9,Y","009900,5,9,9","-0050,1","-0070,1","99999,9",,,,,,,,,,,,,"10340,1,99999,9",,,,,"MET054METAR ZBAA 061430Z 06001MPS CAVOK M05/M07 Q1034 NOSIG="
"54511099999","2022-01-06T15:00:00","4","40.080111","116.584556","35.35","BEIJING CAPITAL INTERNATIONAL AIRPORT, CH","FM-12","99999","V020","021,1,N,0010,1","99999,9,9,9","003700,1,9,9","-0045,1","-0079,1","10345,1","06,9999,9,9","12,9999,9,9","24,9999,9,9",,,,"99,9,+04740,1,99,9","9,AGL   ,+99999,+99999","99,99,9,99,9,99,9,04740,1,99,9,99,9","999,-0103,9","240,M,+0065,1","240,N,-0074,1","99999,9,10301,1","4,1,000,1,+024,1","05,1",,"4,12,0044,1,042","SYN004BUFR"
"54511099999","2022-01-06T15:00:00","4","40.080111","116.584556","35.35","BEIJING CAPITAL INTERNATIONAL AIRPORT, CH","FM-15","99999","V020","070,1,N,0010,1","99999,9,9,Y","009900,5,9,9","-0060,1","-0080,1","99999,9",,,,,,,,,,,,,"10340,1,99999,9",,,,,"MET054METAR ZBAA 061500Z 07001MPS CAVOK M06/M08 Q1034 NOSIG="
"54511099999","2022-01-06T15:30:00","4","40.080111","116.584556","35.35","BEIJING CAPITAL INTERNATIONAL AIRPORT, CH","FM-15","99999","V020","060,1,N,0010,1","99999,9,9,Y","009900,5,9,9","-0070,1","-0080,1","99999,9",,,,,,,,,,,,,"10340,1,99999,9",,,,,"MET054METAR ZBAA 061530Z 06001MPS CAVOK M07/M08 Q1034 NOSIG="
"54511099999","2022-01-06T16:00:00","4","40.080111","116.584556","35.35","BEIJING CAPITAL INTERNATIONAL AIRPORT, CH","FM-15","99999","V020","030,1,N,0010,1","99999,9,9,Y","009900,5,9,9","-0070,1","-0080,1","99999,9",,,,,,,,,,,,,"10340,1,99999,9",,,,,"MET054METAR ZBAA 061600Z 03001MPS CAVOK M07/M08 Q1034 NOSIG="
"54511099999","2022-01-06T16:30:00","4","40.080111","116.584556","35.35","BEIJING CAPITAL INTERNATIONAL AIRPORT, CH","FM-15","99999","V020","999,9,C,0000,1","99999,9,9,Y","009900,5,9,9","-0070,1","-0080,1","99999,9",,,,,,,,,,,,,"10340,1,99999,9",,,,,"MET054METAR ZBAA 061630Z 00000MPS CAVOK M07/M08 Q1034 NOSIG="
"54511099999","2022-01-06T17:00:00","4","40.080111","116.584556","35.35","BEIJING CAPITAL INTERNATIONAL AIRPORT, CH","FM-15","99999","V020","340,1,N,0010,1","99999,9,9,Y","009900,5,9,9","-0080,1","-0090,1","99999,9",,,,,,,,,,,,,"10330,1,99999,9",,,,,"MET054METAR ZBAA 061700Z 34001MPS CAVOK M08/M09 Q1033 NOSIG="
"54511099999","2022-01-06T17:30:00","4","40.080111","116.584556","35.35","BEIJING CAPITAL INTERNATIONAL AIRPORT, CH","FM-15","99999","V020","350,1,N,0010,1","99999,9,9,Y","009900,5,9,9","-0070,1","-0080,1","99999,9",,,,,,,,,,,,,"10330,1,99999,9",,,,,"MET054METAR ZBAA 061730Z 35001MPS CAVOK M07/M08 Q1033 NOSIG="
"54511099999","2022-01-06T18:00:00","4","40.080111","116.584556","35.35","BEIJING CAPITAL INTERNATIONAL AIRPORT, CH","FM-15","99999","V020","999,9,V,0010,1","22000,1,9,N","008000,1,9,9","-0080,1","-0090,1","99999,9",,,,,,,,,"00,99,1,99,9,99,9,99999,9,99,9,99,9",,,,"10330,1,99999,9",,,,,"MET057METAR ZBAA 061800Z VRB01MPS 8000 NSC M08/M09 Q1033 NOSIG="
"54511099999","2022-01-06T18:30:00","4","40.080111","116.584556","35.35","BEIJING CAPITAL INTERNATIONAL AIRPORT, CH","FM-15","99999","V020","999,9,C,0000,1","22000,1,9,N","008000,1,9,9","-0080,1","-0090,1","99999,9",,,,,,,,,"00,99,1,99,9,99,9,99999,9,99,9,99,9",,,,"10330,1,99999,9",,,,,"MET057METAR ZBAA 061830Z 00000MPS 8000 NSC M08/M09 Q1033 NOSIG="
"54511099999","2022-01-06T19:00:00","4","40.080111","116.584556","35.35","BEIJING CAPITAL INTERNATIONAL AIRPORT, CH","FM-15","99999","V020","999,9,C,0000,1","22000,1,9,N","008000,1,9,9","-0080,1","-0090,1","99999,9",,,,,,,,,"00,99,1,99,9,99,9,99999,9,99,9,99,9",,,,"10330,1,99999,9",,,,,"MET057METAR ZBAA 061900Z 00000MPS 8000 NSC M08/M09 Q1033 NOSIG="
"54511099999","2022-01-06T19:30:00","4","40.080111","116.584556","35.35","BEIJING CAPITAL INTERNATIONAL AIRPORT, CH","FM-15","99999","V020","350,1,N,0010,1","22000,1,9,N","008000,1,9,9","-0090,1","-0100,1","99999,9",,,,,,,,,"00,99,1,99,9,99,9,99999,9,99,9,99,9",,,,"10330,1,99999,9",,,,,"MET057METAR ZBAA 061930Z 35001MPS 8000 NSC M09/M10 Q1033 NOSIG="
"54511099999","2022-01-06T20:00:00","4","40.080111","116.584556","35.35","BEIJING CAPITAL INTERNATIONAL AIRPORT, CH","FM-15","99999","V020","350,1,N,0010,1","22000,1,9,N","008000,1,9,9","-0080,1","-0090,1","99999,9",,,,,,,,,"00,99,1,99,9,99,9,99999,9,99,9,99,9",,,,"10330,1,99999,9",,,,,"MET057METAR ZBAA 062000Z 35001MPS 8000 NSC M08/M09 Q1033 NOSIG="
"54511099999","2022-01-06T20:30:00","4","40.080111","116.584556","35.35","BEIJING CAPITAL INTERNATIONAL AIRPORT, CH","FM-15","99999","V020","340,1,N,0010,1","22000,1,9,N","008000,1,9,9","-0070,1","-0090,1","99999,9",,,,,,,,,"00,99,1,99,9,99,9,99999,9,99,9,99,9",,,,"10320,1,99999,9",,,,,"MET057METAR ZBAA 062030Z 34001MPS 8000 NSC M07/M09 Q1032 NOSIG="
"54511099999","2022-01-06T21:00:00","4","40.080111","116.584556","35.35","BEIJING CAPITAL INTERNATIONAL AIRPORT, CH","FM-12","99999","V020","058,1,N,0010,1","99999,9,9,9","002300,1,9,9","-0057,1","-0070,1","10327,1","06,9999,9,9","12,9999,9,9","24,9999,9,9",,,,"99,9,+03010,1,99,9","9,AGL   ,+99999,+99999","99,99,9,99,9,99,9,03010,1,99,9,99,9","999,-0117,9","240,M,+0065,1","240,N,-0074,1","99999,9,10283,1","7,1,009,1,-011,1","10,1",,"4,12,0025,1,155","SYN004BUFR"
"54511099999","2022-01-06T21:00:00","4","40.080111","116.584556","35.35","BEIJING CAPITAL INTERNATIONAL AIRPORT, CH","FM-15","99999","V020","360,1,N,0010,1","22000,1,9,N","008000,1,9,9","-0070,1","-0090,1","99999,9",,,,,,,,,"00,99,1,99,9,99,9,99999,9,99,9,99,9",,,,"10320,1,99999,9",,,,,"MET057METAR ZBAA 062100Z 36001MPS 8000 NSC M07/M09 Q1032 NOSIG="
"54511099999","2022-01-06T21:30:00","4","40.080111","116.584556","35.35","BEIJING CAPITAL INTERNATIONAL AIRPORT, CH","FM-15","99999","V020","340,1,N,0010,1","22000,1,9,N","008000,1,9,9","-0070,1","-0080,1","99999,9",,,,,,,,,"00,99,1,99,9,99,9,99999,9,99,9,99,9",,,,"10320,1,99999,9",,,,,"MET057METAR ZBAA 062130Z 34001MPS 8000 NSC M07/M08 Q1032 NOSIG="
"54511099999","2022-01-06T22:00:00","4","40.080111","116.584556","35.35","BEIJING CAPITAL INTERNATIONAL AIRPORT, CH","FM-15","99999","V020","350,1,V,0020,1","22000,1,9,N","008000,1,9,9","-0060,1","-0080,1","99999,9",,,,,,,,,"00,99,1,99,9,99,9,99999,9,99,9,99,9",,,,"10320,1,99999,9",,,,,"MET065METAR ZBAA 062200Z 35002MPS 310V010 8000 NSC M06/M08 Q1032 NOSIG="
"54511099999","2022-01-06T22:30:00","4","40.080111","116.584556","35.35","BEIJING CAPITAL INTERNATIONAL AIRPORT, CH","FM-15","99999","V020","350,1,N,0020,1","22000,1,9,N","008000,1,9,9","-0070,1","-0100,1","99999,9",,,,,,,,,"00,99,1,99,9,99,9,99999,9,99,9,99,9",,,,"10320,1,99999,9",,,,,"MET057METAR ZBAA 062230Z 35002MPS 8000 NSC M07/M10 Q1032 NOSIG="
"54511099999","2022-01-06T23:00:00","4","40.080111","116.584556","35.35","BEIJING CAPITAL INTERNATIONAL AIRPORT, CH","FM-15","99999","V020","330,1,N,0010,1","22000,1,9,N","008000,1,9,9","-0080,1","-0090,1","99999,9",,,,,,,,,"00,99,1,99,9,99,9,99999,9,99,9,99,9",,,,"10320,1,99999,9",,,,,"MET057METAR ZBAA 062300Z 33001MPS 8000 NSC M08/M09 Q1032 NOSIG="
"54511099999","2022-01-06T23:30:00","4","40.080111","116.584556","35.35","BEIJING CAPITAL INTERNATIONAL AIRPORT, CH","FM-15","99999","V020","360,1,N,0010,1","22000,1,9,N","008000,1,9,9","-0080,1","-0090,1","99999,9",,,,,,,,,"00,99,1,99,9,99,9,99999,9,99,9,99,9",,,,"10320,1,99999,9",,,,,"MET057METAR ZBAA 062330Z 36001MPS 8000 NSC M08/M09 Q1032 NOSIG="
"54511099999","2022-01-07T00:00:00","4","40.080111","116.584556","35.35","BEIJING CAPITAL INTERNATIONAL AIRPORT, CH","FM-12","99999","V020","065,1,N,0012,1","99999,9,9,9","003000,1,9,9","-0034,1","-0049,1","10325,1","06,9999,9,9","24,0000,9,1",,"9999,9,9,999999,9,9","0,1,12,1","0,1,12,1",,,,"999,-0117,9","240,M,+0065,1","240,N,-0063,1","99999,9,10281,1","7,1,002,1,-027,1","10,1",,"4,12,0021,1,039","SYN004BUFR"
"54511099999","2022-01-07T00:00:00","4","40.080111","116.584556","35.35","BEIJING CAPITAL INTERNATIONAL AIRPORT, CH","FM-15","99999","V020","340,1,N,0020,1","22000,1,9,N","008000,1,9,9","-0070,1","-0090,1","99999,9",,,,,,,,,"00,99,1,99,9,99,9,99999,9,99,9,99,9",,,,"10320,1,99999,9",,,,,"MET057METAR ZBAA 070000Z 34002MPS 8000 NSC M07/M09 Q1032 NOSIG="
"54511099999","2022-01-07T00:30:00","4","40.080111","116.584556","35.35","BEIJING CAPITAL INTERNATIONAL AIRPORT, CH","FM-15","99999","V020","340,1,N,0020,1","22000,1,9,N","008000,1,9,9","-0060,1","-0080,1","99999,9",,,,,,,,,"00,99,1,99,9,99,9,99999,9,99,9,99,9",,,,"10320,1,99999,9",,,,,"MET057METAR ZBAA 070030Z 34002MPS 8000 NSC M06/M08 Q1032 NOSIG="
"54511099999","2022-01-07T01:00:00","4","40.080111","116.584556","35.35","BEIJING CAPITAL INTERNATIONAL AIRPORT, CH","FM-15","99999","V020","340,1,N,0020,1","22000,1,9,N","008000,1,9,9","-0040,1","-0070,1","99999,9",,,,,,,,,"00,99,1,99,9,99,9,99999,9,99,9,99,9",,,,"10320,1,99999,9",,,,,"MET057METAR ZBAA 070100Z 34002MPS 8000 NSC M04/M07 Q1032 NOSIG="
"54511099999","2022-01-07T01:30:00","4","40.080111","116.584556","35.35","BEIJING CAPITAL INTERNATIONAL AIRPORT, CH","FM-15","99999","V020","330,1,N,0030,1","22000,1,9,N","008000,1,9,9","-0020,1","-0070,1","99999,9",,,,,,,,,"00,99,1,99,9,99,9,99999,9,99,9,99,9",,,,"10320,1,99999,9",,,,,"MET057METAR ZBAA 070130Z 33003MPS 8000 NSC M02/M07 Q1032 NOSIG="
"54511099999","2022-01-07T02:00:00","4","40.080111","116.584556","35.35","BEIJING CAPITAL INTERNATIONAL AIRPORT, CH","FM-15","99999","V020","320,1,N,0030,1","99999,9,9,Y","009900,5,9,9","-0010,1","-0070,1","99999,9",,,,,,,,,,,,,"10320,1,99999,9",,,,,"MET054METAR ZBAA 070200Z 32003MPS CAVOK M01/M07 Q1032 NOSIG="
"54511099999","2022-01-07T02:30:00","4","40.080111","116.584556","35.35","BEIJING CAPITAL INTERNATIONAL AIRPORT, CH","FM-15","99999","V020","330,1,N,0020,1","99999,9,9,Y","009900,5,9,9","+0000,1","-0070,1","99999,9",,,,,,,,,,,,,"10320,1,99999,9",,,,,"MET054METAR ZBAA 070230Z 33002MPS CAVOK M00/M07 Q1032 NOSIG="
"54511099999","2022-01-07T03:00:00","4","40.080111","116.584556","35.35","BEIJING CAPITAL INTERNATIONAL AIRPORT, CH","FM-12","99999","V020","351,1,N,0011,1","99999,9,9,9","004600,1,9,9","+0010,1","-0051,1","10318,1","06,9999,9,9","12,9999,9,9","24,9999,9,9",,"0,1,03,1","0,1,03,1",,,,"999,-0117,9","240,M,+0065,1","240,N,-0061,1","99999,9,10274,1","7,1,007,1,-041,1","05,1",,"4,12,0025,1,023","SYN004BUFR"
"54511099999","2022-01-07T03:00:00","4","40.080111","116.584556","35.35","BEIJING CAPITAL INTERNATIONAL AIRPORT, CH","FM-15","99999","V020","320,1,N,0020,1","99999,9,9,Y","009900,5,9,9","+0000,1","-0080,1","99999,9",,,,,,,,,,,,,"10310,1,99999,9",,,,,"MET053METAR ZBAA 070300Z 32002MPS CAVOK 00/M08 Q1031 NOSIG="
"54511099999","2022-01-07T03:30:00","4","40.080111","116.584556","35.35","BEIJING CAPITAL INTERNATIONAL AIRPORT, CH","FM-15","99999","V020","320,1,V,0020,1","99999,9,9,Y","009900,5,9,9","+0010,1","-0080,1","99999,9",,,,,,,,,,,,,"10310,1,99999,9",,,,,"MET061METAR ZBAA 070330Z 32002MPS 290V350 CAVOK 01/M08 Q1031 NOSIG="
"54511099999","2022-01-07T04:00:00","4","40.080111","116.584556","35.35","BEIJING CAPITAL INTERNATIONAL AIRPORT, CH","FM-15","99999","V020","310,1,V,0020,1","99999,9,9,Y","009900,5,9,9","+0010,1","-0080,1","99999,9",,,,,,,,,,,,,"10300,1,99999,9",,,,,"MET061METAR ZBAA 070400Z 31002MPS 270V340 CAVOK 01/M08 Q1030 NOSIG="
"54511099999","2022-01-07T04:30:00","4","40.080111","116.584556","35.35","BEIJING CAPITAL INTERNATIONAL AIRPORT, CH","FM-15","99999","V020","999,9,V,0010,1","99999,9,9,Y","009900,5,9,9","+0020,1","-0080,1","99999,9",,,,,,,,,,,,,"10290,1,99999,9",,,,,"MET053METAR ZBAA 070430Z VRB01MPS CAVOK 02/M08 Q1029 NOSIG="
"54511099999","2022-01-07T05:00:00","4","40.080111","116.584556","35.35","BEIJING CAPITAL INTERNATIONAL AIRPORT, CH","FM-15","99999","V020","999,9,V,0010,1","99999,9,9,Y","009900,5,9,9","+0030,1","-0080,1","99999,9",,,,,,,,,,,,,"10290,1,99999,9",,,,,"MET053METAR ZBAA 070500Z VRB01MPS CAVOK 03/M08 Q1029 NOSIG="
"54511099999","2022-01-07T05:30:00","4","40.080111","116.584556","35.35","BEIJING CAPITAL INTERNATIONAL AIRPORT, CH","FM-15","99999","V020","999,9,V,0010,1","99999,9,9,Y","009900,5,9,9","+0040,1","-0080,1","99999,9",,,,,,,,,,,,,"10280,1,99999,9",,,,,"MET053METAR ZBAA 070530Z VRB01MPS CAVOK 04/M08 Q1028 NOSIG="
"54511099999","2022-01-07T06:00:00","4","40.080111","116.584556","35.35","BEIJING CAPITAL INTERNATIONAL AIRPORT, CH","FM-12","99999","V020","225,1,N,0015,1","99999,9,9,9","004700,1,9,9","+0036,1","-0061,1","10283,1","06,9999,9,9","24,0000,9,1",,"9999,9,9,999999,9,9","0,1,06,1","0,1,06,1",,,,"999,-0117,9","240,M,+0065,1","240,N,-0061,1","99999,9,10239,1","7,1,035,1,-055,1","05,1",,"4,12,0036,1,214","SYN004BUFR"
"54511099999","2022-01-07T06:00:00","4","40.080111","116.584556","35.35","BEIJING CAPITAL INTERNATIONAL AIRPORT, CH","FM-15","99999","V020","999,9,V,0010,1","99999,9,9,Y","009900,5,9,9","+0030,1","-0090,1","99999,9",,,,,,,,,,,,,"10280,1,99999,9",,,,,"MET053METAR ZBAA 070600Z VRB01MPS CAVOK 03/M09 Q1028 NOSIG="
"54511099999","2022-01-07T06:30:00","4","40.080111","116.584556","35.35","BEIJING CAPITAL INTERNATIONAL AIRPORT, CH","FM-15","99999","V020","999,9,V,0010,1","99999,9,9,Y","009900,5,9,9","+0040,1","-0090,1","99999,9",,,,,,,,,,,,,"10280,1,99999,9",,,,,"MET053METAR ZBAA 070630Z VRB01MPS CAVOK 04/M09 Q1028 NOSIG="
"54511099999","2022-01-07T07:00:00","4","40.080111","116.584556","35.35","BEIJING CAPITAL INTERNATIONAL AIRPORT, CH","FM-15","99999","V020","210,1,V,0020,1","99999,9,9,Y","009900,5,9,9","+0040,1","-0100,1","99999,9",,,,,,,,,,,,,"10280,1,99999,9",,,,,"MET061METAR ZBAA 070700Z 21002MPS 190V270 CAVOK 04/M10 Q1028 NOSIG="
"54511099999","2022-01-07T07:30:00","4","40.080111","116.584556","35.35","BEIJING CAPITAL INTERNATIONAL AIRPORT, CH","FM-15","99999","V020","999,9,V,0020,1","99999,9,9,Y","009900,5,9,9","+0040,1","-0090,1","99999,9",,,,,,,,,,,,,"10270,1,99999,9",,,,,"MET053METAR ZBAA 070730Z VRB02MPS CAVOK 04/M09 Q1027 NOSIG="
"54511099999","2022-01-07T08:00:00","4","40.080111","116.584556","35.35","BEIJING CAPITAL INTERNATIONAL AIRPORT, CH","FM-15","99999","V020","999,9,V,0010,1","99999,9,9,Y","009900,5,9,9","+0030,1","-0090,1","99999,9",,,,,,,,,,,,,"10270,1,99999,9",,,,,"MET053METAR ZBAA 070800Z VRB01MPS CAVOK 03/M09 Q1027 NOSIG="
"54511099999","2022-01-07T08:30:00","4","40.080111","116.584556","35.35","BEIJING CAPITAL INTERNATIONAL AIRPORT, CH","FM-15","99999","V020","999,9,C,0000,1","99999,9,9,Y","009900,5,9,9","+0020,1","-0090,1","99999,9",,,,,,,,,,,,,"10270,1,99999,9",,,,,"MET053METAR ZBAA 070830Z 00000MPS CAVOK 02/M09 Q1027 NOSIG="
"54511099999","2022-01-07T09:00:00","4","40.080111","116.584556","35.35","BEIJING CAPITAL INTERNATIONAL AIRPORT, CH","FM-12","99999","V020","216,1,N,0016,1","99999,9,9,9","004500,1,9,9","+0025,1","-0079,1","10279,1","06,9999,9,9","12,9999,9,9","24,9999,9,9",,"0,1,03,1","0,1,03,1",,,,"999,-0109,9","240,M,+0041,1","240,N,-0061,1","99999,9,10235,1","7,1,004,1,-059,1","05,1",,"4,12,0040,1,191","SYN004BUFR"
"54511099999","2022-01-07T09:00:00","4","40.080111","116.584556","35.35","BEIJING CAPITAL INTERNATIONAL AIRPORT, CH","FM-15","99999","V020","999,9,C,0000,1","99999,9,9,Y","009900,5,9,9","+0010,1","-0090,1","99999,9",,,,,,,,,,,,,"10270,1,99999,9",,,,,"MET053METAR ZBAA 070900Z 00000MPS CAVOK 01/M09 Q1027 NOSIG="
"54511099999","2022-01-07T09:30:00","4","40.080111","116.584556","35.35","BEIJING CAPITAL INTERNATIONAL AIRPORT, CH","FM-15","99999","V020","999,9,V,0010,1","99999,9,9,Y","009900,5,9,9","-0010,1","-0080,1","99999,9",,,,,,,,,,,,,"10270,1,99999,9",,,,,"MET054METAR ZBAA 070930Z VRB01MPS CAVOK M01/M08 Q1027 NOSIG="
"54511099999","2022-01-07T10:00:00","4","40.080111","116.584556","35.35","BEIJING CAPITAL INTERNATIONAL AIRPORT, CH","FM-15","99999","V020","999,9,C,0000,1","99999,9,9,Y","009900,5,9,9","-0020,1","-0090,1","99999,9",,,,,,,,,,,,,"10270,1,99999,9",,,,,"MET054METAR ZBAA 071000Z 00000MPS CAVOK M02/M09 Q1027 NOSIG="
"54511099999","2022-01-07T10:30:00","4","40.080111","116.584556","35.35","BEIJING CAPITAL INTERNATIONAL AIRPORT, CH","FM-15","99999","V020","999,9,V,0010,1","99999,9,9,Y","009900,5,9,9","-0030,1","-0090,1","99999,9",,,,,,,,,,,,,"10280,1,99999,9",,,,,"MET054METAR ZBAA 071030Z VRB01MPS CAVOK M03/M09 Q1028 NOSIG="
"54511099999","2022-01-07T11:00:00","4","40.080111","116.584556","35.35","BEIJING CAPITAL INTERNATIONAL AIRPORT, CH","FM-15","99999","V020","999,9,C,0000,1","99999,9,9,Y","009900,5,9,9","-0030,1","-0090,1","99999,9",,,,,,,,,,,,,"10270,1,99999,9",,,,,"MET054METAR ZBAA 071100Z 00000MPS CAVOK M03/M09 Q1027 NOSIG="
"54511099999","2022-01-07T11:30:00","4","40.080111","116.584556","35.35","BEIJING CAPITAL INTERNATIONAL AIRPORT, CH","FM-15","99999","V020","999,9,V,0010,1","99999,9,9,Y","009900,5,9,9","-0040,1","-0090,1","99999,9",,,,,,,,,,,,,"10270,1,99999,9",,,,,"MET054METAR ZBAA 071130Z VRB01MPS CAVOK M04/M09 Q1027 NOSIG="
"54511099999","2022-01-07T12:00:00","4","40.080111","116.584556","35.35","BEIJING CAPITAL INTERNATIONAL AIRPORT, CH","FM-12","99999","V020","165,1,N,0006,1","99999,9,9,9","003900,1,9,9","-0020,1","-0075,1","10280,1","06,9999,9,9","24,0000,9,1",,"9999,9,9,999999,9,9","0,1,06,1","0,1,06,1",,,,"999,-0087,9","240,M,+0041,1","240,N,-0061,1","99999,9,10236,1","2,1,001,1,-065,1","05,1",,"4,12,0040,1,191","SYN004BUFR"
"54511099999","2022-01-07T12:00:00","4","40.080111","116.584556","35.35","BEIJING CAPITAL INTERNATIONAL AIRPORT, CH","FM-15","99999","V020","060,1,N,0010,1","99999,9,9,Y","009900,5,9,9","-0050,1","-0090,1","99999,9",,,,,,,,,,,,,"10270,1,99999,9",,,,,"MET054METAR ZBAA 071200Z 06001MPS CAVOK M05/M09 Q1027 NOSIG="
"54511099999","2022-01-07T12:30:00","4","40.080111","116.584556","35.35","BEIJING CAPITAL INTERNATIONAL AIRPORT, CH","FM-15","99999","V020","060,1,N,0010,1","99999,9,9,Y","009900,5,9,9","-0050,1","-0090,1","99999,9",,,,,,,,,,,,,"10280,1,99999,9",,,,,"MET054METAR ZBAA 071230Z 06001MPS CAVOK M05/M09 Q1028 NOSIG="
"54511099999","2022-01-07T13:00:00","4","40.080111","116.584556","35.35","BEIJING CAPITAL INTERNATIONAL AIRPORT, CH","FM-15","99999","V020","999,9,V,0010,1","99999,9,9,Y","009900,5,9,9","-0050,1","-0090,1","99999,9",,,,,,,,,,,,,"10270,1,99999,9",,,,,"MET054METAR ZBAA 071300Z VRB01MPS CAVOK M05/M09 Q1027 NOSIG="
"54511099999","2022-01-07T13:30:00","4","40.080111","116.584556","35.35","BEIJING CAPITAL INTERNATIONAL AIRPORT, CH","FM-15","99999","V020","050,1,N,0010,1","99999,9,9,Y","009900,5,9,9","-0060,1","-0090,1","99999,9",,,,,,,,,,,,,"10270,1,99999,9",,,,,"MET054METAR ZBAA 071330Z 05001MPS CAVOK M06/M09 Q1027 NOSIG="
"54511099999","2022-01-07T14:00:00","4","40.080111","116.584556","35.35","BEIJING CAPITAL INTERNATIONAL AIRPORT, CH","FM-15","99999","V020","999,9,V,0010,1","99999,9,9,Y","009900,5,9,9","-0050,1","-0080,1","99999,9",,,,,,,,,,,,,"10270,1,99999,9",,,,,"MET054METAR ZBAA 071400Z VRB01MPS CAVOK M05/M08 Q1027 NOSIG="
"54511099999","2022-01-07T14:30:00","4","40.080111","116.584556","35.35","BEIJING CAPITAL INTERNATIONAL AIRPORT, CH","FM-15","99999","V020","010,1,N,0010,1","99999,9,9,Y","009900,5,9,9","-0060,1","-0090,1","99999,9",,,,,,,,,,,,,"10270,1,99999,9",,,,,"MET054METAR ZBAA 071430Z 01001MPS CAVOK M06/M09 Q1027 NOSIG="
"54511099999","2022-01-07T15:00:00","4","40.080111","116.584556","35.35","BEIJING CAPITAL INTERNATIONAL AIRPORT, CH","FM-12","99999","V020","215,1,N,0007,1","99999,9,9,9","002200,1,9,9","-0029,1","-0071,1","10273,1","06,9999,9,9","12,9999,9,9","24,9999,9,9",,,,,,,"999,-0096,9","240,M,+0041,1","240,N,-0061,1","99999,9,10229,1","7,1,007,1,-072,1","05,1",,"4,12,0040,1,191","SYN004BUFR"
"54511099999","2022-01-07T15:00:00","4","40.080111","116.584556","35.35","BEIJING CAPITAL INTERNATIONAL AIRPORT, CH","FM-15","99999","V020","040,1,N,0010,1","99999,9,9,Y","009900,5,9,9","-0070,1","-0090,1","99999,9",,,,,,,,,,,,,"10270,1,99999,9",,,,,"MET054METAR ZBAA 071500Z 04001MPS CAVOK M07/M09 Q1027 NOSIG="
"54511099999","2022-01-07T15:30:00","4","40.080111","116.584556","35.35","BEIJING CAPITAL INTERNATIONAL AIRPORT, CH","FM-15","99999","V020","999,9,V,0010,1","99999,9,9,Y","009900,5,9,9","-0060,1","-0090,1","99999,9",,,,,,,,,,,,,"10260,1,99999,9",,,,,"MET054METAR ZBAA 071530Z VRB01MPS CAVOK M06/M09 Q1026 NOSIG="
"54511099999","2022-01-07T16:00:00","4","40.080111","116.584556","35.35","BEIJING CAPITAL INTERNATIONAL AIRPORT, CH","FM-15","99999","V020","350,1,N,0010,1","99999,9,9,Y","009900,5,9,9","-0070,1","-0090,1","99999,9",,,,,,,,,,,,,"10260,1,99999,9",,,,,"MET054METAR ZBAA 071600Z 35001MPS CAVOK M07/M09 Q1026 NOSIG="
"54511099999","2022-01-07T16:30:00","4","40.080111","116.584556","35.35","BEIJING CAPITAL INTERNATIONAL AIRPORT, CH","FM-15","99999","V020","360,1,N,0010,1","99999,9,9,Y","009900,5,9,9","-0070,1","-0090,1","99999,9",,,,,,,,,,,,,"10260,1,99999,9",,,,,"MET054METAR ZBAA 071630Z 36001MPS CAVOK M07/M09 Q1026 NOSIG="
"54511099999","2022-01-07T17:00:00","4","40.080111","116.584556","35.35","BEIJING CAPITAL INTERNATIONAL AIRPORT, CH","FM-15","99999","V020","350,1,N,0010,1","22000,1,9,N","008000,1,9,9","-0080,1","-0100,1","99999,9",,,,,,,,,"00,99,1,99,9,99,9,99999,9,99,9,99,9",,,,"10260,1,99999,9",,,,,"MET057METAR ZBAA 071700Z 35001MPS 8000 NSC M08/M10 Q1026 NOSIG="
"54511099999","2022-01-07T17:30:00","4","40.080111","116.584556","35.35","BEIJING CAPITAL INTERNATIONAL AIRPORT, CH","FM-15","99999","V020","350,1,N,0010,1","22000,1,9,N","008000,1,9,9","-0080,1","-0100,1","99999,9",,,,,,,,,"00,99,1,99,9,99,9,99999,9,99,9,99,9",,,,"10260,1,99999,9",,,,,"MET057METAR ZBAA 071730Z 35001MPS 8000 NSC M08/M10 Q1026 NOSIG="
"54511099999","2022-01-07T18:00:00","4","40.080111","116.584556","35.35","BEIJING CAPITAL INTERNATIONAL AIRPORT, CH","FM-12","99999","V020","257,1,N,0005,1","99999,9,9,9","001400,1,9,9","-0040,1","-0062,1","10264,1","06,9999,9,9","12,9999,9,9","24,9999,9,9",,"0,1,99,9","0,1,99,9",,,,"999,-0107,9","240,M,+0041,1","240,N,-0061,1","99999,9,10220,1","7,1,009,1,-072,1","05,1",,"4,12,0040,1,191","SYN004BUFR"
"54511099999","2022-01-07T18:00:00","4","40.080111","116.584556","35.35","BEIJING CAPITAL INTERNATIONAL AIRPORT, CH","FM-15","99999","V020","340,1,N,0010,1","22000,1,9,N","008000,1,9,9","-0080,1","-0100,1","99999,9",,,,,,,,,"00,99,1,99,9,99,9,99999,9,99,9,99,9",,,,"10260,1,99999,9",,,,,"MET057METAR ZBAA 071800Z 34001MPS 8000 NSC M08/M10 Q1026 NOSIG="
"54511099999","2022-01-07T18:30:00","4","40.080111","116.584556","35.35","BEIJING CAPITAL INTERNATIONAL AIRPORT, CH","FM-15","99999","V020","340,1,N,0020,1","22000,1,9,N","007000,1,9,9","-0070,1","-0090,1","99999,9",,,,,,,,,"00,99,1,99,9,99,9,99999,9,99,9,99,9",,,,"10260,1,99999,9",,,,,"MET057METAR ZBAA 071830Z 34002MPS 7000 NSC M07/M09 Q1026 NOSIG="
"54511099999","2022-01-07T19:00:00","4","40.080111","116.584556","35.35","BEIJING CAPITAL INTERNATIONAL AIRPORT, CH","FM-15","99999","V020","320,1,N,0020,1","22000,1,9,N","008000,1,9,9","-0060,1","-0080,1","99999,9",,,,,,,,,"00,99,1,99,9,99,9,99999,9,99,9,99,9",,,,"10260,1,99999,9",,,,,"MET057METAR ZBAA 071900Z 32002MPS 8000 NSC M06/M08 Q1026 NOSIG="
"54511099999","2022-01-07T19:30:00","4","40.080111","116.584556","35.35","BEIJING CAPITAL INTERNATIONAL AIRPORT, CH","FM-15","99999","V020","330,1,N,0020,1","22000,1,9,N","008000,1,9,9","-0070,1","-0100,1","99999,9",,,,,,,,,"00,99,1,99,9,99,9,99999,9,99,9,99,9",,,,"10260,1,99999,9",,,,,"MET057METAR ZBAA 071930Z 33002MPS 8000 NSC M07/M10 Q1026 NOSIG="
"54511099999","2022-01-07T20:00:00","4","40.080111","116.584556","35.35","BEIJING CAPITAL INTERNATIONAL AIRPORT, CH","FM-15","99999","V020","350,1,N,0020,1","22000,1,9,N","008000,1,9,9","-0060,1","-0090,1","99999,9",,,,,,,,,"00,99,1,99,9,99,9,99999,9,99,9,99,9",,,,"10250,1,99999,9",,,,,"MET057METAR ZBAA 072000Z 35002MPS 8000 NSC M06/M09 Q1025 NOSIG="
"54511099999","2022-01-07T20:30:00","4","40.080111","116.584556","35.35","BEIJING CAPITAL INTERNATIONAL AIRPORT, CH","FM-15","99999","V020","350,1,N,0030,1","22000,1,9,N","008000,1,9,9","-0070,1","-0090,1","99999,9",,,,,,,,,"00,99,1,99,9,99,9,99999,9,99,9,99,9",,,,"10250,1,99999,9",,,,,"MET057METAR ZBAA 072030Z 35003MPS 8000 NSC M07/M09 Q1025 NOSIG="
"54511099999","2022-01-07T21:00:00","4","40.080111","116.584556","35.35","BEIJING CAPITAL INTERNATIONAL AIRPORT, CH","FM-12","99999","V020","030,1,N,0006,1","99999,9,9,9","001300,1,9,9","-0055,1","-0070,1","10252,1","06,9999,9,9","12,9999,9,9","24,9999,9,9",,,,,,,"999,-0118,9","240,M,+0041,1","240,N,-0058,1","99999,9,10208,1","7,1,012,1,-075,1","05,1",,"4,12,0026,1,172","SYN004BUFR"
"54511099999","2022-01-07T21:00:00","4","40.080111","116.584556","35.35","BEIJING CAPITAL INTERNATIONAL AIRPORT, CH","FM-15","99999","V020","340,1,N,0030,1","22000,1,9,N","008000,1,9,9","-0060,1","-0090,1","99999,9",,,,,,,,,"00,99,1,99,9,99,9,99999,9,99,9,99,9",,,,"10250,1,99999,9",,,,,"MET057METAR ZBAA 072100Z 34003MPS 8000 NSC M06/M09 Q1025 NOSIG="
"54511099999","2022-01-07T21:30:00","4","40.080111","116.584556","35.35","BEIJING CAPITAL INTERNATIONAL AIRPORT, CH","FM-15","99999","V020","340,1,N,0030,1","22000,1,9,N","008000,1,9,9","-0060,1","-0090,1","99999,9",,,,,,,,,"00,99,1,99,9,99,9,99999,9,99,9,99,9",,,,"10250,1,99999,9",,,,,"MET057METAR ZBAA 072130Z 34003MPS 8000 NSC M06/M09 Q1025 NOSIG="
"54511099999","2022-01-07T22:00:00","4","40.080111","116.584556","35.35","BEIJING CAPITAL INTERNATIONAL AIRPORT, CH","FM-15","99999","V020","330,1,N,0040,1","22000,1,9,N","008000,1,9,9","-0040,1","-0080,1","99999,9",,,,,,,,,"00,99,1,99,9,99,9,99999,9,99,9,99,9",,,,"10250,1,99999,9",,,,,"MET057METAR ZBAA 072200Z 33004MPS 8000 NSC M04/M08 Q1025 NOSIG="
"54511099999","2022-01-07T22:30:00","4","40.080111","116.584556","35.35","BEIJING CAPITAL INTERNATIONAL AIRPORT, CH","FM-15","99999","V020","340,1,N,0050,1","22000,1,9,N","008000,1,9,9","-0040,1","-0080,1","99999,9",,,,,,,,,"00,99,1,99,9,99,9,99999,9,99,9,99,9",,,,"10250,1,99999,9",,,,,"MET057METAR ZBAA 072230Z 34005MPS 8000 NSC M04/M08 Q1025 NOSIG="
"54511099999","2022-01-07T23:00:00","4","40.080111","116.584556","35.35","BEIJING CAPITAL INTERNATIONAL AIRPORT, CH","FM-15","99999","V020","340,1,N,0050,1","22000,1,9,N","008000,1,9,9","-0050,1","-0080,1","99999,9",,,,,,,,,"00,99,1,99,9,99,9,99999,9,99,9,99,9",,,,"10250,1,99999,9",,,,,"MET057METAR ZBAA 072300Z 34005MPS 8000 NSC M05/M08 Q1025 NOSIG="
"54511099999","2022-01-07T23:30:00","4","40.080111","116.584556","35.35","BEIJING CAPITAL INTERNATIONAL AIRPORT, CH","FM-15","99999","V020","350,1,N,0030,1","22000,1,9,N","006000,1,9,9","-0060,1","-0100,1","99999,9",,,,,,,,,"00,99,1,99,9,99,9,99999,9,99,9,99,9",,,,"10260,1,99999,9",,,,,"MET057METAR ZBAA 072330Z 35003MPS 6000 NSC M06/M10 Q1026 NOSIG="
"54511099999","2022-01-08T00:00:00","4","40.080111","116.584556","35.35","BEIJING CAPITAL INTERNATIONAL AIRPORT, CH","FM-12","99999","V020","336,1,N,0007,1","99999,9,9,9","002100,1,9,9","-0062,1","-0083,1","10262,1","06,9999,9,9","24,0000,9,1",,"9999,9,9,999999,9,9","0,1,12,1","0,1,12,1",,,,"999,-0128,9","240,M,+0041,1","240,N,-0064,1","99999,9,10218,1","2,1,010,1,-063,1","05,1",,"4,12,0026,1,172","SYN004BUFR"
"54511099999","2022-01-08T00:00:00","4","40.080111","116.584556","35.35","BEIJING CAPITAL INTERNATIONAL AIRPORT, CH","FM-15","99999","V020","360,1,N,0030,1","22000,1,9,N","006000,1,9,9","-0050,1","-0080,1","99999,9",,,,,,,,,"00,99,1,99,9,99,9,99999,9,99,9,99,9",,,,"10260,1,99999,9",,,,,"MET057METAR ZBAA 080000Z 36003MPS 6000 NSC M05/M08 Q1026 NOSIG="
"54511099999","2022-01-08T00:30:00","4","40.080111","116.584556","35.35","BEIJING CAPITAL INTERNATIONAL AIRPORT, CH","FM-15","99999","V020","340,1,N,0030,1","22000,1,9,N","006000,1,9,9","-0040,1","-0070,1","99999,9",,,,,,,,,"00,99,1,99,9,99,9,99999,9,99,9,99,9",,,,"10260,1,99999,9",,,,,"MET057METAR ZBAA 080030Z 34003MPS 6000 NSC M04/M07 Q1026 NOSIG="
"54511099999","2022-01-08T01:00:00","4","40.080111","116.584556","35.35","BEIJING CAPITAL INTERNATIONAL AIRPORT, CH","FM-15","99999","V020","999,9,V,0010,1","22000,1,9,N","008000,1,9,9","-0020,1","-0070,1","99999,9",,,,,,,,,"00,99,1,99,9,99,9,99999,9,99,9,99,9",,,,"10270,1,99999,9",,,,,"MET057METAR ZBAA 080100Z VRB01MPS 8000 NSC M02/M07 Q1027 NOSIG="
"54511099999","2022-01-08T01:30:00","4","40.080111","116.584556","35.35","BEIJING CAPITAL INTERNATIONAL AIRPORT, CH","FM-15","99999","V020","999,9,V,0010,1","99999,9,9,Y","009900,5,9,9","-0010,1","-0070,1","99999,9",,,,,,,,,,,,,"10270,1,99999,9",,,,,"MET054METAR ZBAA 080130Z VRB01MPS CAVOK M01/M07 Q1027 NOSIG="
"54511099999","2022-01-08T02:00:00","4","40.080111","116.584556","35.35","BEIJING CAPITAL INTERNATIONAL AIRPORT, CH","FM-15","99999","V020","010,1,V,0020,1","99999,9,9,Y","009900,5,9,9","+0010,1","-0080,1","99999,9",,,,,,,,,,,,,"10270,1,99999,9",,,,,"MET061METAR ZBAA 080200Z 01002MPS 330V030 CAVOK 01/M08 Q1027 NOSIG="
"54511099999","2022-01-08T02:30:00","4","40.080111","116.584556","35.35","BEIJING CAPITAL INTERNATIONAL AIRPORT, CH","FM-15","99999","V020","330,1,V,0020,1","99999,9,9,Y","009900,5,9,9","+0030,1","-0070,1","99999,9",,,,,,,,,,,,,"10270,1,99999,9",,,,,"MET061METAR ZBAA 080230Z 33002MPS 270V360 CAVOK 03/M07 Q1027 NOSIG="
"54511099999","2022-01-08T03:00:00","4","40.080111","116.584556","35.35","BEIJING CAPITAL INTERNATIONAL AIRPORT, CH","FM-12","99999","V020","357,1,N,0034,1","99999,9,9,9","010300,1,9,9","+0070,1","-0117,1","10267,1","06,9999,9,9","12,9999,9,9","24,9999,9,9",,"0,1,03,1","0,1,03,1",,,,"999,-0128,9","240,M,+0070,1","240,N,-0064,1","99999,9,10224,1","2,1,006,1,-050,1","00,1","0089,1","4,12,0089,1,335","SYN004BUFR"
"54511099999","2022-01-08T03:00:00","4","40.080111","116.584556","35.35","BEIJING CAPITAL INTERNATIONAL AIRPORT, CH","FM-15","99999","V020","340,1,N,0030,1","99999,9,9,Y","009900,5,9,9","+0060,1","-0090,1","99999,9",,,,,,,,,,,,,"10270,1,99999,9",,,,,"MET053METAR ZBAA 080300Z 34003MPS CAVOK 06/M09 Q1027 NOSIG="
"54511099999","2022-01-08T03:30:00","4","40.080111","116.584556","35.35","BEIJING CAPITAL INTERNATIONAL AIRPORT, CH","FM-15","99999","V020","350,1,V,0020,1","99999,9,9,Y","009900,5,9,9","+0060,1","-0110,1","99999,9",,,,,,,,,,,,,"10260,1,99999,9",,,,,"MET061METAR ZBAA 080330Z 35002MPS 270V020 CAVOK 06/M11 Q1026 NOSIG="
"54511099999","2022-01-08T04:00:00","4","40.080111","116.584556","35.35","BEIJING CAPITAL INTERNATIONAL AIRPORT, CH","FM-15","99999","V020","010,1,V,0040,1","99999,9,9,Y","009900,5,9,9","+0060,1","-0120,1","99999,9",,,,,,,,,,,,,"10260,1,99999,9",,,,,"MET061METAR ZBAA 080400Z 01004MPS 340V040 CAVOK 06/M12 Q1026 NOSIG="
"54511099999","2022-01-08T04:30:00","4","40.080111","116.584556","35.35","BEIJING CAPITAL INTERNATIONAL AIRPORT, CH","FM-15","99999","V020","020,1,N,0030,1","99999,9,9,Y","009900,5,9,9","+0060,1","-0130,1","99999,9",,,,,,,,,,,,,"10260,1,99999,9",,,,,"MET053METAR ZBAA 080430Z 02003MPS CAVOK 06/M13 Q1026 NOSIG="
"54511099999","2022-01-08T05:00:00","4","40.080111","116.584556","35.35","BEIJING CAPITAL INTERNATIONAL AIRPORT, CH","FM-15","99999","V020","010,1,N,0020,1","99999,9,9,Y","009900,5,9,9","+0060,1","-0130,1","99999,9",,,,,,,,,,,,,"10250,1,99999,9",,,,,"MET053METAR ZBAA 080500Z 01002MPS CAVOK 06/M13 Q1025 NOSIG="
"54511099999","2022-01-08T05:30:00","4","40.080111","116.584556","35.35","BEIJING CAPITAL INTERNATIONAL AIRPORT, CH","FM-15","99999","V020","020,1,V,0020,1","99999,9,9,Y","009900,5,9,9","+0070,1","-0130,1","99999,9",,,,,,,,,,,,,"10250,1,99999,9",,,,,"MET061METAR ZBAA 080530Z 02002MPS 350V050 CAVOK 07/M13 Q1025 NOSIG="
"54511099999","2022-01-08T06:00:00","4","40.080111","116.584556","35.35","BEIJING CAPITAL INTERNATIONAL AIRPORT, CH","FM-12","99999","V020","348,1,N,0035,1","99999,9,9,9","021000,1,9,9","+0092,1","-0132,1","10251,1","06,9999,9,9","24,0000,9,1",,"9999,9,9,999999,9,9","0,1,06,1","0,1,06,1","99,9,+07570,1,99,9","9,AGL   ,+99999,+99999","99,99,9,99,9,99,9,07570,1,99,9,99,9","999,-0128,9","240,M,+0094,1","240,N,-0064,1","99999,9,10208,1","7,1,016,1,-031,1","00,1","0092,1","4,12,0092,1,349","SYN004BUFR"
"54511099999","2022-01-08T06:00:00","4","40.080111","116.584556","35.35","BEIJING CAPITAL INTERNATIONAL AIRPORT, CH","FM-15","99999","V020","340,1,V,0020,1","99999,9,9,Y","009900,5,9,9","+0080,1","-0120,1","99999,9",,,,,,,,,,,,,"10250,1,99999,9",,,,,"MET061METAR ZBAA 080600Z 34002MPS 300V020 CAVOK 08/M12 Q1025 NOSIG="
"54511099999","2022-01-08T06:30:00","4","40.080111","116.584556","35.35","BEIJING CAPITAL INTERNATIONAL AIRPORT, CH","FM-15","99999","V020","010,1,V,0020,1","99999,9,9,Y","009900,5,9,9","+0080,1","-0120,1","99999,9",,,,,,,,,,,,,"10250,1,99999,9",,,,,"MET061METAR ZBAA 080630Z 01002MPS 320V030 CAVOK 08/M12 Q1025 NOSIG="
"54511099999","2022-01-08T07:00:00","4","40.080111","116.584556","35.35","BEIJING CAPITAL INTERNATIONAL AIRPORT, CH","FM-15","99999","V020","020,1,V,0020,1","99999,9,9,Y","009900,5,9,9","+0080,1","-0130,1","99999,9",,,,,,,,,,,,,"10250,1,99999,9",,,,,"MET061METAR ZBAA 080700Z 02002MPS 360V060 CAVOK 08/M13 Q1025 NOSIG="
"54511099999","2022-01-08T07:30:00","4","40.080111","116.584556","35.35","BEIJING CAPITAL INTERNATIONAL AIRPORT, CH","FM-15","99999","V020","030,1,N,0030,1","99999,9,9,Y","009900,5,9,9","+0080,1","-0130,1","99999,9",,,,,,,,,,,,,"10250,1,99999,9",,,,,"MET053METAR ZBAA 080730Z 03003MPS CAVOK 08/M13 Q1025 NOSIG="
"54511099999","2022-01-08T08:00:00","4","40.080111","116.584556","35.35","BEIJING CAPITAL INTERNATIONAL AIRPORT, CH","FM-15","99999","V020","040,1,V,0030,1","99999,9,9,Y","009900,5,9,9","+0080,1","-0130,1","99999,9",,,,,,,,,,,,,"10250,1,99999,9",,,,,"MET061METAR ZBAA 080800Z 04003MPS 360V070 CAVOK 08/M13 Q1025 NOSIG="
"54511099999","2022-01-08T08:30:00","4","40.080111","116.584556","35.35","BEIJING CAPITAL INTERNATIONAL AIRPORT, CH","FM-15","99999","V020","030,1,N,0020,1","99999,9,9,Y","009900,5,9,9","+0070,1","-0130,1","99999,9",,,,,,,,,,,,,"10250,1,99999,9",,,,,"MET053METAR ZBAA 080830Z 03002MPS CAVOK 07/M13 Q1025 NOSIG="
"54511099999","2022-01-08T09:00:00","4","40.080111","116.584556","35.35","BEIJING CAPITAL INTERNATIONAL AIRPORT, CH","FM-12","99999","V020","044,1,N,0026,1","99999,9,9,9","018200,1,9,9","+0071,1","-0121,1","10251,1","06,9999,9,9","12,9999,9,9","24,9999,9,9",,"0,1,03,1","0,1,03,1","99,9,+06950,1,99,9","9,AGL   ,+99999,+99999","99,99,9,99,9,99,9,06950,1,99,9,99,9","999,-0128,9","240,M,+0096,1","240,N,-0064,1","99999,9,10208,1","4,1,000,1,-027,1","00,1","0092,1","4,12,0092,1,349","SYN004BUFR"
"54511099999","2022-01-08T09:00:00","4","40.080111","116.584556","35.35","BEIJING CAPITAL INTERNATIONAL AIRPORT, CH","FM-15","99999","V020","060,1,N,0010,1","99999,9,9,Y","009900,5,9,9","+0060,1","-0130,1","99999,9",,,,,,,,,,,,,"10250,1,99999,9",,,,,"MET053METAR ZBAA 080900Z 06001MPS CAVOK 06/M13 Q1025 NOSIG="
"54511099999","2022-01-08T09:30:00","4","40.080111","116.584556","35.35","BEIJING CAPITAL INTERNATIONAL AIRPORT, CH","FM-15","99999","V020","020,1,N,0020,1","99999,9,9,Y","009900,5,9,9","+0030,1","-0130,1","99999,9",,,,,,,,,,,,,"10250,1,99999,9",,,,,"MET053METAR ZBAA 080930Z 02002MPS CAVOK 03/M13 Q1025 NOSIG="
"54511099999","2022-01-08T10:00:00","4","40.080111","116.584556","35.35","BEIJING CAPITAL INTERNATIONAL AIRPORT, CH","FM-15","99999","V020","010,1,N,0020,1","99999,9,9,Y","009900,5,9,9","+0020,1","-0130,1","99999,9",,,,,,,,,,,,,"10250,1,99999,9",,,,,"MET053METAR ZBAA 081000Z 01002MPS CAVOK 02/M13 Q1025 NOSIG="
"54511099999","2022-01-08T10:30:00","4","40.080111","116.584556","35.35","BEIJING CAPITAL INTERNATIONAL AIRPORT, CH","FM-15","99999","V020","999,9,V,0010,1","99999,9,9,Y","009900,5,9,9","+0010,1","-0130,1","99999,9",,,,,,,,,,,,,"10260,1,99999,9",,,,,"MET053METAR ZBAA 081030Z VRB01MPS CAVOK 01/M13 Q1026 NOSIG="
"54511099999","2022-01-08T11:00:00","4","40.080111","116.584556","35.35","BEIJING CAPITAL INTERNATIONAL AIRPORT, CH","FM-15","99999","V020","999,9,V,0010,1","99999,9,9,Y","009900,5,9,9","+0010,1","-0130,1","99999,9",,,,,,,,,,,,,"10260,1,99999,9",,,,,"MET053METAR ZBAA 081100Z VRB01MPS CAVOK 01/M13 Q1026 NOSIG="
"54511099999","2022-01-08T11:30:00","4","40.080111","116.584556","35.35","BEIJING CAPITAL INTERNATIONAL AIRPORT, CH","FM-15","99999","V020","010,1,N,0010,1","99999,9,9,Y","009900,5,9,9","-0020,1","-0120,1","99999,9",,,,,,,,,,,,,"10260,1,99999,9",,,,,"MET054METAR ZBAA 081130Z 01001MPS CAVOK M02/M12 Q1026 NOSIG="
"54511099999","2022-01-08T12:00:00","4","40.080111","116.584556","35.35","BEIJING CAPITAL INTERNATIONAL AIRPORT, CH","FM-12","99999","V020","059,1,N,0009,1","99999,9,9,9","010900,1,9,9","+0002,1","-0112,1","10267,1","06,9999,9,9","24,0000,9,1",,"9999,9,9,999999,9,9","0,1,06,1","0,1,06,1",,,,"999,-0115,9","240,M,+0096,1","240,N,-0064,1","99999,9,10223,1","2,1,015,1,-013,1","00,1","0092,1","4,12,0092,1,349","SYN004BUFR"
"54511099999","2022-01-08T12:00:00","4","40.080111","116.584556","35.35","BEIJING CAPITAL INTERNATIONAL AIRPORT, CH","FM-15","99999","V020","999,9,V,0010,1","99999,9,9,Y","009900,5,9,9","-0030,1","-0110,1","99999,9",,,,,,,,,,,,,"10260,1,99999,9",,,,,"MET054METAR ZBAA 081200Z VRB01MPS CAVOK M03/M11 Q1026 NOSIG="
"54511099999","2022-01-08T12:30:00","4","40.080111","116.584556","35.35","BEIJING CAPITAL INTERNATIONAL AIRPORT, CH","FM-15","99999","V020","999,9,V,0010,1","99999,9,9,Y","009900,5,9,9","-0020,1","-0110,1","99999,9",,,,,,,,,,,,,"10260,1,99999,9",,,,,"MET054METAR ZBAA 081230Z VRB01MPS CAVOK M02/M11 Q1026 NOSIG="
"54511099999","2022-01-08T13:00:00","4","40.080111","116.584556","35.35","BEIJING CAPITAL INTERNATIONAL AIRPORT, CH","FM-15","99999","V020","999,9,V,0010,1","99999,9,9,Y","009900,5,9,9","-0010,1","-0110,1","99999,9",,,,,,,,,,,,,"10260,1,99999,9",,,,,"MET054METAR ZBAA 081300Z VRB01MPS CAVOK M01/M11 Q1026 NOSIG="
"54511099999","2022-01-08T13:30:00","4","40.080111","116.584556","35.35","BEIJING CAPITAL INTERNATIONAL AIRPORT, CH","FM-15","99999","V020","020,1,N,0020,1","99999,9,9,Y","009900,5,9,9","-0020,1","-0110,1","99999,9",,,,,,,,,,,,,"10260,1,99999,9",,,,,"MET054METAR ZBAA 081330Z 02002MPS CAVOK M02/M11 Q1026 NOSIG="
"54511099999","2022-01-08T14:00:00","4","40.080111","116.584556","35.35","BEIJING CAPITAL INTERNATIONAL AIRPORT, CH","FM-15","99999","V020","030,1,N,0020,1","99999,9,9,Y","009900,5,9,9","+0000,1","-0110,1","99999,9",,,,,,,,,,,,,"10260,1,99999,9",,,,,"MET053METAR ZBAA 081400Z 03002MPS CAVOK 00/M11 Q1026 NOSIG="
"54511099999","2022-01-08T14:30:00","4","40.080111","116.584556","35.35","BEIJING CAPITAL INTERNATIONAL AIRPORT, CH","FM-15","99999","V020","040,1,N,0020,1","99999,9,9,Y","009900,5,9,9","-0010,1","-0110,1","99999,9",,,,,,,,,,,,,"10260,1,99999,9",,,,,"MET054METAR ZBAA 081430Z 04002MPS CAVOK M01/M11 Q1026 NOSIG="
"54511099999","2022-01-08T15:00:00","4","40.080111","116.584556","35.35","BEIJING CAPITAL INTERNATIONAL AIRPORT, CH","FM-12","99999","V020","052,1,N,0015,1","99999,9,9,9","008800,1,9,9","-0015,1","-0102,1","10268,1","06,9999,9,9","12,9999,9,9","24,9999,9,9",,,,"99,9,+04090,1,99,9","9,AGL   ,+99999,+99999","99,99,9,99,9,99,9,04090,1,99,9,99,9","999,-0088,9","240,M,+0096,1","240,N,-0064,1","99999,9,10225,1","2,1,002,1,-004,1","00,1","0092,1","4,12,0092,1,349","SYN004BUFR"
"54511099999","2022-01-08T15:00:00","4","40.080111","116.584556","35.35","BEIJING CAPITAL INTERNATIONAL AIRPORT, CH","FM-15","99999","V020","100,1,V,0020,1","99999,9,9,Y","009900,5,9,9","+0010,1","-0090,1","99999,9",,,,,,,,,,,,,"10270,1,99999,9",,,,,"MET061METAR ZBAA 081500Z 10002MPS 070V130 CAVOK 01/M09 Q1027 NOSIG="
"54511099999","2022-01-08T15:30:00","4","40.080111","116.584556","35.35","BEIJING CAPITAL INTERNATIONAL AIRPORT, CH","FM-15","99999","V020","110,1,V,0030,1","22000,1,9,N","006000,1,9,9","+0000,1","-0050,1","99999,9",,,,,,,,,"00,99,1,99,9,99,9,99999,9,99,9,99,9",,,,"10270,1,99999,9",,,,,"MET064METAR ZBAA 081530Z 11003MPS 080V150 6000 NSC 00/M05 Q1027 NOSIG="
"54511099999","2022-01-08T16:00:00","4","40.080111","116.584556","35.35","BEIJING CAPITAL INTERNATIONAL AIRPORT, CH","FM-15","99999","V020","110,1,V,0030,1","22000,1,9,N","006000,1,9,9","+0000,1","-0040,1","99999,9",,,,,,,,,"00,99,1,99,9,99,9,99999,9,99,9,99,9",,,,"10270,1,99999,9",,,,,"MET064METAR ZBAA 081600Z 11003MPS 080V150 6000 NSC 00/M04 Q1027 NOSIG="
"54511099999","2022-01-08T16:30:00","4","40.080111","116.584556","35.35","BEIJING CAPITAL INTERNATIONAL AIRPORT, CH","FM-15","99999","V020","110,1,V,0030,1","22000,1,9,N","006000,1,9,9","+0000,1","-0040,1","99999,9",,,,,,,,,"00,99,1,99,9,99,9,99999,9,99,9,99,9",,,,"10270,1,99999,9",,,,,"MET064METAR ZBAA 081630Z 11003MPS 080V140 6000 NSC 00/M04 Q1027 NOSIG="
"54511099999","2022-01-08T17:00:00","4","40.080111","116.584556","35.35","BEIJING CAPITAL INTERNATIONAL AIRPORT, CH","FM-15","99999","V020","100,1,V,0030,1","22000,1,9,N","008000,1,9,9","+0000,1","-0050,1","99999,9",,,,,,,,,"00,99,1,99,9,99,9,99999,9,99,9,99,9",,,,"10270,1,99999,9",,,,,"MET065METAR ZBAA 081700Z 10003MPS 070V140 8000 NSC M00/M05 Q1027 NOSIG="
"54511099999","2022-01-08T17:30:00","4","40.080111","116.584556","35.35","BEIJING CAPITAL INTERNATIONAL AIRPORT, CH","FM-15","99999","V020","100,1,V,0020,1","99999,9,9,Y","009900,5,9,9","+0000,1","-0040,1","99999,9",,,,,,,,,,,,,"10270,1,99999,9",,,,,"MET062METAR ZBAA 081730Z 10002MPS 070V140 CAVOK M00/M04 Q1027 NOSIG="
"54511099999","2022-01-08T18:00:00","4","40.080111","116.584556","35.35","BEIJING CAPITAL INTERNATIONAL AIRPORT, CH","FM-12","99999","V020","053,1,N,0020,1","99999,9,9,9","003700,1,9,9","-0015,1","-0049,1","10274,1","06,9999,9,9","12,9999,9,9","24,9999,9,9",,"0,1,99,9","0,1,99,9","99,9,+06200,1,99,9","9,AGL   ,+99999,+99999","99,99,9,99,9,99,9,06200,1,99,9,99,9","999,-0088,9","240,M,+0096,1","240,N,-0064,1","99999,9,10231,1","2,1,006,1,+011,1","05,1","0064,1","4,12,0064,1,014","SYN004BUFR"
"54511099999","2022-01-08T18:00:00","4","40.080111","116.584556","35.35","BEIJING CAPITAL INTERNATIONAL AIRPORT, CH","FM-15","99999","V020","999,9,V,0010,1","99999,9,9,Y","009900,5,9,9","-0010,1","-0050,1","99999,9",,,,,,,,,,,,,"10270,1,99999,9",,,,,"MET054METAR ZBAA 081800Z VRB01MPS CAVOK M01/M05 Q1027 NOSIG="
"54511099999","2022-01-08T18:30:00","4","40.080111","116.584556","35.35","BEIJING CAPITAL INTERNATIONAL AIRPORT, CH","FM-15","99999","V020","999,9,V,0010,1","99999,9,9,Y","009900,5,9,9","-0010,1","-0050,1","99999,9",,,,,,,,,,,,,"10270,1,99999,9",,,,,"MET054METAR ZBAA 081830Z VRB01MPS CAVOK M01/M05 Q1027 NOSIG="
"54511099999","2022-01-08T19:00:00","4","40.080111","116.584556","35.35","BEIJING CAPITAL INTERNATIONAL AIRPORT, CH","FM-15","99999","V020","999,9,V,0010,1","99999,9,9,N","009999,1,9,9","-0010,1","-0050,1","99999,9",,,,,,,"04,1,+00518,1,99,9","9,AGL   ,+99999,+99999","99,99,9,04,1,99,9,00518,1,99,9,99,9",,,,"10280,1,99999,9",,,,,"MET060METAR ZBAA 081900Z VRB01MPS 9999 SCT017 M01/M05 Q1028 NOSIG="
"54511099999","2022-01-08T19:30:00","4","40.080111","116.584556","35.35","BEIJING CAPITAL INTERNATIONAL AIRPORT, CH","FM-15","99999","V020","999,9,V,0010,1","99999,9,9,N","009999,1,9,9","-0010,1","-0050,1","99999,9",,,,,,,"04,1,+00518,1,99,9","9,AGL   ,+99999,+99999","99,99,9,04,1,99,9,00518,1,99,9,99,9",,,,"10270,1,99999,9",,,,,"MET060METAR ZBAA 081930Z VRB01MPS 9999 SCT017 M01/M05 Q1027 NOSIG="
"54511099999","2022-01-08T20:00:00","4","40.080111","116.584556","35.35","BEIJING CAPITAL INTERNATIONAL AIRPORT, CH","FM-15","99999","V020","360,1,N,0010,1","00549,1,C,N","009999,1,9,9","-0010,1","-0050,1","99999,9",,,,,,,"07,1,+00549,1,99,9","9,AGL   ,+99999,+99999","99,99,9,07,1,99,9,00549,1,99,9,99,9",,,,"10270,1,99999,9",,,,,"MET060METAR ZBAA 082000Z 36001MPS 9999 BKN018 M01/M05 Q1027 NOSIG="
"54511099999","2022-01-08T20:30:00","4","40.080111","116.584556","35.35","BEIJING CAPITAL INTERNATIONAL AIRPORT, CH","FM-15","99999","V020","999,9,C,0000,1","00610,1,C,N","009999,1,9,9","-0010,1","-0050,1","99999,9",,,,,,,"07,1,+00610,1,99,9","9,AGL   ,+99999,+99999","99,99,9,07,1,99,9,00610,1,99,9,99,9",,,,"10270,1,99999,9",,,,,"MET060METAR ZBAA 082030Z 00000MPS 9999 BKN020 M01/M05 Q1027 NOSIG="
"54511099999","2022-01-08T21:00:00","4","40.080111","116.584556","35.35","BEIJING CAPITAL INTERNATIONAL AIRPORT, CH","FM-12","99999","V020","055,1,N,0021,1","99999,9,9,9","012200,1,9,9","-0004,1","-0048,1","10271,1","06,9999,9,9","12,9999,9,9","24,9999,9,9",,,,"99,9,+00460,1,99,9","9,AGL   ,+99999,+99999","99,99,9,99,9,99,9,00460,1,99,9,99,9","999,-0088,9","240,M,+0096,1","240,N,-0064,1","99999,9,10228,1","7,1,003,1,+020,1","00,1","0055,1","4,12,0055,1,068","SYN004BUFR"
"54511099999","2022-01-08T21:00:00","4","40.080111","116.584556","35.35","BEIJING CAPITAL INTERNATIONAL AIRPORT, CH","FM-15","99999","V020","999,9,V,0010,1","00610,1,C,N","009999,1,9,9","-0010,1","-0050,1","99999,9",,,,,,,"07,1,+00610,1,99,9","9,AGL   ,+99999,+99999","99,99,9,07,1,99,9,00610,1,99,9,99,9",,,,"10270,1,99999,9",,,,,"MET060METAR ZBAA 082100Z VRB01MPS 9999 BKN020 M01/M05 Q1027 NOSIG="
"54511099999","2022-01-08T21:30:00","4","40.080111","116.584556","35.35","BEIJING CAPITAL INTERNATIONAL AIRPORT, CH","FM-15","99999","V020","999,9,V,0010,1","00701,1,C,N","009999,1,9,9","-0010,1","-0050,1","99999,9",,,,,,,"07,1,+00701,1,99,9","9,AGL   ,+99999,+99999","99,99,9,07,1,99,9,00701,1,99,9,99,9",,,,"10270,1,99999,9",,,,,"MET060METAR ZBAA 082130Z VRB01MPS 9999 BKN023 M01/M05 Q1027 NOSIG="
"54511099999","2022-01-08T22:00:00","4","40.080111","116.584556","35.35","BEIJING CAPITAL INTERNATIONAL AIRPORT, CH","FM-15","99999","V020","999,9,V,0010,1","00701,1,C,N","009999,1,9,9","+0000,1","-0050,1","99999,9",,,,,,,"07,1,+00701,1,99,9","9,AGL   ,+99999,+99999","99,99,9,07,1,99,9,00701,1,99,9,99,9",,,,"10270,1,99999,9",,,,,"MET060METAR ZBAA 082200Z VRB01MPS 9999 BKN023 M00/M05 Q1027 NOSIG="
"54511099999","2022-01-08T22:30:00","4","40.080111","116.584556","35.35","BEIJING CAPITAL INTERNATIONAL AIRPORT, CH","FM-15","99999","V020","999,9,V,0010,1","00701,1,C,N","009999,1,9,9","+0000,1","-0060,1","99999,9",,,,,,,"07,1,+00701,1,99,9","9,AGL   ,+99999,+99999","99,99,9,07,1,99,9,00701,1,99,9,99,9",,,,"10270,1,99999,9",,,,,"MET060METAR ZBAA 082230Z VRB01MPS 9999 BKN023 M00/M06 Q1027 NOSIG="
"54511099999","2022-01-08T23:00:00","4","40.080111","116.584556","35.35","BEIJING CAPITAL INTERNATIONAL AIRPORT, CH","FM-15","99999","V020","120,1,V,0020,1","00701,1,C,N","009999,1,9,9","+0000,1","-0060,1","99999,9",,,,,,,"07,1,+00701,1,99,9","9,AGL   ,+99999,+99999","99,99,9,07,1,99,9,00701,1,99,9,99,9",,,,"10270,1,99999,9",,,,,"MET068METAR ZBAA 082300Z 12002MPS 070V150 9999 BKN023 M00/M06 Q1027 NOSIG="
"54511099999","2022-01-08T23:30:00","4","40.080111","116.584556","35.35","BEIJING CAPITAL INTERNATIONAL AIRPORT, CH","FM-15","99999","V020","999,9,V,0010,1","99999,9,9,N","009999,1,9,9","+0000,1","-0060,1","99999,9",,,,,,,"04,1,+00701,1,99,9","9,AGL   ,+99999,+99999","99,99,9,04,1,99,9,00701,1,99,9,99,9",,,,"10270,1,99999,9",,,,,"MET060METAR ZBAA 082330Z VRB01MPS 9999 SCT023 M00/M06 Q1027 NOSIG="
"54511099999","2022-01-09T00:00:00","4","40.080111","116.584556","35.35","BEIJING CAPITAL INTERNATIONAL AIRPORT, CH","FM-12","99999","V020","065,1,N,0021,1","99999,9,9,9","018800,1,9,9","-0007,1","-0065,1","10276,1","06,9999,9,9","24,0000,9,1",,"9999,9,9,999999,9,9","0,1,12,1","0,1,12,1",,,,"999,-0088,9","240,M,+0096,1","240,N,-0062,1","99999,9,10232,1","2,1,004,1,+014,1","00,1","0055,1","4,12,0055,1,068","SYN004BUFR"
"54511099999","2022-01-09T00:00:00","4","40.080111","116.584556","35.35","BEIJING CAPITAL INTERNATIONAL AIRPORT, CH","FM-15","99999","V020","160,1,N,0020,1","99999,9,9,N","009999,1,9,9","-0010,1","-0060,1","99999,9",,,,,,,"04,1,+00701,1,99,9","9,AGL   ,+99999,+99999","99,99,9,04,1,99,9,00701,1,99,9,99,9",,,,"10270,1,99999,9",,,,,"MET060METAR ZBAA 090000Z 16002MPS 9999 SCT023 M01/M06 Q1027 NOSIG="
"54511099999","2022-01-09T00:30:00","4","40.080111","116.584556","35.35","BEIJING CAPITAL INTERNATIONAL AIRPORT, CH","FM-15","99999","V020","160,1,N,0010,1","99999,9,9,N","009999,1,9,9","+0000,1","-0060,1","99999,9",,,,,,,"04,1,+00701,1,99,9","9,AGL   ,+99999,+99999","99,99,9,04,1,99,9,00701,1,99,9,99,9",,,,"10270,1,99999,9",,,,,"MET060METAR ZBAA 090030Z 16001MPS 9999 SCT023 M00/M06 Q1027 NOSIG="
"54511099999","2022-01-09T01:00:00","4","40.080111","116.584556","35.35","BEIJING CAPITAL INTERNATIONAL AIRPORT, CH","FM-15","99999","V020","170,1,N,0020,1","99999,9,9,N","009999,1,9,9","-0010,1","-0060,1","99999,9",,,,,,,"04,1,+00701,1,99,9","9,AGL   ,+99999,+99999","99,99,9,04,1,99,9,00701,1,99,9,99,9",,,,"10270,1,99999,9",,,,,"MET060METAR ZBAA 090100Z 17002MPS 9999 SCT023 M01/M06 Q1027 NOSIG="
"54511099999","2022-01-09T01:30:00","4","40.080111","116.584556","35.35","BEIJING CAPITAL INTERNATIONAL AIRPORT, CH","FM-15","99999","V020","160,1,N,0020,1","99999,9,9,N","009999,1,9,9","+0000,1","-0060,1","99999,9",,,,,,,"04,1,+00701,1,99,9","9,AGL   ,+99999,+99999","99,99,9,04,1,99,9,00701,1,99,9,99,9",,,,"10270,1,99999,9",,,,,"MET060METAR ZBAA 090130Z 16002MPS 9999 SCT023 M00/M06 Q1027 NOSIG="
"54511099999","2022-01-09T02:00:00","4","40.080111","116.584556","35.35","BEIJING CAPITAL INTERNATIONAL AIRPORT, CH","FM-15","99999","V020","999,9,V,0010,1","00701,1,C,N","009999,1,9,9","+0000,1","-0060,1","99999,9",,,,,,,"07,1,+00701,1,99,9","9,AGL   ,+99999,+99999","99,99,9,07,1,99,9,00701,1,99,9,99,9",,,,"10280,1,99999,9",,,,,"MET060METAR ZBAA 090200Z VRB01MPS 9999 BKN023 M00/M06 Q1028 NOSIG="
"54511099999","2022-01-09T02:30:00","4","40.080111","116.584556","35.35","BEIJING CAPITAL INTERNATIONAL AIRPORT, CH","FM-15","99999","V020","160,1,V,0020,1","00701,1,C,N","009999,1,9,9","+0000,1","-0050,1","99999,9",,,,,,,"07,1,+00701,1,99,9","9,AGL   ,+99999,+99999","99,99,9,07,1,99,9,00701,1,99,9,99,9",,,,"10280,1,99999,9",,"71,1",,,"MET072METAR ZBAA 090230Z 16002MPS 120V190 9999 -SN BKN023 M00/M05 Q1028 NOSIG="
"54511099999","2022-01-09T03:00:00","4","40.080111","116.584556","35.35","BEIJING CAPITAL INTERNATIONAL AIRPORT, CH","FM-12","99999","V020","046,1,N,0021,1","99999,9,9,9","016700,1,9,9","+0000,1","-0063,1","10275,1","06,9999,9,9","12,9999,9,9","24,9999,9,9",,"0,1,03,1","0,1,03,1","99,9,+00620,1,99,9","9,AGL   ,+99999,+99999","99,99,9,99,9,99,9,00620,1,99,9,99,9","999,-0079,9","240,M,+0096,1","240,N,-0024,1","99999,9,10231,1","7,1,001,1,+007,1","00,1","0055,1","4,12,0055,1,068","SYN004BUFR"
"54511099999","2022-01-09T03:00:00","4","40.080111","116.584556","35.35","BEIJING CAPITAL INTERNATIONAL AIRPORT, CH","FM-15","99999","V020","130,1,V,0020,1","00701,1,C,N","009999,1,9,9","-0010,1","-0040,1","99999,9",,,,,,,"07,1,+00701,1,99,9","9,AGL   ,+99999,+99999","99,99,9,07,1,99,9,00701,1,99,9,99,9",,,,"10270,1,99999,9",,,,,"MET068METAR ZBAA 090300Z 13002MPS 070V180 9999 BKN023 M01/M04 Q1027 NOSIG="
"54511099999","2022-01-09T03:30:00","4","40.080111","116.584556","35.35","BEIJING CAPITAL INTERNATIONAL AIRPORT, CH","FM-15","99999","V020","999,9,V,0010,1","00701,1,C,N","009999,1,9,9","+0000,1","-0040,1","99999,9",,,,,,,"07,1,+00701,1,99,9","9,AGL   ,+99999,+99999","99,99,9,07,1,99,9,00701,1,99,9,99,9",,,,"10270,1,99999,9",,,,,"MET060METAR ZBAA 090330Z VRB01MPS 9999 BKN023 M00/M04 Q1027 NOSIG="
"54511099999","2022-01-09T04:00:00","4","40.080111","116.584556","35.35","BEIJING CAPITAL INTERNATIONAL AIRPORT, CH","FM-15","99999","V020","999,9,V,0010,1","00610,1,C,N","007000,1,9,9","+0000,1","-0030,1","99999,9",,,,,,,"07,1,+00610,1,99,9","9,AGL   ,+99999,+99999","99,99,9,07,1,99,9,00610,1,99,9,99,9",,,,"10270,1,99999,9",,"71,1",,,"MET064METAR ZBAA 090400Z VRB01MPS 7000 -SN BKN020 M00/M03 Q1027 NOSIG="
"54511099999","2022-01-09T04:30:00","4","40.080111","116.584556","35.35","BEIJING CAPITAL INTERNATIONAL AIRPORT, CH","FM-15","99999","V020","060,1,N,0010,1","00610,1,C,N","007000,1,9,9","-0010,1","-0030,1","99999,9",,,,,,,"07,1,+00610,1,99,9","9,AGL   ,+99999,+99999","99,99,9,07,1,99,9,00610,1,99,9,99,9",,,,"10260,1,99999,9",,"71,1",,,"MET064METAR ZBAA 090430Z 06001MPS 7000 -SN BKN020 M01/M03 Q1026 NOSIG="
"54511099999","2022-01-09T05:00:00","4","40.080111","116.584556","35.35","BEIJING CAPITAL INTERNATIONAL AIRPORT, CH","FM-15","99999","V020","999,9,V,0010,1","99999,9,9,N","008000,1,9,9","-0010,1","-0030,1","99999,9",,,,,,,"04,1,+00610,1,99,9","9,AGL   ,+99999,+99999","99,99,9,04,1,99,9,00610,1,99,9,99,9",,,,"10260,1,99999,9",,"71,1",,,"MET064METAR ZBAA 090500Z VRB01MPS 8000 -SN SCT020 M01/M03 Q1026 NOSIG="
"54511099999","2022-01-09T05:30:00","4","40.080111","116.584556","35.35","BEIJING CAPITAL INTERNATIONAL AIRPORT, CH","FM-15","99999","V020","050,1,V,0020,1","01219,1,C,N","009999,1,9,9","+0000,1","-0030,1","99999,9",,,,,,,"08,1,+01219,1,99,9","9,AGL   ,+99999,+99999","99,99,9,08,1,99,9,01219,1,99,9,99,9",,,,"10250,1,99999,9",,"71,1",,,"MET071METAR ZBAA 090530Z 05002MPS 320V130 9999 -SN OVC040 00/M03 Q1025 NOSIG="
"54511099999","2022-01-09T06:00:00","4","40.080111","116.584556","35.35","BEIJING CAPITAL INTERNATIONAL AIRPORT, CH","FM-12","99999","V020","044,1,N,0020,1","99999,9,9,9","014200,1,9,9","+0010,1","-0050,1","10251,1","06,9999,9,9","24,0000,9,1",,"9999,9,9,999999,9,9","0,1,06,1","0,1,06,1","99,9,+00690,1,99,9","9,AGL   ,+99999,+99999","99,99,9,99,9,99,9,00690,1,99,9,99,9","999,-0069,9","240,M,+0096,1","240,N,-0024,1","99999,9,10207,1","7,1,024,1,-001,1","00,1",,"4,12,0041,1,065","SYN004BUFR"
"54511099999","2022-01-09T06:00:00","4","40.080111","116.584556","35.35","BEIJING CAPITAL INTERNATIONAL AIRPORT, CH","FM-15","99999","V020","100,1,V,0020,1","01219,1,C,N","009999,1,9,9","+0000,1","-0040,1","99999,9",,,,,,,"08,1,+01219,1,99,9","9,AGL   ,+99999,+99999","99,99,9,08,1,99,9,01219,1,99,9,99,9",,,,"10250,1,99999,9",,,,,"MET067METAR ZBAA 090600Z 10002MPS 070V130 9999 OVC040 00/M04 Q1025 NOSIG="
"54511099999","2022-01-09T06:30:00","4","40.080111","116.584556","35.35","BEIJING CAPITAL INTERNATIONAL AIRPORT, CH","FM-15","99999","V020","080,1,N,0020,1","01219,1,C,N","009999,1,9,9","+0000,1","-0040,1","99999,9",,,,,,,"08,1,+01219,1,99,9","9,AGL   ,+99999,+99999","99,99,9,08,1,99,9,01219,1,99,9,99,9",,,,"10250,1,99999,9",,,,,"MET059METAR ZBAA 090630Z 08002MPS 9999 OVC040 00/M04 Q1025 NOSIG="
"54511099999","2022-01-09T07:00:00","4","40.080111","116.584556","35.35","BEIJING CAPITAL INTERNATIONAL AIRPORT, CH","FM-15","99999","V020","060,1,N,0020,1","01219,1,C,N","009999,1,9,9","+0010,1","-0040,1","99999,9",,,,,,,"08,1,+01219,1,99,9","9,AGL   ,+99999,+99999","99,99,9,08,1,99,9,01219,1,99,9,99,9",,,,"10240,1,99999,9",,,,,"MET059METAR ZBAA 090700Z 06002MPS 9999 OVC040 01/M04 Q1024 NOSIG="
"54511099999","2022-01-09T07:30:00","4","40.080111","116.584556","35.35","BEIJING CAPITAL INTERNATIONAL AIRPORT, CH","FM-15","99999","V020","120,1,V,0020,1","01219,1,C,N","009999,1,9,9","+0010,1","-0040,1","99999,9",,,,,,,"08,1,+01219,1,99,9","9,AGL   ,+99999,+99999","99,99,9,08,1,99,9,01219,1,99,9,99,9",,,,"10240,1,99999,9",,,,,"MET067METAR ZBAA 090730Z 12002MPS 090V150 9999 OVC040 01/M04 Q1024 NOSIG="
"54511099999","2022-01-09T08:00:00","4","40.080111","116.584556","35.35","BEIJING CAPITAL INTERNATIONAL AIRPORT, CH","FM-15","99999","V020","999,9,V,0010,1","01219,1,C,N","009999,1,9,9","+0010,1","-0040,1","99999,9",,,,,,,"08,1,+01219,1,99,9","9,AGL   ,+99999,+99999","99,99,9,08,1,99,9,01219,1,99,9,99,9",,,,"10240,1,99999,9",,,,,"MET059METAR ZBAA 090800Z VRB01MPS 9999 OVC040 01/M04 Q1024 NOSIG="
"54511099999","2022-01-09T08:30:00","4","40.080111","116.584556","35.35","BEIJING CAPITAL INTERNATIONAL AIRPORT, CH","FM-15","99999","V020","120,1,V,0020,1","01219,1,C,N","009999,1,9,9","+0010,1","-0030,1","99999,9",,,,,,,"08,1,+01219,1,99,9","9,AGL   ,+99999,+99999","99,99,9,08,1,99,9,01219,1,99,9,99,9",,,,"10240,1,99999,9",,,,,"MET067METAR ZBAA 090830Z 12002MPS 090V150 9999 OVC040 01/M03 Q1024 NOSIG="
"54511099999","2022-01-09T09:00:00","4","40.080111","116.584556","35.35","BEIJING CAPITAL INTERNATIONAL AIRPORT, CH","FM-12","99999","V020","053,1,N,0021,1","99999,9,9,9","010600,1,9,9","+0002,1","-0041,1","10249,1","06,9999,9,9","12,9999,9,9","24,9999,9,9",,"0,1,03,1","0,1,03,1",,,,"999,-0029,9","240,M,+0070,1","240,N,-0024,1","99999,9,10205,1","7,1,002,1,-003,1","00,1",,"4,12,0041,1,065","SYN004BUFR"
"54511099999","2022-01-09T09:00:00","4","40.080111","116.584556","35.35","BEIJING CAPITAL INTERNATIONAL AIRPORT, CH","FM-15","99999","V020","999,9,V,0010,1","01219,1,C,N","009999,1,9,9","+0000,1","-0040,1","99999,9",,,,,,,"08,1,+01219,1,99,9","9,AGL   ,+99999,+99999","99,99,9,08,1,99,9,01219,1,99,9,99,9",,,,"10240,1,99999,9",,,,,"MET060METAR ZBAA 090900Z VRB01MPS 9999 OVC040 M00/M04 Q1024 NOSIG="
"54511099999","2022-01-09T09:30:00","4","40.080111","116.584556","35.35","BEIJING CAPITAL INTERNATIONAL AIRPORT, CH","FM-15","99999","V020","150,1,N,0010,1","01219,1,C,N","009999,1,9,9","-0010,1","-0030,1","99999,9",,,,,,,"08,1,+01219,1,99,9","9,AGL   ,+99999,+99999","99,99,9,08,1,99,9,01219,1,99,9,99,9",,,,"10250,1,99999,9",,,,,"MET060METAR ZBAA 090930Z 15001MPS 9999 OVC040 M01/M03 Q1025 NOSIG="
"54511099999","2022-01-09T10:00:00","4","40.080111","116.584556","35.35","BEIJING CAPITAL INTERNATIONAL AIRPORT, CH","FM-15","99999","V020","999,9,C,0000,1","01219,1,C,N","009999,1,9,9","-0010,1","-0030,1","99999,9",,,,,,,"08,1,+01219,1,99,9","9,AGL   ,+99999,+99999","99,99,9,08,1,99,9,01219,1,99,9,99,9",,,,"10250,1,99999,9",,,,,"MET060METAR ZBAA 091000Z 00000MPS 9999 OVC040 M01/M03 Q1025 NOSIG="
"54511099999","2022-01-09T10:30:00","4","40.080111","116.584556","35.35","BEIJING CAPITAL INTERNATIONAL AIRPORT, CH","FM-15","99999","V020","999,9,V,0010,1","01219,1,C,N","009999,1,9,9","-0020,1","-0040,1","99999,9",,,,,,,"07,1,+01219,1,99,9","9,AGL   ,+99999,+99999","99,99,9,07,1,99,9,01219,1,99,9,99,9",,,,"10250,1,99999,9",,,,,"MET060METAR ZBAA 091030Z VRB01MPS 9999 BKN040 M02/M04 Q1025 NOSIG="
"54511099999","2022-01-09T11:00:00","4","40.080111","116.584556","35.35","BEIJING CAPITAL INTERNATIONAL AIRPORT, CH","FM-15","99999","V020","020,1,N,0010,1","99999,9,9,N","009999,1,9,9","-0030,1","-0050,1","99999,9",,,,,,,"02,1,+01219,1,99,9","9,AGL   ,+99999,+99999","99,99,9,02,1,99,9,01219,1,99,9,99,9",,,,"10250,1,99999,9",,,,,"MET060METAR ZBAA 091100Z 02001MPS 9999 FEW040 M03/M05 Q1025 NOSIG="
"54511099999","2022-01-09T11:30:00","4","40.080111","116.584556","35.35","BEIJING CAPITAL INTERNATIONAL AIRPORT, CH","FM-15","99999","V020","060,1,N,0010,1","99999,9,9,Y","009900,5,9,9","-0010,1","-0030,1","99999,9",,,,,,,,,,,,,"10250,1,99999,9",,,,,"MET054METAR ZBAA 091130Z 06001MPS CAVOK M01/M03 Q1025 NOSIG="
"54511099999","2022-01-09T12:00:00","4","40.080111","116.584556","35.35","BEIJING CAPITAL INTERNATIONAL AIRPORT, CH","FM-12","99999","V020","053,1,N,0013,1","99999,9,9,9","008800,1,9,9","-0005,1","-0040,1","10258,1","06,9999,9,9","24,0000,9,1",,"9999,9,9,999999,9,9","0,1,06,1","0,1,06,1","99,9,+04750,1,99,9","9,AGL   ,+99999,+99999","99,99,9,99,9,99,9,04750,1,99,9,99,9","999,-0050,9","240,M,+0013,1","240,N,-0024,1","99999,9,10214,1","2,1,009,1,-009,1","00,1",,"4,12,0039,1,068","SYN004BUFR"
"54511099999","2022-01-09T12:00:00","4","40.080111","116.584556","35.35","BEIJING CAPITAL INTERNATIONAL AIRPORT, CH","FM-15","99999","V020","060,1,N,0010,1","99999,9,9,Y","009900,5,9,9","-0010,1","-0030,1","99999,9",,,,,,,,,,,,,"10260,1,99999,9",,,,,"MET054METAR ZBAA 091200Z 06001MPS CAVOK M01/M03 Q1026 NOSIG="
"54511099999","2022-01-09T12:30:00","4","40.080111","116.584556","35.35","BEIJING CAPITAL INTERNATIONAL AIRPORT, CH","FM-15","99999","V020","070,1,N,0010,1","99999,9,9,Y","009900,5,9,9","-0010,1","-0030,1","99999,9",,,,,,,,,,,,,"10250,1,99999,9",,,,,"MET054METAR ZBAA 091230Z 07001MPS CAVOK M01/M03 Q1025 NOSIG="
"54511099999","2022-01-09T13:00:00","4","40.080111","116.584556","35.35","BEIJING CAPITAL INTERNATIONAL AIRPORT, CH","FM-15","99999","V020","999,9,V,0010,1","99999,9,9,Y","009900,5,9,9","-0010,1","-0030,1","99999,9",,,,,,,,,,,,,"10260,1,99999,9",,,,,"MET054METAR ZBAA 091300Z VRB01MPS CAVOK M01/M03 Q1026 NOSIG="
"54511099999","2022-01-09T13:30:00","4","40.080111","116.584556","35.35","BEIJING CAPITAL INTERNATIONAL AIRPORT, CH","FM-15","99999","V020","080,1,N,0010,1","99999,9,9,Y","009900,5,9,9","-0010,1","-0030,1","99999,9",,,,,,,,,,,,,"10260,1,99999,9",,,,,"MET054METAR ZBAA 091330Z 08001MPS CAVOK M01/M03 Q1026 NOSIG="
"54511099999","2022-01-09T14:00:00","4","40.080111","116.584556","35.35","BEIJING CAPITAL INTERNATIONAL AIRPORT, CH","FM-15","99999","V020","130,1,N,0010,1","99999,9,9,Y","009900,5,9,9","-0010,1","-0030,1","99999,9",,,,,,,,,,,,,"10260,1,99999,9",,,,,"MET054METAR ZBAA 091400Z 13001MPS CAVOK M01/M03 Q1026 NOSIG="
"54511099999","2022-01-09T14:30:00","4","40.080111","116.584556","35.35","BEIJING CAPITAL INTERNATIONAL AIRPORT, CH","FM-15","99999","V020","120,1,N,0010,1","99999,9,9,Y","009900,5,9,9","-0020,1","-0040,1","99999,9",,,,,,,,,,,,,"10260,1,99999,9",,,,,"MET054METAR ZBAA 091430Z 12001MPS CAVOK M02/M04 Q1026 NOSIG="
"54511099999","2022-01-09T15:00:00","4","40.080111","116.584556","35.35","BEIJING CAPITAL INTERNATIONAL AIRPORT, CH","FM-12","99999","V020","047,1,N,0006,1","99999,9,9,9","007700,1,9,9","-0002,1","-0037,1","10260,1","06,9999,9,9","12,9999,9,9","24,9999,9,9",,,,"99,9,+00800,1,99,9","9,AGL   ,+99999,+99999","99,99,9,99,9,99,9,00800,1,99,9,99,9","999,-0064,9","240,M,+0013,1","240,N,-0018,1","99999,9,10216,1","2,1,002,1,-009,1","00,1",,"4,12,0039,1,068","SYN004BUFR"
"54511099999","2022-01-09T15:00:00","4","40.080111","116.584556","35.35","BEIJING CAPITAL INTERNATIONAL AIRPORT, CH","FM-15","99999","V020","999,9,V,0010,1","99999,9,9,Y","009900,5,9,9","-0010,1","-0030,1","99999,9",,,,,,,,,,,,,"10260,1,99999,9",,,,,"MET054METAR ZBAA 091500Z VRB01MPS CAVOK M01/M03 Q1026 NOSIG="
"54511099999","2022-01-09T15:30:00","4","40.080111","116.584556","35.35","BEIJING CAPITAL INTERNATIONAL AIRPORT, CH","FM-15","99999","V020","999,9,V,0010,1","99999,9,9,Y","009900,5,9,9","-0010,1","-0030,1","99999,9",,,,,,,,,,,,,"10260,1,99999,9",,,,,"MET054METAR ZBAA 091530Z VRB01MPS CAVOK M01/M03 Q1026 NOSIG="
"54511099999","2022-01-09T16:00:00","4","40.080111","116.584556","35.35","BEIJING CAPITAL INTERNATIONAL AIRPORT, CH","FM-15","99999","V020","999,9,V,0010,1","99999,9,9,N","009999,1,9,9","-0020,1","-0030,1","99999,9",,,,,,,"02,1,+01219,1,99,9","9,AGL   ,+99999,+99999","99,99,9,02,1,99,9,01219,1,99,9,99,9",,,,"10260,1,99999,9",,,,,"MET060METAR ZBAA 091600Z VRB01MPS 9999 FEW040 M02/M03 Q1026 NOSIG="
"54511099999","2022-01-09T16:30:00","4","40.080111","116.584556","35.35","BEIJING CAPITAL INTERNATIONAL AIRPORT, CH","FM-15","99999","V020","350,1,N,0010,1","99999,9,9,N","009999,1,9,9","-0020,1","-0030,1","99999,9",,,,,,,"02,1,+01219,1,99,9","9,AGL   ,+99999,+99999","99,99,9,02,1,99,9,01219,1,99,9,99,9",,,,"10260,1,99999,9",,,,,"MET060METAR ZBAA 091630Z 35001MPS 9999 FEW040 M02/M03 Q1026 NOSIG="
"54511099999","2022-01-09T17:00:00","4","40.080111","116.584556","35.35","BEIJING CAPITAL INTERNATIONAL AIRPORT, CH","FM-15","99999","V020","360,1,N,0010,1","99999,9,9,Y","009900,5,9,9","-0030,1","-0040,1","99999,9",,,,,,,,,,,,,"10250,1,99999,9",,,,,"MET054METAR ZBAA 091700Z 36001MPS CAVOK M03/M04 Q1025 NOSIG="
"54511099999","2022-01-09T17:30:00","4","40.080111","116.584556","35.35","BEIJING CAPITAL INTERNATIONAL AIRPORT, CH","FM-15","99999","V020","350,1,N,0010,1","99999,9,9,Y","009900,5,9,9","-0040,1","-0050,1","99999,9",,,,,,,,,,,,,"10260,1,99999,9",,,,,"MET054METAR ZBAA 091730Z 35001MPS CAVOK M04/M05 Q1026 NOSIG="
"54511099999","2022-01-09T18:00:00","4","40.080111","116.584556","35.35","BEIJING CAPITAL INTERNATIONAL AIRPORT, CH","FM-12","99999","V020","057,1,N,0015,1","99999,9,9,9","005300,1,9,9","-0019,1","-0041,1","10259,1","06,9999,9,9","12,9999,9,9","24,9999,9,9",,"0,1,99,9","0,1,99,9","99,9,+04170,1,99,9","9,AGL   ,+99999,+99999","99,99,9,99,9,99,9,04170,1,99,9,99,9","999,-0082,9","240,M,+0013,1","240,N,-0019,1","99999,9,10215,1","7,1,001,1,-016,1","05,1",,"4,12,0039,1,068","SYN004BUFR"
"54511099999","2022-01-09T18:00:00","4","40.080111","116.584556","35.35","BEIJING CAPITAL INTERNATIONAL AIRPORT, CH","FM-15","99999","V020","340,1,N,0010,1","99999,9,9,Y","009900,5,9,9","-0050,1","-0060,1","99999,9",,,,,,,,,,,,,"10250,1,99999,9",,,,,"MET054METAR ZBAA 091800Z 34001MPS CAVOK M05/M06 Q1025 NOSIG="
"54511099999","2022-01-09T18:30:00","4","40.080111","116.584556","35.35","BEIJING CAPITAL INTERNATIONAL AIRPORT, CH","FM-15","99999","V020","350,1,N,0020,1","99999,9,9,Y","009900,5,9,9","-0050,1","-0060,1","99999,9",,,,,,,,,,,,,"10260,1,99999,9",,,,,"MET054METAR ZBAA 091830Z 35002MPS CAVOK M05/M06 Q1026 NOSIG="
"54511099999","2022-01-09T19:00:00","4","40.080111","116.584556","35.35","BEIJING CAPITAL INTERNATIONAL AIRPORT, CH","FM-15","99999","V020","350,1,N,0020,1","99999,9,9,Y","009900,5,9,9","-0050,1","-0060,1","99999,9",,,,,,,,,,,,,"10260,1,99999,9",,,,,"MET054METAR ZBAA 091900Z 35002MPS CAVOK M05/M06 Q1026 NOSIG="
"54511099999","2022-01-09T19:30:00","4","40.080111","116.584556","35.35","BEIJING CAPITAL INTERNATIONAL AIRPORT, CH","FM-15","99999","V020","350,1,N,0020,1","99999,9,9,Y","009900,5,9,9","-0040,1","-0050,1","99999,9",,,,,,,,,,,,,"10260,1,99999,9",,,,,"MET054METAR ZBAA 091930Z 35002MPS CAVOK M04/M05 Q1026 NOSIG="
"54511099999","2022-01-09T20:00:00","4","40.080111","116.584556","35.35","BEIJING CAPITAL INTERNATIONAL AIRPORT, CH","FM-15","99999","V020","010,1,N,0020,1","99999,9,9,Y","009900,5,9,9","-0040,1","-0060,1","99999,9",,,,,,,,,,,,,"10260,1,99999,9",,,,,"MET054METAR ZBAA 092000Z 01002MPS CAVOK M04/M06 Q1026 NOSIG="
"54511099999","2022-01-09T20:30:00","4","40.080111","116.584556","35.35","BEIJING CAPITAL INTERNATIONAL AIRPORT, CH","FM-15","99999","V020","350,1,N,0020,1","99999,9,9,Y","009900,5,9,9","-0040,1","-0060,1","99999,9",,,,,,,,,,,,,"10260,1,99999,9",,,,,"MET054METAR ZBAA 092030Z 35002MPS CAVOK M04/M06 Q1026 NOSIG="
"54511099999","2022-01-09T21:00:00","4","40.080111","116.584556","35.35","BEIJING CAPITAL INTERNATIONAL AIRPORT, CH","FM-12","99999","V020","025,1,N,0021,1","99999,9,9,9","006300,1,9,9","-0015,1","-0070,1","10258,1","06,9999,9,9","12,9999,9,9","24,9999,9,9",,,,"99,9,+02660,1,99,9","9,AGL   ,+99999,+99999","99,99,9,99,9,99,9,02660,1,99,9,99,9","999,-0084,9","240,M,+0013,1","240,N,-0025,1","99999,9,10214,1","7,1,001,1,-014,1","05,1",,"4,12,0030,1,011","SYN004BUFR"
"54511099999","2022-01-09T21:00:00","4","40.080111","116.584556","35.35","BEIJING CAPITAL INTERNATIONAL AIRPORT, CH","FM-15","99999","V020","360,1,N,0030,1","99999,9,9,Y","009900,5,9,9","-0050,1","-0070,1","99999,9",,,,,,,,,,,,,"10250,1,99999,9",,,,,"MET054METAR ZBAA 092100Z 36003MPS CAVOK M05/M07 Q1025 NOSIG="
"54511099999","2022-01-09T21:30:00","4","40.080111","116.584556","35.35","BEIJING CAPITAL INTERNATIONAL AIRPORT, CH","FM-15","99999","V020","350,1,N,0020,1","99999,9,9,Y","009900,5,9,9","-0060,1","-0080,1","99999,9",,,,,,,,,,,,,"10260,1,99999,9",,,,,"MET054METAR ZBAA 092130Z 35002MPS CAVOK M06/M08 Q1026 NOSIG="
"54511099999","2022-01-09T22:00:00","4","40.080111","116.584556","35.35","BEIJING CAPITAL INTERNATIONAL AIRPORT, CH","FM-15","99999","V020","040,1,N,0030,1","99999,9,9,Y","009900,5,9,9","-0050,1","-0060,1","99999,9",,,,,,,,,,,,,"10260,1,99999,9",,,,,"MET054METAR ZBAA 092200Z 04003MPS CAVOK M05/M06 Q1026 NOSIG="
"54511099999","2022-01-09T22:30:00","4","40.080111","116.584556","35.35","BEIJING CAPITAL INTERNATIONAL AIRPORT, CH","FM-15","99999","V020","300,1,N,0030,1","99999,9,9,Y","009900,5,9,9","-0020,1","-0050,1","99999,9",,,,,,,,,,,,,"10260,1,99999,9",,,,,"MET054METAR ZBAA 092230Z 30003MPS CAVOK M02/M05 Q1026 NOSIG="
"54511099999","2022-01-09T23:00:00","4","40.080111","116.584556","35.35","BEIJING CAPITAL INTERNATIONAL AIRPORT, CH","FM-15","99999","V020","280,1,N,0020,1","99999,9,9,Y","009900,5,9,9","-0030,1","-0060,1","99999,9",,,,,,,,,,,,,"10260,1,99999,9",,,,,"MET054METAR ZBAA 092300Z 28002MPS CAVOK M03/M06 Q1026 NOSIG="
"54511099999","2022-01-09T23:30:00","4","40.080111","116.584556","35.35","BEIJING CAPITAL INTERNATIONAL AIRPORT, CH","FM-15","99999","V020","320,1,N,0020,1","99999,9,9,Y","009900,5,9,9","-0060,1","-0080,1","99999,9",,,,,,,,,,,,,"10270,1,99999,9",,,,,"MET054METAR ZBAA 092330Z 32002MPS CAVOK M06/M08 Q1027 NOSIG="
"54511099999","2022-01-10T00:00:00","4","40.080111","116.584556","35.35","BEIJING CAPITAL INTERNATIONAL AIRPORT, CH","FM-12","99999","V020","035,1,N,0024,1","99999,9,9,9","011000,1,9,9","-0022,1","-0082,1","10273,1","06,9999,9,9","24,0000,9,1",,"9999,9,9,999999,9,9","0,1,12,1","0,1,12,1",,,,"999,-0100,9","240,M,+0013,1","240,N,-0025,1","99999,9,10229,1","2,1,015,1,-003,1","00,1","0079,1","4,12,0079,1,008","SYN004BUFR"
"54511099999","2022-01-10T00:00:00","4","40.080111","116.584556","35.35","BEIJING CAPITAL INTERNATIONAL AIRPORT, CH","FM-15","99999","V020","010,1,N,0030,1","99999,9,9,Y","009900,5,9,9","-0040,1","-0100,1","99999,9",,,,,,,,,,,,,"10270,1,99999,9",,,,,"MET054METAR ZBAA 100000Z 01003MPS CAVOK M04/M10 Q1027 NOSIG="
"54511099999","2022-01-10T00:30:00","4","40.080111","116.584556","35.35","BEIJING CAPITAL INTERNATIONAL AIRPORT, CH","FM-15","99999","V020","350,1,N,0040,1","99999,9,9,Y","009900,5,9,9","-0030,1","-0080,1","99999,9",,,,,,,,,,,,,"10280,1,99999,9",,,,,"MET054METAR ZBAA 100030Z 35004MPS CAVOK M03/M08 Q1028 NOSIG="
"54511099999","2022-01-10T01:00:00","4","40.080111","116.584556","35.35","BEIJING CAPITAL INTERNATIONAL AIRPORT, CH","FM-15","99999","V020","010,1,V,0030,1","99999,9,9,Y","009900,5,9,9","-0010,1","-0100,1","99999,9",,,,,,,,,,,,,"10280,1,99999,9",,,,,"MET062METAR ZBAA 100100Z 01003MPS 330V040 CAVOK M01/M10 Q1028 NOSIG="
"54511099999","2022-01-10T01:30:00","4","40.080111","116.584556","35.35","BEIJING CAPITAL INTERNATIONAL AIRPORT, CH","FM-15","99999","V020","320,1,V,0020,1","99999,9,9,Y","009900,5,9,9","+0000,1","-0090,1","99999,9",,,,,,,,,,,,,"10280,1,99999,9",,,,,"MET062METAR ZBAA 100130Z 32002MPS 290V350 CAVOK M00/M09 Q1028 NOSIG="
"54511099999","2022-01-10T02:00:00","4","40.080111","116.584556","35.35","BEIJING CAPITAL INTERNATIONAL AIRPORT, CH","FM-15","99999","V020","360,1,N,0040,1","99999,9,9,Y","009900,5,9,9","+0000,1","-0120,1","99999,9",,,,,,,,,,,,,"10290,1,99999,9",,,,,"MET053METAR ZBAA 100200Z 36004MPS CAVOK 00/M12 Q1029 NOSIG="
"54511099999","2022-01-10T02:30:00","4","40.080111","116.584556","35.35","BEIJING CAPITAL INTERNATIONAL AIRPORT, CH","FM-15","99999","V020","340,1,N,0040,1","99999,9,9,Y","009900,5,9,9","+0010,1","-0120,1","99999,9",,,,,,,,,,,,,"10290,1,99999,9",,,,,"MET053METAR ZBAA 100230Z 34004MPS CAVOK 01/M12 Q1029 NOSIG="
"54511099999","2022-01-10T03:00:00","4","40.080111","116.584556","35.35","BEIJING CAPITAL INTERNATIONAL AIRPORT, CH","FM-12","99999","V020","325,1,N,0038,1","99999,9,9,9","030000,1,9,9","+0020,1","-0151,1","10290,1","06,9999,9,9","12,9999,9,9","24,9999,9,9",,"0,1,03,1","0,1,03,1",,,,"999,-0100,9","240,M,+0019,1","240,N,-0025,1","99999,9,10246,1","2,1,017,1,+015,1","00,1","0087,1","4,12,0087,1,312","SYN004BUFR"
"54511099999","2022-01-10T03:00:00","4","40.080111","116.584556","35.35","BEIJING CAPITAL INTERNATIONAL AIRPORT, CH","FM-15","99999","V020","350,1,V,0030,1","99999,9,9,Y","009900,5,9,9","+0020,1","-0140,1","99999,9",,,,,,,,,,,,,"10290,1,99999,9",,,,,"MET061METAR ZBAA 100300Z 35003MPS 310V030 CAVOK 02/M14 Q1029 NOSIG="
"54511099999","2022-01-10T03:30:00","4","40.080111","116.584556","35.35","BEIJING CAPITAL INTERNATIONAL AIRPORT, CH","FM-15","99999","V020","360,1,V,0050,1","99999,9,9,Y","009900,5,9,9","+0020,1","-0150,1","99999,9",,,,,,,,,,,,,"10290,1,99999,9",,,,,"MET061METAR ZBAA 100330Z 36005MPS 330V030 CAVOK 02/M15 Q1029 NOSIG="
"54511099999","2022-01-10T04:00:00","4","40.080111","116.584556","35.35","BEIJING CAPITAL INTERNATIONAL AIRPORT, CH","FM-15","99999","V020","350,1,V,0050,1","99999,9,9,Y","009900,5,9,9","+0020,1","-0160,1","99999,9",,,,,,,,,,,,,"10280,1,99999,9",,,,,"MET061METAR ZBAA 100400Z 35005MPS 310V030 CAVOK 02/M16 Q1028 NOSIG="
"54511099999","2022-01-10T04:30:00","4","40.080111","116.584556","35.35","BEIJING CAPITAL INTERNATIONAL AIRPORT, CH","FM-15","99999","V020","350,1,V,0040,1","99999,9,9,Y","009900,5,9,9","+0020,1","-0160,1","99999,9",,,,,,,,,,,,,"10280,1,99999,9",,,,,"MET061METAR ZBAA 100430Z 35004MPS 310V050 CAVOK 02/M16 Q1028 NOSIG="
"54511099999","2022-01-10T05:00:00","4","40.080111","116.584556","35.35","BEIJING CAPITAL INTERNATIONAL AIRPORT, CH","FM-15","99999","V020","040,1,V,0050,1","99999,9,9,Y","009900,5,9,9","+0010,1","-0180,1","99999,9",,,,,,,,,,,,,"10270,1,99999,9",,,"0100,1",,"MET064METAR ZBAA 100500Z 04005G10MPS 360V070 CAVOK 01/M18 Q1027 NOSIG="
"54511099999","2022-01-10T05:30:00","4","40.080111","116.584556","35.35","BEIJING CAPITAL INTERNATIONAL AIRPORT, CH","FM-15","99999","V020","320,1,V,0060,1","99999,9,9,Y","009900,5,9,9","+0020,1","-0230,1","99999,9",,,,,,,,,,,,,"10270,1,99999,9",,,"0130,1",,"MET064METAR ZBAA 100530Z 32006G13MPS 290V080 CAVOK 02/M23 Q1027 NOSIG="
"54511099999","2022-01-10T06:00:00","4","40.080111","116.584556","35.35","BEIJING CAPITAL INTERNATIONAL AIRPORT, CH","FM-12","99999","V020","350,1,N,0038,1","99999,9,9,9","030000,1,9,9","+0021,1","-0191,1","10276,1","06,9999,9,9","24,0000,9,1",,"9999,9,9,999999,9,9","0,1,06,1","0,1,06,1","99,9,+02140,1,99,9","9,AGL   ,+99999,+99999","99,99,9,99,9,99,9,02140,1,99,9,99,9","999,-0100,9","240,M,+0024,1","240,N,-0025,1","99999,9,10232,1","7,1,014,1,+025,1","00,1","0104,1","4,12,0104,1,352","SYN004BUFR"
"54511099999","2022-01-10T06:00:00","4","40.080111","116.584556","35.35","BEIJING CAPITAL INTERNATIONAL AIRPORT, CH","FM-15","99999","V020","320,1,N,0100,1","99999,9,9,Y","009900,5,9,9","+0020,1","-0220,1","99999,9",,,,,,,,,,,,,"10270,1,99999,9",,,,,"MET053METAR ZBAA 100600Z 32010MPS CAVOK 02/M22 Q1027 NOSIG="
"54511099999","2022-01-10T06:30:00","4","40.080111","116.584556","35.35","BEIJING CAPITAL INTERNATIONAL AIRPORT, CH","FM-15","99999","V020","310,1,N,0080,1","99999,9,9,Y","009900,5,9,9","+0020,1","-0210,1","99999,9",,,,,,,,,,,,,"10270,1,99999,9",,,,,"MET053METAR ZBAA 100630Z 31008MPS CAVOK 02/M21 Q1027 NOSIG="
"54511099999","2022-01-10T07:00:00","4","40.080111","116.584556","35.35","BEIJING CAPITAL INTERNATIONAL AIRPORT, CH","FM-15","99999","V020","320,1,N,0100,1","99999,9,9,Y","009900,5,9,9","+0020,1","-0250,1","99999,9",,,,,,,,,,,,,"10270,1,99999,9",,,,,"MET053METAR ZBAA 100700Z 32010MPS CAVOK 02/M25 Q1027 NOSIG="
"54511099999","2022-01-10T07:30:00","4","40.080111","116.584556","35.35","BEIJING CAPITAL INTERNATIONAL AIRPORT, CH","FM-15","99999","V020","320,1,N,0090,1","99999,9,9,Y","009900,5,9,9","+0020,1","-0260,1","99999,9",,,,,,,,,,,,,"10280,1,99999,9",,,,,"MET053METAR ZBAA 100730Z 32009MPS CAVOK 02/M26 Q1028 NOSIG="
"54511099999","2022-01-10T08:00:00","4","40.080111","116.584556","35.35","BEIJING CAPITAL INTERNATIONAL AIRPORT, CH","FM-15","99999","V020","350,1,V,0050,1","99999,9,9,Y","009900,5,9,9","+0010,1","-0260,1","99999,9",,,,,,,,,,,,,"10280,1,99999,9",,,,,"MET061METAR ZBAA 100800Z 35005MPS 320V020 CAVOK 01/M26 Q1028 NOSIG="
"54511099999","2022-01-10T08:30:00","4","40.080111","116.584556","35.35","BEIJING CAPITAL INTERNATIONAL AIRPORT, CH","FM-15","99999","V020","330,1,N,0070,1","99999,9,9,Y","009900,5,9,9","+0010,1","-0280,1","99999,9",,,,,,,,,,,,,"10280,1,99999,9",,,,,"MET053METAR ZBAA 100830Z 33007MPS CAVOK 01/M28 Q1028 NOSIG="
"54511099999","2022-01-10T09:00:00","4","40.080111","116.584556","35.35","BEIJING CAPITAL INTERNATIONAL AIRPORT, CH","FM-12","99999","V020","316,1,N,0028,1","99999,9,9,9","030000,1,9,9","+0007,1","-0209,1","10286,1","06,9999,9,9","12,9999,9,9","24,9999,9,9",,"0,1,03,1","0,1,03,1",,,,"999,-0100,9","240,M,+0024,1","240,N,-0025,1","99999,9,10242,1","2,1,010,1,+037,1","00,1","0106,1","4,12,0106,1,293","SYN004BUFR"
"54511099999","2022-01-10T09:00:00","4","40.080111","116.584556","35.35","BEIJING CAPITAL INTERNATIONAL AIRPORT, CH","FM-15","99999","V020","330,1,N,0070,1","99999,9,9,Y","009900,5,9,9","+0000,1","-0250,1","99999,9",,,,,,,,,,,,,"10280,1,99999,9",,,,,"MET070METAR ZBAA 100900Z 33007MPS CAVOK M00/M25 Q1028 BECMG TL1040 01002MPS="
"54511099999","2022-01-10T09:30:00","4","40.080111","116.584556","35.35","BEIJING CAPITAL INTERNATIONAL AIRPORT, CH","FM-15","99999","V020","310,1,N,0070,1","99999,9,9,Y","009900,5,9,9","-0010,1","-0260,1","99999,9",,,,,,,,,,,,,"10290,1,99999,9",,,,,"MET054METAR ZBAA 100930Z 31007MPS CAVOK M01/M26 Q1029 NOSIG="
"54511099999","2022-01-10T10:00:00","4","40.080111","116.584556","35.35","BEIJING CAPITAL INTERNATIONAL AIRPORT, CH","FM-15","99999","V020","310,1,N,0070,1","99999,9,9,Y","009900,5,9,9","-0010,1","-0270,1","99999,9",,,,,,,,,,,,,"10290,1,99999,9",,,,,"MET070METAR ZBAA 101000Z 31007MPS CAVOK M01/M27 Q1029 BECMG TL1140 01002MPS="
"54511099999","2022-01-10T10:30:00","4","40.080111","116.584556","35.35","BEIJING CAPITAL INTERNATIONAL AIRPORT, CH","FM-15","99999","V020","310,1,N,0050,1","99999,9,9,Y","009900,5,9,9","-0020,1","-0260,1","99999,9",,,,,,,,,,,,,"10300,1,99999,9",,,,,"MET054METAR ZBAA 101030Z 31005MPS CAVOK M02/M26 Q1030 NOSIG="
"54511099999","2022-01-10T11:00:00","4","40.080111","116.584556","35.35","BEIJING CAPITAL INTERNATIONAL AIRPORT, CH","FM-15","99999","V020","320,1,V,0040,1","99999,9,9,Y","009900,5,9,9","-0020,1","-0260,1","99999,9",,,,,,,,,,,,,"10300,1,99999,9",,,,,"MET062METAR ZBAA 101100Z 32004MPS 280V340 CAVOK M02/M26 Q1030 NOSIG="
"54511099999","2022-01-10T11:30:00","4","40.080111","116.584556","35.35","BEIJING CAPITAL INTERNATIONAL AIRPORT, CH","FM-15","99999","V020","310,1,N,0050,1","99999,9,9,Y","009900,5,9,9","-0020,1","-0260,1","99999,9",,,,,,,,,,,,,"10300,1,99999,9",,,,,"MET054METAR ZBAA 101130Z 31005MPS CAVOK M02/M26 Q1030 NOSIG="
"54511099999","2022-01-10T12:00:00","4","40.080111","116.584556","35.35","BEIJING CAPITAL INTERNATIONAL AIRPORT, CH","FM-12","99999","V020","018,1,N,0023,1","99999,9,9,9","030000,1,9,9","-0022,1","-0240,1","10306,1","06,9999,9,9","24,0000,9,1",,"9999,9,9,999999,9,9","0,1,06,1","0,1,06,1",,,,"999,-0106,9","240,M,+0024,1","240,N,-0025,1","99999,9,10262,1","2,1,020,1,+048,1","00,1","0106,1","4,12,0106,1,293","SYN004BUFR"
"54511099999","2022-01-10T12:00:00","4","40.080111","116.584556","35.35","BEIJING CAPITAL INTERNATIONAL AIRPORT, CH","FM-15","99999","V020","360,1,N,0060,1","99999,9,9,Y","009900,5,9,9","-0030,1","-0250,1","99999,9",,,,,,,,,,,,,"10300,1,99999,9",,,,,"MET054METAR ZBAA 101200Z 36006MPS CAVOK M03/M25 Q1030 NOSIG="
"54511099999","2022-01-10T12:30:00","4","40.080111","116.584556","35.35","BEIJING CAPITAL INTERNATIONAL AIRPORT, CH","FM-15","99999","V020","030,1,N,0030,1","99999,9,9,Y","009900,5,9,9","-0030,1","-0230,1","99999,9",,,,,,,,,,,,,"10300,1,99999,9",,,,,"MET054METAR ZBAA 101230Z 03003MPS CAVOK M03/M23 Q1030 NOSIG="
"54511099999","2022-01-10T13:00:00","4","40.080111","116.584556","35.35","BEIJING CAPITAL INTERNATIONAL AIRPORT, CH","FM-15","99999","V020","050,1,N,0040,1","99999,9,9,Y","009900,5,9,9","-0030,1","-0200,1","99999,9",,,,,,,,,,,,,"10300,1,99999,9",,,,,"MET054METAR ZBAA 101300Z 05004MPS CAVOK M03/M20 Q1030 NOSIG="
"54511099999","2022-01-10T13:30:00","4","40.080111","116.584556","35.35","BEIJING CAPITAL INTERNATIONAL AIRPORT, CH","FM-15","99999","V020","040,1,V,0030,1","99999,9,9,Y","009900,5,9,9","-0040,1","-0200,1","99999,9",,,,,,,,,,,,,"10300,1,99999,9",,,,,"MET062METAR ZBAA 101330Z 04003MPS 360V100 CAVOK M04/M20 Q1030 NOSIG="
"54511099999","2022-01-10T14:00:00","4","40.080111","116.584556","35.35","BEIJING CAPITAL INTERNATIONAL AIRPORT, CH","FM-15","99999","V020","030,1,N,0040,1","99999,9,9,Y","009900,5,9,9","-0040,1","-0200,1","99999,9",,,,,,,,,,,,,"10300,1,99999,9",,,,,"MET054METAR ZBAA 101400Z 03004MPS CAVOK M04/M20 Q1030 NOSIG="
"54511099999","2022-01-10T14:30:00","4","40.080111","116.584556","35.35","BEIJING CAPITAL INTERNATIONAL AIRPORT, CH","FM-15","99999","V020","020,1,N,0040,1","99999,9,9,Y","009900,5,9,9","-0050,1","-0200,1","99999,9",,,,,,,,,,,,,"10300,1,99999,9",,,,,"MET054METAR ZBAA 101430Z 02004MPS CAVOK M05/M20 Q1030 NOSIG="
"54511099999","2022-01-10T15:00:00","4","40.080111","116.584556","35.35","BEIJING CAPITAL INTERNATIONAL AIRPORT, CH","FM-12","99999","V020","040,1,N,0020,1","99999,9,9,9","030000,1,9,9","-0044,1","-0219,1","10306,1","06,9999,9,9","12,9999,9,9","24,9999,9,9",,,,,,,"999,-0108,9","240,M,+0024,1","240,N,-0044,1","99999,9,10262,1","4,1,000,1,+046,1","00,1","0106,1","4,12,0106,1,293","SYN004BUFR"
"54511099999","2022-01-10T15:00:00","4","40.080111","116.584556","35.35","BEIJING CAPITAL INTERNATIONAL AIRPORT, CH","FM-15","99999","V020","020,1,V,0020,1","99999,9,9,Y","009900,5,9,9","-0050,1","-0200,1","99999,9",,,,,,,,,,,,,"10300,1,99999,9",,,,,"MET062METAR ZBAA 101500Z 02002MPS 340V060 CAVOK M05/M20 Q1030 NOSIG="
"54511099999","2022-01-10T15:30:00","4","40.080111","116.584556","35.35","BEIJING CAPITAL INTERNATIONAL AIRPORT, CH","FM-15","99999","V020","020,1,V,0020,1","99999,9,9,Y","009900,5,9,9","-0060,1","-0200,1","99999,9",,,,,,,,,,,,,"10300,1,99999,9",,,,,"MET062METAR ZBAA 101530Z 02002MPS 350V070 CAVOK M06/M20 Q1030 NOSIG="
"54511099999","2022-01-10T16:00:00","4","40.080111","116.584556","35.35","BEIJING CAPITAL INTERNATIONAL AIRPORT, CH","FM-15","99999","V020","040,1,N,0030,1","99999,9,9,Y","009900,5,9,9","-0060,1","-0200,1","99999,9",,,,,,,,,,,,,"10300,1,99999,9",,,,,"MET054METAR ZBAA 101600Z 04003MPS CAVOK M06/M20 Q1030 NOSIG="
"54511099999","2022-01-10T16:30:00","4","40.080111","116.584556","35.35","BEIJING CAPITAL INTERNATIONAL AIRPORT, CH","FM-15","99999","V020","040,1,N,0020,1","99999,9,9,Y","009900,5,9,9","-0060,1","-0200,1","99999,9",,,,,,,,,,,,,"10300,1,99999,9",,,,,"MET054METAR ZBAA 101630Z 04002MPS CAVOK M06/M20 Q1030 NOSIG="
"54511099999","2022-01-10T17:00:00","4","40.080111","116.584556","35.35","BEIJING CAPITAL INTERNATIONAL AIRPORT, CH","FM-15","99999","V020","040,1,V,0020,1","99999,9,9,Y","009900,5,9,9","-0060,1","-0200,1","99999,9",,,,,,,,,,,,,"10290,1,99999,9",,,,,"MET062METAR ZBAA 101700Z 04002MPS 360V070 CAVOK M06/M20 Q1029 NOSIG="
"54511099999","2022-01-10T17:30:00","4","40.080111","116.584556","35.35","BEIJING CAPITAL INTERNATIONAL AIRPORT, CH","FM-15","99999","V020","050,1,V,0020,1","99999,9,9,Y","009900,5,9,9","-0070,1","-0200,1","99999,9",,,,,,,,,,,,,"10290,1,99999,9",,,,,"MET062METAR ZBAA 101730Z 05002MPS 020V090 CAVOK M07/M20 Q1029 NOSIG="
"54511099999","2022-01-10T18:00:00","4","40.080111","116.584556","35.35","BEIJING CAPITAL INTERNATIONAL AIRPORT, CH","FM-12","99999","V020","021,1,N,0019,1","99999,9,9,9","030000,1,9,9","-0060,1","-0204,1","10299,1","06,9999,9,9","12,9999,9,9","24,9999,9,9",,"0,1,99,9","0,1,99,9","99,9,+02050,1,99,9","9,AGL   ,+99999,+99999","99,99,9,99,9,99,9,02050,1,99,9,99,9","999,-0120,9","240,M,+0024,1","240,N,-0060,1","99999,9,10255,1","7,1,007,1,+040,1","00,1","0106,1","4,12,0106,1,293","SYN004BUFR"
"54511099999","2022-01-10T18:00:00","4","40.080111","116.584556","35.35","BEIJING CAPITAL INTERNATIONAL AIRPORT, CH","FM-15","99999","V020","040,1,N,0020,1","99999,9,9,Y","009900,5,9,9","-0070,1","-0200,1","99999,9",,,,,,,,,,,,,"10300,1,99999,9",,,,,"MET054METAR ZBAA 101800Z 04002MPS CAVOK M07/M20 Q1030 NOSIG="
"54511099999","2022-01-10T18:30:00","4","40.080111","116.584556","35.35","BEIJING CAPITAL INTERNATIONAL AIRPORT, CH","FM-15","99999","V020","040,1,V,0020,1","99999,9,9,Y","009900,5,9,9","-0070,1","-0200,1","99999,9",,,,,,,,,,,,,"10300,1,99999,9",,,,,"MET062METAR ZBAA 101830Z 04002MPS 360V070 CAVOK M07/M20 Q1030 NOSIG="
"54511099999","2022-01-10T19:00:00","4","40.080111","116.584556","35.35","BEIJING CAPITAL INTERNATIONAL AIRPORT, CH","FM-15","99999","V020","999,9,V,0010,1","99999,9,9,Y","009900,5,9,9","-0080,1","-0200,1","99999,9",,,,,,,,,,,,,"10300,1,99999,9",,,,,"MET054METAR ZBAA 101900Z VRB01MPS CAVOK M08/M20 Q1030 NOSIG="
"54511099999","2022-01-10T19:30:00","4","40.080111","116.584556","35.35","BEIJING CAPITAL INTERNATIONAL AIRPORT, CH","FM-15","99999","V020","020,1,N,0030,1","99999,9,9,Y","009900,5,9,9","-0070,1","-0190,1","99999,9",,,,,,,,,,,,,"10290,1,99999,9",,,,,"MET054METAR ZBAA 101930Z 02003MPS CAVOK M07/M19 Q1029 NOSIG="
"54511099999","2022-01-10T20:00:00","4","40.080111","116.584556","35.35","BEIJING CAPITAL INTERNATIONAL AIRPORT, CH","FM-15","99999","V020","030,1,V,0020,1","99999,9,9,Y","009900,5,9,9","-0070,1","-0190,1","99999,9",,,,,,,,,,,,,"10290,1,99999,9",,,,,"MET062METAR ZBAA 102000Z 03002MPS 350V060 CAVOK M07/M19 Q1029 NOSIG="
"54511099999","2022-01-10T20:30:00","4","40.080111","116.584556","35.35","BEIJING CAPITAL INTERNATIONAL AIRPORT, CH","FM-15","99999","V020","999,9,V,0010,1","99999,9,9,Y","009900,5,9,9","-0080,1","-0190,1","99999,9",,,,,,,,,,,,,"10290,1,99999,9",,,,,"MET054METAR ZBAA 102030Z VRB01MPS CAVOK M08/M19 Q1029 NOSIG="
"54511099999","2022-01-10T21:00:00","4","40.080111","116.584556","35.35","BEIJING CAPITAL INTERNATIONAL AIRPORT, CH","FM-12","99999","V020","062,1,N,0016,1","99999,9,9,9","025400,1,9,9","-0077,1","-0200,1","10295,1","06,9999,9,9","12,9999,9,9","24,9999,9,9",,,,"99,9,+01870,1,99,9","9,AGL   ,+99999,+99999","99,99,9,99,9,99,9,01870,1,99,9,99,9","999,-0148,9","240,M,+0024,1","240,N,-0083,1","99999,9,10251,1","7,1,004,1,+037,1","00,1","0082,1","4,12,0082,1,326","SYN004BUFR"
"54511099999","2022-01-10T21:00:00","4","40.080111","116.584556","35.35","BEIJING CAPITAL INTERNATIONAL AIRPORT, CH","FM-15","99999","V020","999,9,V,0010,1","99999,9,9,Y","009900,5,9,9","-0080,1","-0190,1","99999,9",,,,,,,,,,,,,"10290,1,99999,9",,,,,"MET054METAR ZBAA 102100Z VRB01MPS CAVOK M08/M19 Q1029 NOSIG="
"54511099999","2022-01-10T21:30:00","4","40.080111","116.584556","35.35","BEIJING CAPITAL INTERNATIONAL AIRPORT, CH","FM-15","99999","V020","360,1,N,0020,1","99999,9,9,Y","009900,5,9,9","-0090,1","-0190,1","99999,9",,,,,,,,,,,,,"10290,1,99999,9",,,,,"MET054METAR ZBAA 102130Z 36002MPS CAVOK M09/M19 Q1029 NOSIG="
"54511099999","2022-01-10T22:00:00","4","40.080111","116.584556","35.35","BEIJING CAPITAL INTERNATIONAL AIRPORT, CH","FM-15","99999","V020","999,9,V,0010,1","99999,9,9,Y","009900,5,9,9","-0090,1","-0190,1","99999,9",,,,,,,,,,,,,"10290,1,99999,9",,,,,"MET054METAR ZBAA 102200Z VRB01MPS CAVOK M09/M19 Q1029 NOSIG="
"54511099999","2022-01-10T22:30:00","4","40.080111","116.584556","35.35","BEIJING CAPITAL INTERNATIONAL AIRPORT, CH","FM-15","99999","V020","020,1,V,0020,1","99999,9,9,Y","009900,5,9,9","-0080,1","-0190,1","99999,9",,,,,,,,,,,,,"10290,1,99999,9",,,,,"MET062METAR ZBAA 102230Z 02002MPS 350V050 CAVOK M08/M19 Q1029 NOSIG="
"54511099999","2022-01-10T23:00:00","4","40.080111","116.584556","35.35","BEIJING CAPITAL INTERNATIONAL AIRPORT, CH","FM-15","99999","V020","360,1,N,0020,1","99999,9,9,Y","009900,5,9,9","-0090,1","-0190,1","99999,9",,,,,,,,,,,,,"10300,1,99999,9",,,,,"MET054METAR ZBAA 102300Z 36002MPS CAVOK M09/M19 Q1030 NOSIG="
"54511099999","2022-01-10T23:30:00","4","40.080111","116.584556","35.35","BEIJING CAPITAL INTERNATIONAL AIRPORT, CH","FM-15","99999","V020","350,1,N,0020,1","99999,9,9,Y","009900,5,9,9","-0080,1","-0180,1","99999,9",,,,,,,,,,,,,"10300,1,99999,9",,,,,"MET054METAR ZBAA 102330Z 35002MPS CAVOK M08/M18 Q1030 NOSIG="
"54511099999","2022-01-11T00:00:00","4","40.080111","116.584556","35.35","BEIJING CAPITAL INTERNATIONAL AIRPORT, CH","FM-12","99999","V020","038,1,N,0021,1","99999,9,9,9","030000,1,9,9","-0059,1","-0199,1","10300,1","06,9999,9,9","24,0000,9,1",,"9999,9,9,999999,9,9","0,1,12,1","0,1,12,1",,,,"999,-0148,9","240,M,+0024,1","240,N,-0083,1","99999,9,10256,1","2,1,005,1,+027,1","00,1","0062,1","4,12,0062,1,014","SYN004BUFR"
"54511099999","2022-01-11T00:00:00","4","40.080111","116.584556","35.35","BEIJING CAPITAL INTERNATIONAL AIRPORT, CH","FM-15","99999","V020","330,1,N,0030,1","99999,9,9,Y","009900,5,9,9","-0080,1","-0180,1","99999,9",,,,,,,,,,,,,"10290,1,99999,9",,,,,"MET054METAR ZBAA 110000Z 33003MPS CAVOK M08/M18 Q1029 NOSIG="
"54511099999","2022-01-11T00:30:00","4","40.080111","116.584556","35.35","BEIJING CAPITAL INTERNATIONAL AIRPORT, CH","FM-15","99999","V020","330,1,N,0030,1","99999,9,9,Y","009900,5,9,9","-0070,1","-0180,1","99999,9",,,,,,,,,,,,,"10300,1,99999,9",,,,,"MET054METAR ZBAA 110030Z 33003MPS CAVOK M07/M18 Q1030 NOSIG="
"54511099999","2022-01-11T01:00:00","4","40.080111","116.584556","35.35","BEIJING CAPITAL INTERNATIONAL AIRPORT, CH","FM-15","99999","V020","340,1,N,0030,1","99999,9,9,Y","009900,5,9,9","-0060,1","-0180,1","99999,9",,,,,,,,,,,,,"10300,1,99999,9",,,,,"MET054METAR ZBAA 110100Z 34003MPS CAVOK M06/M18 Q1030 NOSIG="
"54511099999","2022-01-11T01:30:00","4","40.080111","116.584556","35.35","BEIJING CAPITAL INTERNATIONAL AIRPORT, CH","FM-15","99999","V020","330,1,N,0030,1","99999,9,9,Y","009900,5,9,9","-0050,1","-0180,1","99999,9",,,,,,,,,,,,,"10300,1,99999,9",,,,,"MET054METAR ZBAA 110130Z 33003MPS CAVOK M05/M18 Q1030 NOSIG="
"54511099999","2022-01-11T02:00:00","4","40.080111","116.584556","35.35","BEIJING CAPITAL INTERNATIONAL AIRPORT, CH","FM-15","99999","V020","330,1,N,0030,1","99999,9,9,Y","009900,5,9,9","-0040,1","-0180,1","99999,9",,,,,,,,,,,,,"10300,1,99999,9",,,,,"MET054METAR ZBAA 110200Z 33003MPS CAVOK M04/M18 Q1030 NOSIG="
"54511099999","2022-01-11T02:30:00","4","40.080111","116.584556","35.35","BEIJING CAPITAL INTERNATIONAL AIRPORT, CH","FM-15","99999","V020","340,1,V,0020,1","99999,9,9,Y","009900,5,9,9","-0030,1","-0180,1","99999,9",,,,,,,,,,,,,"10300,1,99999,9",,,,,"MET062METAR ZBAA 110230Z 34002MPS 290V010 CAVOK M03/M18 Q1030 NOSIG="
"54511099999","2022-01-11T03:00:00","4","40.080111","116.584556","35.35","BEIJING CAPITAL INTERNATIONAL AIRPORT, CH","FM-12","99999","V020","058,1,N,0018,1","99999,9,9,9","030000,1,9,9","-0025,1","-0203,1","10299,1","06,9999,9,9","12,9999,9,9","24,9999,9,9",,"0,1,03,1","0,1,03,1",,,,"999,-0148,9","240,M,+0024,1","240,N,-0083,1","99999,9,10255,1","7,1,001,1,+009,1","00,1","0062,1","4,12,0062,1,014","SYN004BUFR"
"54511099999","2022-01-11T03:00:00","4","40.080111","116.584556","35.35","BEIJING CAPITAL INTERNATIONAL AIRPORT, CH","FM-15","99999","V020","340,1,V,0020,1","99999,9,9,Y","009900,5,9,9","-0030,1","-0190,1","99999,9",,,,,,,,,,,,,"10300,1,99999,9",,,,,"MET062METAR ZBAA 110300Z 34002MPS 260V030 CAVOK M03/M19 Q1030 NOSIG="
"54511099999","2022-01-11T03:30:00","4","40.080111","116.584556","35.35","BEIJING CAPITAL INTERNATIONAL AIRPORT, CH","FM-15","99999","V020","300,1,V,0020,1","99999,9,9,Y","009900,5,9,9","-0030,1","-0190,1","99999,9",,,,,,,,,,,,,"10290,1,99999,9",,,,,"MET062METAR ZBAA 110330Z 30002MPS 260V360 CAVOK M03/M19 Q1029 NOSIG="
"54511099999","2022-01-11T04:00:00","4","40.080111","116.584556","35.35","BEIJING CAPITAL INTERNATIONAL AIRPORT, CH","FM-15","99999","V020","999,9,V,0010,1","99999,9,9,Y","009900,5,9,9","-0030,1","-0190,1","99999,9",,,,,,,,,,,,,"10280,1,99999,9",,,,,"MET054METAR ZBAA 110400Z VRB01MPS CAVOK M03/M19 Q1028 NOSIG="
"54511099999","2022-01-11T04:30:00","4","40.080111","116.584556","35.35","BEIJING CAPITAL INTERNATIONAL AIRPORT, CH","FM-15","99999","V020","999,9,V,0010,1","99999,9,9,Y","009900,5,9,9","-0020,1","-0190,1","99999,9",,,,,,,,,,,,,"10280,1,99999,9",,,,,"MET054METAR ZBAA 110430Z VRB01MPS CAVOK M02/M19 Q1028 NOSIG="
"54511099999","2022-01-11T05:00:00","4","40.080111","116.584556","35.35","BEIJING CAPITAL INTERNATIONAL AIRPORT, CH","FM-15","99999","V020","290,1,V,0020,1","99999,9,9,Y","009900,5,9,9","-0010,1","-0190,1","99999,9",,,,,,,,,,,,,"10270,1,99999,9",,,,,"MET062METAR ZBAA 110500Z 29002MPS 240V030 CAVOK M01/M19 Q1027 NOSIG="
"54511099999","2022-01-11T05:30:00","4","40.080111","116.584556","35.35","BEIJING CAPITAL INTERNATIONAL AIRPORT, CH","FM-15","99999","V020","260,1,V,0020,1","99999,9,9,Y","009900,5,9,9","-0010,1","-0190,1","99999,9",,,,,,,,,,,,,"10270,1,99999,9",,,,,"MET062METAR ZBAA 110530Z 26002MPS 160V330 CAVOK M01/M19 Q1027 NOSIG="
"54511099999","2022-01-11T06:00:00","4","40.080111","116.584556","35.35","BEIJING CAPITAL INTERNATIONAL AIRPORT, CH","FM-12","99999","V020","187,1,N,0023,1","99999,9,9,9","030000,1,9,9","+0000,1","-0209,1","10264,1","06,9999,9,9","24,0000,9,1",,"9999,9,9,999999,9,9","0,1,06,1","0,1,06,1",,,,"999,-0148,9","240,M,+0024,1","240,N,-0083,1","99999,9,10220,1","7,1,035,1,-012,1","00,1",,"4,12,0046,1,205","SYN004BUFR"
"54511099999","2022-01-11T06:00:00","4","40.080111","116.584556","35.35","BEIJING CAPITAL INTERNATIONAL AIRPORT, CH","FM-15","99999","V020","200,1,V,0020,1","99999,9,9,Y","009900,5,9,9","+0000,1","-0180,1","99999,9",,,,,,,,,,,,,"10260,1,99999,9",,,,,"MET062METAR ZBAA 110600Z 20002MPS 150V270 CAVOK M00/M18 Q1026 NOSIG="
"54511099999","2022-01-11T06:30:00","4","40.080111","116.584556","35.35","BEIJING CAPITAL INTERNATIONAL AIRPORT, CH","FM-15","99999","V020","999,9,V,0020,1","99999,9,9,Y","009900,5,9,9","+0000,1","-0200,1","99999,9",,,,,,,,,,,,,"10260,1,99999,9",,,,,"MET053METAR ZBAA 110630Z VRB02MPS CAVOK 00/M20 Q1026 NOSIG="
"54511099999","2022-01-11T07:00:00","4","40.080111","116.584556","35.35","BEIJING CAPITAL INTERNATIONAL AIRPORT, CH","FM-15","99999","V020","999,9,V,0010,1","99999,9,9,Y","009900,5,9,9","+0000,1","-0190,1","99999,9",,,,,,,,,,,,,"10260,1,99999,9",,,,,"MET054METAR ZBAA 110700Z VRB01MPS CAVOK M00/M19 Q1026 NOSIG="
"54511099999","2022-01-11T07:30:00","4","40.080111","116.584556","35.35","BEIJING CAPITAL INTERNATIONAL AIRPORT, CH","FM-15","99999","V020","999,9,V,0010,1","99999,9,9,Y","009900,5,9,9","+0000,1","-0180,1","99999,9",,,,,,,,,,,,,"10260,1,99999,9",,,,,"MET054METAR ZBAA 110730Z VRB01MPS CAVOK M00/M18 Q1026 NOSIG="
"54511099999","2022-01-11T08:00:00","4","40.080111","116.584556","35.35","BEIJING CAPITAL INTERNATIONAL AIRPORT, CH","FM-15","99999","V020","110,1,V,0020,1","99999,9,9,Y","009900,5,9,9","-0010,1","-0180,1","99999,9",,,,,,,,,,,,,"10260,1,99999,9",,,,,"MET062METAR ZBAA 110800Z 11002MPS 060V150 CAVOK M01/M18 Q1026 NOSIG="
"54511099999","2022-01-11T08:30:00","4","40.080111","116.584556","35.35","BEIJING CAPITAL INTERNATIONAL AIRPORT, CH","FM-15","99999","V020","080,1,V,0020,1","99999,9,9,Y","009900,5,9,9","-0010,1","-0180,1","99999,9",,,,,,,,,,,,,"10260,1,99999,9",,,,,"MET062METAR ZBAA 110830Z 08002MPS 040V140 CAVOK M01/M18 Q1026 NOSIG="
"54511099999","2022-01-11T09:00:00","4","40.080111","116.584556","35.35","BEIJING CAPITAL INTERNATIONAL AIRPORT, CH","FM-12","99999","V020","167,1,N,0015,1","99999,9,9,9","026700,1,9,9","-0005,1","-0187,1","10263,1","06,9999,9,9","12,9999,9,9","24,9999,9,9",,"0,1,03,1","0,1,03,1",,,,"999,-0140,9","240,M,+0007,1","240,N,-0083,1","99999,9,10219,1","7,1,001,1,-023,1","00,1",,"4,12,0046,1,205","SYN004BUFR"
"54511099999","2022-01-11T09:00:00","4","40.080111","116.584556","35.35","BEIJING CAPITAL INTERNATIONAL AIRPORT, CH","FM-15","99999","V020","999,9,V,0010,1","99999,9,9,Y","009900,5,9,9","-0020,1","-0180,1","99999,9",,,,,,,,,,,,,"10260,1,99999,9",,,,,"MET054METAR ZBAA 110900Z VRB01MPS CAVOK M02/M18 Q1026 NOSIG="
"54511099999","2022-01-11T09:30:00","4","40.080111","116.584556","35.35","BEIJING CAPITAL INTERNATIONAL AIRPORT, CH","FM-15","99999","V020","060,1,N,0020,1","99999,9,9,Y","009900,5,9,9","-0020,1","-0180,1","99999,9",,,,,,,,,,,,,"10260,1,99999,9",,,,,"MET054METAR ZBAA 110930Z 06002MPS CAVOK M02/M18 Q1026 NOSIG="
"54511099999","2022-01-11T10:00:00","4","40.080111","116.584556","35.35","BEIJING CAPITAL INTERNATIONAL AIRPORT, CH","FM-15","99999","V020","060,1,N,0010,1","99999,9,9,Y","009900,5,9,9","-0040,1","-0180,1","99999,9",,,,,,,,,,,,,"10260,1,99999,9",,,,,"MET054METAR ZBAA 111000Z 06001MPS CAVOK M04/M18 Q1026 NOSIG="
"54511099999","2022-01-11T10:30:00","4","40.080111","116.584556","35.35","BEIJING CAPITAL INTERNATIONAL AIRPORT, CH","FM-15","99999","V020","060,1,N,0020,1","99999,9,9,Y","009900,5,9,9","-0050,1","-0170,1","99999,9",,,,,,,,,,,,,"10260,1,99999,9",,,,,"MET054METAR ZBAA 111030Z 06002MPS CAVOK M05/M17 Q1026 NOSIG="
"54511099999","2022-01-11T11:00:00","4","40.080111","116.584556","35.35","BEIJING CAPITAL INTERNATIONAL AIRPORT, CH","FM-15","99999","V020","080,1,N,0020,1","99999,9,9,Y","009900,5,9,9","-0050,1","-0170,1","99999,9",,,,,,,,,,,,,"10270,1,99999,9",,,,,"MET054METAR ZBAA 111100Z 08002MPS CAVOK M05/M17 Q1027 NOSIG="
"54511099999","2022-01-11T11:30:00","4","40.080111","116.584556","35.35","BEIJING CAPITAL INTERNATIONAL AIRPORT, CH","FM-15","99999","V020","070,1,N,0020,1","99999,9,9,Y","009900,5,9,9","-0040,1","-0180,1","99999,9",,,,,,,,,,,,,"10270,1,99999,9",,,,,"MET054METAR ZBAA 111130Z 07002MPS CAVOK M04/M18 Q1027 NOSIG="
"54511099999","2022-01-11T12:00:00","4","40.080111","116.584556","35.35","BEIJING CAPITAL INTERNATIONAL AIRPORT, CH","FM-12","99999","V020","352,1,N,0006,1","99999,9,9,9","010900,1,9,9","-0047,1","-0165,1","10273,1","06,9999,9,9","24,0000,9,1",,"9999,9,9,999999,9,9","0,1,06,1","0,1,06,1",,,,"999,-0114,9","240,M,+0007,1","240,N,-0083,1","99999,9,10229,1","2,1,010,1,-033,1","00,1",,"4,12,0046,1,205","SYN004BUFR"
"54511099999","2022-01-11T12:00:00","4","40.080111","116.584556","35.35","BEIJING CAPITAL INTERNATIONAL AIRPORT, CH","FM-15","99999","V020","060,1,N,0010,1","99999,9,9,Y","009900,5,9,9","-0040,1","-0180,1","99999,9",,,,,,,,,,,,,"10270,1,99999,9",,,,,"MET054METAR ZBAA 111200Z 06001MPS CAVOK M04/M18 Q1027 NOSIG="
"54511099999","2022-01-11T12:30:00","4","40.080111","116.584556","35.35","BEIJING CAPITAL INTERNATIONAL AIRPORT, CH","FM-15","99999","V020","070,1,N,0010,1","99999,9,9,Y","009900,5,9,9","-0060,1","-0180,1","99999,9",,,,,,,,,,,,,"10270,1,99999,9",,,,,"MET054METAR ZBAA 111230Z 07001MPS CAVOK M06/M18 Q1027 NOSIG="
"54511099999","2022-01-11T13:00:00","4","40.080111","116.584556","35.35","BEIJING CAPITAL INTERNATIONAL AIRPORT, CH","FM-15","99999","V020","999,9,V,0010,1","99999,9,9,Y","009900,5,9,9","-0060,1","-0170,1","99999,9",,,,,,,,,,,,,"10270,1,99999,9",,,,,"MET054METAR ZBAA 111300Z VRB01MPS CAVOK M06/M17 Q1027 NOSIG="
"54511099999","2022-01-11T13:30:00","4","40.080111","116.584556","35.35","BEIJING CAPITAL INTERNATIONAL AIRPORT, CH","FM-15","99999","V020","030,1,N,0010,1","99999,9,9,Y","009900,5,9,9","-0070,1","-0170,1","99999,9",,,,,,,,,,,,,"10270,1,99999,9",,,,,"MET054METAR ZBAA 111330Z 03001MPS CAVOK M07/M17 Q1027 NOSIG="
"54511099999","2022-01-11T14:00:00","4","40.080111","116.584556","35.35","BEIJING CAPITAL INTERNATIONAL AIRPORT, CH","FM-15","99999","V020","040,1,N,0020,1","99999,9,9,Y","009900,5,9,9","-0070,1","-0170,1","99999,9",,,,,,,,,,,,,"10270,1,99999,9",,,,,"MET054METAR ZBAA 111400Z 04002MPS CAVOK M07/M17 Q1027 NOSIG="
"54511099999","2022-01-11T14:30:00","4","40.080111","116.584556","35.35","BEIJING CAPITAL INTERNATIONAL AIRPORT, CH","FM-15","99999","V020","050,1,N,0020,1","99999,9,9,Y","009900,5,9,9","-0090,1","-0170,1","99999,9",,,,,,,,,,,,,"10270,1,99999,9",,,,,"MET054METAR ZBAA 111430Z 05002MPS CAVOK M09/M17 Q1027 NOSIG="
"54511099999","2022-01-11T15:00:00","4","40.080111","116.584556","35.35","BEIJING CAPITAL INTERNATIONAL AIRPORT, CH","FM-12","99999","V020","052,1,N,0013,1","99999,9,9,9","022300,1,9,9","-0040,1","-0150,1","10273,1","06,9999,9,9","12,9999,9,9","24,9999,9,9",,,,"99,9,+06400,1,99,9","9,AGL   ,+99999,+99999","99,99,9,99,9,99,9,06400,1,99,9,99,9","999,-0118,9","240,M,+0007,1","240,N,-0083,1","99999,9,10229,1","4,1,000,1,-033,1","00,1",,"4,12,0046,1,205","SYN004BUFR"
"54511099999","2022-01-11T15:00:00","4","40.080111","116.584556","35.35","BEIJING CAPITAL INTERNATIONAL AIRPORT, CH","FM-15","99999","V020","060,1,N,0010,1","99999,9,9,Y","009900,5,9,9","-0090,1","-0160,1","99999,9",,,,,,,,,,,,,"10270,1,99999,9",,,,,"MET054METAR ZBAA 111500Z 06001MPS CAVOK M09/M16 Q1027 NOSIG="
"54511099999","2022-01-11T15:30:00","4","40.080111","116.584556","35.35","BEIJING CAPITAL INTERNATIONAL AIRPORT, CH","FM-15","99999","V020","060,1,N,0010,1","99999,9,9,Y","009900,5,9,9","-0090,1","-0170,1","99999,9",,,,,,,,,,,,,"10270,1,99999,9",,,,,"MET054METAR ZBAA 111530Z 06001MPS CAVOK M09/M17 Q1027 NOSIG="
"54511099999","2022-01-11T16:00:00","4","40.080111","116.584556","35.35","BEIJING CAPITAL INTERNATIONAL AIRPORT, CH","FM-15","99999","V020","999,9,V,0010,1","99999,9,9,Y","009900,5,9,9","-0090,1","-0160,1","99999,9",,,,,,,,,,,,,"10270,1,99999,9",,,,,"MET054METAR ZBAA 111600Z VRB01MPS CAVOK M09/M16 Q1027 NOSIG="
"54511099999","2022-01-11T16:30:00","4","40.080111","116.584556","35.35","BEIJING CAPITAL INTERNATIONAL AIRPORT, CH","FM-15","99999","V020","050,1,N,0010,1","99999,9,9,Y","009900,5,9,9","-0090,1","-0160,1","99999,9",,,,,,,,,,,,,"10270,1,99999,9",,,,,"MET054METAR ZBAA 111630Z 05001MPS CAVOK M09/M16 Q1027 NOSIG="
"54511099999","2022-01-11T17:00:00","4","40.080111","116.584556","35.35","BEIJING CAPITAL INTERNATIONAL AIRPORT, CH","FM-15","99999","V020","060,1,N,0010,1","99999,9,9,Y","009900,5,9,9","-0100,1","-0160,1","99999,9",,,,,,,,,,,,,"10260,1,99999,9",,,,,"MET054METAR ZBAA 111700Z 06001MPS CAVOK M10/M16 Q1026 NOSIG="
"54511099999","2022-01-11T17:30:00","4","40.080111","116.584556","35.35","BEIJING CAPITAL INTERNATIONAL AIRPORT, CH","FM-15","99999","V020","060,1,N,0010,1","99999,9,9,Y","009900,5,9,9","-0090,1","-0150,1","99999,9",,,,,,,,,,,,,"10260,1,99999,9",,,,,"MET054METAR ZBAA 111730Z 06001MPS CAVOK M09/M15 Q1026 NOSIG="
"54511099999","2022-01-11T18:00:00","4","40.080111","116.584556","35.35","BEIJING CAPITAL INTERNATIONAL AIRPORT, CH","FM-12","99999","V020","056,1,N,0013,1","99999,9,9,9","016300,1,9,9","-0055,1","-0137,1","10263,1","06,9999,9,9","12,9999,9,9","24,9999,9,9",,"0,1,99,9","0,1,99,9","99,9,+03060,1,99,9","9,AGL   ,+99999,+99999","99,99,9,99,9,99,9,03060,1,99,9,99,9","999,-0128,9","240,M,+0007,1","240,N,-0083,1","99999,9,10219,1","7,1,010,1,-036,1","00,1",,"4,12,0045,1,200","SYN004BUFR"
"54511099999","2022-01-11T18:00:00","4","40.080111","116.584556","35.35","BEIJING CAPITAL INTERNATIONAL AIRPORT, CH","FM-15","99999","V020","070,1,N,0010,1","99999,9,9,Y","009900,5,9,9","-0080,1","-0160,1","99999,9",,,,,,,,,,,,,"10260,1,99999,9",,,,,"MET054METAR ZBAA 111800Z 07001MPS CAVOK M08/M16 Q1026 NOSIG="
"54511099999","2022-01-11T18:30:00","4","40.080111","116.584556","35.35","BEIJING CAPITAL INTERNATIONAL AIRPORT, CH","FM-15","99999","V020","999,9,V,0010,1","99999,9,9,Y","009900,5,9,9","-0090,1","-0140,1","99999,9",,,,,,,,,,,,,"10260,1,99999,9",,,,,"MET054METAR ZBAA 111830Z VRB01MPS CAVOK M09/M14 Q1026 NOSIG="
"54511099999","2022-01-11T19:00:00","4","40.080111","116.584556","35.35","BEIJING CAPITAL INTERNATIONAL AIRPORT, CH","FM-15","99999","V020","010,1,N,0010,1","99999,9,9,Y","009900,5,9,9","-0090,1","-0150,1","99999,9",,,,,,,,,,,,,"10260,1,99999,9",,,,,"MET054METAR ZBAA 111900Z 01001MPS CAVOK M09/M15 Q1026 NOSIG="
"54511099999","2022-01-11T19:30:00","4","40.080111","116.584556","35.35","BEIJING CAPITAL INTERNATIONAL AIRPORT, CH","FM-15","99999","V020","999,9,C,0000,1","99999,9,9,Y","009900,5,9,9","-0090,1","-0150,1","99999,9",,,,,,,,,,,,,"10260,1,99999,9",,,,,"MET054METAR ZBAA 111930Z 00000MPS CAVOK M09/M15 Q1026 NOSIG="
"54511099999","2022-01-11T20:00:00","4","40.080111","116.584556","35.35","BEIJING CAPITAL INTERNATIONAL AIRPORT, CH","FM-15","99999","V020","999,9,V,0010,1","99999,9,9,Y","009900,5,9,9","-0080,1","-0130,1","99999,9",,,,,,,,,,,,,"10250,1,99999,9",,,,,"MET054METAR ZBAA 112000Z VRB01MPS CAVOK M08/M13 Q1025 NOSIG="
"54511099999","2022-01-11T20:30:00","4","40.080111","116.584556","35.35","BEIJING CAPITAL INTERNATIONAL AIRPORT, CH","FM-15","99999","V020","340,1,N,0020,1","99999,9,9,Y","009900,5,9,9","-0080,1","-0130,1","99999,9",,,,,,,,,,,,,"10250,1,99999,9",,,,,"MET054METAR ZBAA 112030Z 34002MPS CAVOK M08/M13 Q1025 NOSIG="
"54511099999","2022-01-11T21:00:00","4","40.080111","116.584556","35.35","BEIJING CAPITAL INTERNATIONAL AIRPORT, CH","FM-12","99999","V020","047,1,N,0013,1","99999,9,9,9","017500,1,9,9","-0059,1","-0146,1","10251,1","06,9999,9,9","12,9999,9,9","24,9999,9,9",,,,"99,9,+01150,1,99,9","9,AGL   ,+99999,+99999","99,99,9,99,9,99,9,01150,1,99,9,99,9","999,-0128,9","240,M,+0007,1","240,N,-0078,1","99999,9,10207,1","7,1,012,1,-044,1","00,1",,"4,12,0029,1,037","SYN004BUFR"
"54511099999","2022-01-11T21:00:00","4","40.080111","116.584556","35.35","BEIJING CAPITAL INTERNATIONAL AIRPORT, CH","FM-15","99999","V020","340,1,N,0020,1","99999,9,9,Y","009900,5,9,9","-0080,1","-0140,1","99999,9",,,,,,,,,,,,,"10250,1,99999,9",,,,,"MET054METAR ZBAA 112100Z 34002MPS CAVOK M08/M14 Q1025 NOSIG="
"54511099999","2022-01-11T21:30:00","4","40.080111","116.584556","35.35","BEIJING CAPITAL INTERNATIONAL AIRPORT, CH","FM-15","99999","V020","350,1,N,0020,1","99999,9,9,Y","009900,5,9,9","-0090,1","-0140,1","99999,9",,,,,,,,,,,,,"10240,1,99999,9",,,,,"MET054METAR ZBAA 112130Z 35002MPS CAVOK M09/M14 Q1024 NOSIG="
"54511099999","2022-01-11T22:00:00","4","40.080111","116.584556","35.35","BEIJING CAPITAL INTERNATIONAL AIRPORT, CH","FM-15","99999","V020","350,1,N,0030,1","99999,9,9,Y","009900,5,9,9","-0080,1","-0140,1","99999,9",,,,,,,,,,,,,"10240,1,99999,9",,,,,"MET054METAR ZBAA 112200Z 35003MPS CAVOK M08/M14 Q1024 NOSIG="
"54511099999","2022-01-11T22:30:00","4","40.080111","116.584556","35.35","BEIJING CAPITAL INTERNATIONAL AIRPORT, CH","FM-15","99999","V020","340,1,N,0040,1","99999,9,9,Y","009900,5,9,9","-0070,1","-0130,1","99999,9",,,,,,,,,,,,,"10250,1,99999,9",,,,,"MET054METAR ZBAA 112230Z 34004MPS CAVOK M07/M13 Q1025 NOSIG="
"54511099999","2022-01-11T23:00:00","4","40.080111","116.584556","35.35","BEIJING CAPITAL INTERNATIONAL AIRPORT, CH","FM-15","99999","V020","350,1,N,0040,1","99999,9,9,Y","009900,5,9,9","-0070,1","-0130,1","99999,9",,,,,,,,,,,,,"10250,1,99999,9",,,,,"MET054METAR ZBAA 112300Z 35004MPS CAVOK M07/M13 Q1025 NOSIG="
"54511099999","2022-01-11T23:30:00","4","40.080111","116.584556","35.35","BEIJING CAPITAL INTERNATIONAL AIRPORT, CH","FM-15","99999","V020","350,1,N,0040,1","99999,9,9,Y","009900,5,9,9","-0070,1","-0120,1","99999,9",,,,,,,,,,,,,"10250,1,99999,9",,,,,"MET054METAR ZBAA 112330Z 35004MPS CAVOK M07/M12 Q1025 NOSIG="
"54511099999","2022-01-12T00:00:00","4","40.080111","116.584556","35.35","BEIJING CAPITAL INTERNATIONAL AIRPORT, CH","FM-12","99999","V020","043,1,N,0018,1","99999,9,9,9","018700,1,9,9","-0057,1","-0141,1","10256,1","06,9999,9,9","24,0000,9,1",,"9999,9,9,999999,9,9","0,1,12,1","0,1,12,1",,,,"999,-0132,9","240,M,+0007,1","240,N,-0065,1","99999,9,10212,1","2,1,005,1,-044,1","00,1",,"4,12,0029,1,037","SYN004BUFR"
"54511099999","2022-01-12T00:00:00","4","40.080111","116.584556","35.35","BEIJING CAPITAL INTERNATIONAL AIRPORT, CH","FM-15","99999","V020","360,1,N,0030,1","99999,9,9,Y","009900,5,9,9","-0060,1","-0130,1","99999,9",,,,,,,,,,,,,"10250,1,99999,9",,,,,"MET054METAR ZBAA 120000Z 36003MPS CAVOK M06/M13 Q1025 NOSIG="
"54511099999","2022-01-12T00:30:00","4","40.080111","116.584556","35.35","BEIJING CAPITAL INTERNATIONAL AIRPORT, CH","FM-15","99999","V020","350,1,N,0020,1","99999,9,9,Y","009900,5,9,9","-0060,1","-0120,1","99999,9",,,,,,,,,,,,,"10250,1,99999,9",,,,,"MET054METAR ZBAA 120030Z 35002MPS CAVOK M06/M12 Q1025 NOSIG="
"54511099999","2022-01-12T01:00:00","4","40.080111","116.584556","35.35","BEIJING CAPITAL INTERNATIONAL AIRPORT, CH","FM-15","99999","V020","350,1,N,0020,1","99999,9,9,Y","009900,5,9,9","-0050,1","-0120,1","99999,9",,,,,,,,,,,,,"10250,1,99999,9",,,,,"MET054METAR ZBAA 120100Z 35002MPS CAVOK M05/M12 Q1025 NOSIG="
"54511099999","2022-01-12T01:30:00","4","40.080111","116.584556","35.35","BEIJING CAPITAL INTERNATIONAL AIRPORT, CH","FM-15","99999","V020","330,1,V,0020,1","99999,9,9,Y","009900,5,9,9","-0040,1","-0130,1","99999,9",,,,,,,,,,,,,"10260,1,99999,9",,,,,"MET062METAR ZBAA 120130Z 33002MPS 290V010 CAVOK M04/M13 Q1026 NOSIG="
"54511099999","2022-01-12T02:00:00","4","40.080111","116.584556","35.35","BEIJING CAPITAL INTERNATIONAL AIRPORT, CH","FM-15","99999","V020","350,1,N,0030,1","99999,9,9,Y","009900,5,9,9","-0040,1","-0130,1","99999,9",,,,,,,,,,,,,"10260,1,99999,9",,,,,"MET054METAR ZBAA 120200Z 35003MPS CAVOK M04/M13 Q1026 NOSIG="
"54511099999","2022-01-12T02:30:00","4","40.080111","116.584556","35.35","BEIJING CAPITAL INTERNATIONAL AIRPORT, CH","FM-15","99999","V020","350,1,N,0030,1","99999,9,9,Y","009900,5,9,9","-0030,1","-0130,1","99999,9",,,,,,,,,,,,,"10260,1,99999,9",,,,,"MET054METAR ZBAA 120230Z 35003MPS CAVOK M03/M13 Q1026 NOSIG="
"54511099999","2022-01-12T03:00:00","4","40.080111","116.584556","35.35","BEIJING CAPITAL INTERNATIONAL AIRPORT, CH","FM-12","99999","V020","027,1,N,0030,1","99999,9,9,9","028600,1,9,9","-0025,1","-0156,1","10263,1","06,9999,9,9","12,9999,9,9","24,9999,9,9",,"0,1,03,1","0,1,03,1","99,9,+02520,1,99,9","9,AGL   ,+99999,+99999","99,99,9,99,9,99,9,02520,1,99,9,99,9","999,-0132,9","240,M,+0007,1","240,N,-0065,1","99999,9,10219,1","2,1,007,1,-036,1","00,1",,"4,12,0047,1,023","SYN004BUFR"
"54511099999","2022-01-12T03:00:00","4","40.080111","116.584556","35.35","BEIJING CAPITAL INTERNATIONAL AIRPORT, CH","FM-15","99999","V020","010,1,V,0030,1","99999,9,9,Y","009900,5,9,9","-0030,1","-0140,1","99999,9",,,,,,,,,,,,,"10260,1,99999,9",,,,,"MET062METAR ZBAA 120300Z 01003MPS 350V050 CAVOK M03/M14 Q1026 NOSIG="
"54511099999","2022-01-12T03:30:00","4","40.080111","116.584556","35.35","BEIJING CAPITAL INTERNATIONAL AIRPORT, CH","FM-15","99999","V020","360,1,N,0040,1","99999,9,9,Y","009900,5,9,9","-0020,1","-0140,1","99999,9",,,,,,,,,,,,,"10260,1,99999,9",,,,,"MET054METAR ZBAA 120330Z 36004MPS CAVOK M02/M14 Q1026 NOSIG="
"54511099999","2022-01-12T04:00:00","4","40.080111","116.584556","35.35","BEIJING CAPITAL INTERNATIONAL AIRPORT, CH","FM-15","99999","V020","010,1,V,0040,1","99999,9,9,Y","009900,5,9,9","-0020,1","-0140,1","99999,9",,,,,,,,,,,,,"10260,1,99999,9",,,,,"MET062METAR ZBAA 120400Z 01004MPS 330V030 CAVOK M02/M14 Q1026 NOSIG="
"54511099999","2022-01-12T04:30:00","4","40.080111","116.584556","35.35","BEIJING CAPITAL INTERNATIONAL AIRPORT, CH","FM-15","99999","V020","010,1,N,0040,1","99999,9,9,Y","009900,5,9,9","-0010,1","-0130,1","99999,9",,,,,,,,,,,,,"10260,1,99999,9",,,,,"MET054METAR ZBAA 120430Z 01004MPS CAVOK M01/M13 Q1026 NOSIG="
"54511099999","2022-01-12T05:00:00","4","40.080111","116.584556","35.35","BEIJING CAPITAL INTERNATIONAL AIRPORT, CH","FM-15","99999","V020","030,1,V,0030,1","99999,9,9,Y","009900,5,9,9","-0010,1","-0140,1","99999,9",,,,,,,,,,,,,"10250,1,99999,9",,,,,"MET078METAR ZBAA 120500Z 03003MPS 010V070 CAVOK M01/M14 Q1025 BECMG TL0640 33008MPS="
"54511099999","2022-01-12T05:30:00","4","40.080111","116.584556","35.35","BEIJING CAPITAL INTERNATIONAL AIRPORT, CH","FM-15","99999","V020","020,1,V,0030,1","99999,9,9,Y","009900,5,9,9","+0000,1","-0140,1","99999,9",,,,,,,,,,,,,"10250,1,99999,9",,,,,"MET062METAR ZBAA 120530Z 02003MPS 340V040 CAVOK M00/M14 Q1025 NOSIG="
"54511099999","2022-01-12T06:00:00","4","40.080111","116.584556","35.35","BEIJING CAPITAL INTERNATIONAL AIRPORT, CH","FM-12","99999","V020","002,1,N,0028,1","99999,9,9,9","026700,1,9,9","+0011,1","-0158,1","10252,1","06,9999,9,9","24,0000,9,1",,"9999,9,9,999999,9,9","0,1,06,1","0,1,06,1","99,9,+04070,1,99,9","9,AGL   ,+99999,+99999","99,99,9,99,9,99,9,04070,1,99,9,99,9","999,-0132,9","240,M,+0012,1","240,N,-0065,1","99999,9,10208,1","7,1,011,1,-012,1","00,1","0060,1","4,12,0060,1,011","SYN004BUFR"
"54511099999","2022-01-12T06:00:00","4","40.080111","116.584556","35.35","BEIJING CAPITAL INTERNATIONAL AIRPORT, CH","FM-15","99999","V020","050,1,V,0030,1","99999,9,9,Y","009900,5,9,9","+0000,1","-0160,1","99999,9",,,,,,,,,,,,,"10250,1,99999,9",,,,,"MET077METAR ZBAA 120600Z 05003MPS 360V090 CAVOK 00/M16 Q1025 BECMG TL0720 33008MPS="
"54511099999","2022-01-12T06:30:00","4","40.080111","116.584556","35.35","BEIJING CAPITAL INTERNATIONAL AIRPORT, CH","FM-15","99999","V020","030,1,V,0020,1","99999,9,9,Y","009900,5,9,9","+0010,1","-0180,1","99999,9",,,,,,,,,,,,,"10250,1,99999,9",,,,,"MET061METAR ZBAA 120630Z 03002MPS 350V070 CAVOK 01/M18 Q1025 NOSIG="
"54511099999","2022-01-12T07:00:00","4","40.080111","116.584556","35.35","BEIJING CAPITAL INTERNATIONAL AIRPORT, CH","FM-15","99999","V020","350,1,V,0040,1","99999,9,9,Y","009900,5,9,9","+0020,1","-0180,1","99999,9",,,,,,,,,,,,,"10250,1,99999,9",,,,,"MET077METAR ZBAA 120700Z 35004MPS 330V030 CAVOK 02/M18 Q1025 BECMG TL0820 33009MPS="
"54511099999","2022-01-12T07:30:00","4","40.080111","116.584556","35.35","BEIJING CAPITAL INTERNATIONAL AIRPORT, CH","FM-15","99999","V020","020,1,V,0050,1","99999,9,9,Y","009900,5,9,9","+0010,1","-0180,1","99999,9",,,,,,,,,,,,,"10260,1,99999,9",,,,,"MET061METAR ZBAA 120730Z 02005MPS 350V050 CAVOK 01/M18 Q1026 NOSIG="
"54511099999","2022-01-12T08:00:00","4","40.080111","116.584556","35.35","BEIJING CAPITAL INTERNATIONAL AIRPORT, CH","FM-15","99999","V020","020,1,V,0030,1","99999,9,9,Y","009900,5,9,9","+0010,1","-0180,1","99999,9",,,,,,,,,,,,,"10260,1,99999,9",,,,,"MET061METAR ZBAA 120800Z 02003MPS 340V060 CAVOK 01/M18 Q1026 NOSIG="
"54511099999","2022-01-12T08:30:00","4","40.080111","116.584556","35.35","BEIJING CAPITAL INTERNATIONAL AIRPORT, CH","FM-15","99999","V020","320,1,N,0070,1","99999,9,9,Y","009900,5,9,9","+0020,1","-0210,1","99999,9",,,,,,,,,,,,,"10260,1,99999,9",,,,,"MET053METAR ZBAA 120830Z 32007MPS CAVOK 02/M21 Q1026 NOSIG="
"54511099999","2022-01-12T09:00:00","4","40.080111","116.584556","35.35","BEIJING CAPITAL INTERNATIONAL AIRPORT, CH","FM-12","99999","V020","317,1,N,0035,1","99999,9,9,9","030000,1,9,9","+0011,1","-0177,1","10273,1","06,9999,9,9","12,9999,9,9","24,9999,9,9",,"0,1,03,1","0,1,03,1",,,,"999,-0132,9","240,M,+0028,1","240,N,-0065,1","99999,9,10229,1","2,1,021,1,+010,1","00,1","0095,1","4,12,0095,1,284","SYN004BUFR"
"54511099999","2022-01-12T09:00:00","4","40.080111","116.584556","35.35","BEIJING CAPITAL INTERNATIONAL AIRPORT, CH","FM-15","99999","V020","320,1,N,0090,1","99999,9,9,Y","009900,5,9,9","+0010,1","-0210,1","99999,9",,,,,,,,,,,,,"10270,1,99999,9",,,,,"MET053METAR ZBAA 120900Z 32009MPS CAVOK 01/M21 Q1027 NOSIG="
"54511099999","2022-01-12T09:30:00","4","40.080111","116.584556","35.35","BEIJING CAPITAL INTERNATIONAL AIRPORT, CH","FM-15","99999","V020","310,1,N,0110,1","99999,9,9,Y","009900,5,9,9","+0000,1","-0220,1","99999,9",,,,,,,,,,,,,"10270,1,99999,9",,,,,"MET053METAR ZBAA 120930Z 31011MPS CAVOK 00/M22 Q1027 NOSIG="
"54511099999","2022-01-12T10:00:00","4","40.080111","116.584556","35.35","BEIJING CAPITAL INTERNATIONAL AIRPORT, CH","FM-15","99999","V020","320,1,N,0110,1","99999,9,9,Y","009900,5,9,9","+0000,1","-0200,1","99999,9",,,,,,,,,,,,,"10280,1,99999,9",,,,,"MET070METAR ZBAA 121000Z 32011MPS CAVOK M00/M20 Q1028 BECMG TL1140 33005MPS="
"54511099999","2022-01-12T10:30:00","4","40.080111","116.584556","35.35","BEIJING CAPITAL INTERNATIONAL AIRPORT, CH","FM-15","99999","V020","310,1,N,0110,1","99999,9,9,Y","009900,5,9,9","+0000,1","-0210,1","99999,9",,,,,,,,,,,,,"10280,1,99999,9",,,,,"MET054METAR ZBAA 121030Z 31011MPS CAVOK M00/M21 Q1028 NOSIG="
"54511099999","2022-01-12T11:00:00","4","40.080111","116.584556","35.35","BEIJING CAPITAL INTERNATIONAL AIRPORT, CH","FM-15","99999","V020","320,1,N,0120,1","99999,9,9,Y","009900,5,9,9","-0010,1","-0210,1","99999,9",,,,,,,,,,,,,"10290,1,99999,9",,,"0170,1",,"MET073METAR ZBAA 121100Z 32012G17MPS CAVOK M01/M21 Q1029 BECMG TL1250 33006MPS="
"54511099999","2022-01-12T11:30:00","4","40.080111","116.584556","35.35","BEIJING CAPITAL INTERNATIONAL AIRPORT, CH","FM-15","99999","V020","310,1,N,0140,1","99999,9,9,Y","009900,5,9,9","-0010,1","-0220,1","99999,9",,,,,,,,,,,,,"10290,1,99999,9",,,"0190,1",,"MET057METAR ZBAA 121130Z 31014G19MPS CAVOK M01/M22 Q1029 NOSIG="
"54511099999","2022-01-12T12:00:00","4","40.080111","116.584556","35.35","BEIJING CAPITAL INTERNATIONAL AIRPORT, CH","FM-12","99999","V020","331,1,N,0027,1","99999,9,9,9","030000,1,9,9","-0007,1","-0194,1","10302,1","06,9999,9,9","24,0000,9,1",,"9999,9,9,999999,9,9","0,1,06,1","0,1,06,1",,,,"999,-0099,9","240,M,+0028,1","240,N,-0065,1","99999,9,10258,1","2,1,029,1,+029,1","00,1","0104,1","4,12,0104,1,318","SYN004BUFR"
"54511099999","2022-01-12T12:00:00","4","40.080111","116.584556","35.35","BEIJING CAPITAL INTERNATIONAL AIRPORT, CH","FM-15","99999","V020","310,1,N,0130,1","99999,9,9,Y","009900,5,9,9","-0010,1","-0210,1","99999,9",,,,,,,,,,,,,"10300,1,99999,9",,,,,"MET070METAR ZBAA 121200Z 31013MPS CAVOK M01/M21 Q1030 BECMG TL1350 33006MPS="
"54511099999","2022-01-12T12:30:00","4","40.080111","116.584556","35.35","BEIJING CAPITAL INTERNATIONAL AIRPORT, CH","FM-15","99999","V020","310,1,N,0130,1","99999,9,9,Y","009900,5,9,9","-0020,1","-0210,1","99999,9",,,,,,,,,,,,,"10300,1,99999,9",,,,,"MET054METAR ZBAA 121230Z 31013MPS CAVOK M02/M21 Q1030 NOSIG="
"54511099999","2022-01-12T13:00:00","4","40.080111","116.584556","35.35","BEIJING CAPITAL INTERNATIONAL AIRPORT, CH","FM-15","99999","V020","310,1,N,0120,1","99999,9,9,Y","009900,5,9,9","-0020,1","-0200,1","99999,9",,,,,,,,,,,,,"10300,1,99999,9",,,"0180,1",,"MET073METAR ZBAA 121300Z 31012G18MPS CAVOK M02/M20 Q1030 BECMG TL1450 33006MPS="
"54511099999","2022-01-12T13:30:00","4","40.080111","116.584556","35.35","BEIJING CAPITAL INTERNATIONAL AIRPORT, CH","FM-15","99999","V020","310,1,N,0090,1","99999,9,9,Y","009900,5,9,9","-0020,1","-0200,1","99999,9",,,,,,,,,,,,,"10300,1,99999,9",,,,,"MET054METAR ZBAA 121330Z 31009MPS CAVOK M02/M20 Q1030 NOSIG="
"54511099999","2022-01-12T14:00:00","4","40.080111","116.584556","35.35","BEIJING CAPITAL INTERNATIONAL AIRPORT, CH","FM-15","99999","V020","300,1,N,0090,1","99999,9,9,Y","009900,5,9,9","-0020,1","-0190,1","99999,9",,,,,,,,,,,,,"10300,1,99999,9",,,,,"MET070METAR ZBAA 121400Z 30009MPS CAVOK M02/M19 Q1030 BECMG TL1550 33004MPS="
"54511099999","2022-01-12T14:30:00","4","40.080111","116.584556","35.35","BEIJING CAPITAL INTERNATIONAL AIRPORT, CH","FM-15","99999","V020","320,1,N,0080,1","99999,9,9,Y","009900,5,9,9","-0030,1","-0190,1","99999,9",,,,,,,,,,,,,"10300,1,99999,9",,,,,"MET054METAR ZBAA 121430Z 32008MPS CAVOK M03/M19 Q1030 NOSIG="
"54511099999","2022-01-12T15:00:00","4","40.080111","116.584556","35.35","BEIJING CAPITAL INTERNATIONAL AIRPORT, CH","FM-12","99999","V020","324,1,N,0024,1","99999,9,9,9","030000,1,9,9","-0022,1","-0216,1","10311,1","06,9999,9,9","12,9999,9,9","24,9999,9,9",,,,,,,"999,-0090,9","240,M,+0028,1","240,N,-0065,1","99999,9,10267,1","2,1,009,1,+038,1","00,1","0104,1","4,12,0104,1,318","SYN004BUFR"
"54511099999","2022-01-12T15:00:00","4","40.080111","116.584556","35.35","BEIJING CAPITAL INTERNATIONAL AIRPORT, CH","FM-15","99999","V020","320,1,N,0080,1","99999,9,9,Y","009900,5,9,9","-0030,1","-0180,1","99999,9",,,,,,,,,,,,,"10300,1,99999,9",,,,,"MET054METAR ZBAA 121500Z 32008MPS CAVOK M03/M18 Q1030 NOSIG="
"54511099999","2022-01-12T15:30:00","4","40.080111","116.584556","35.35","BEIJING CAPITAL INTERNATIONAL AIRPORT, CH","FM-15","99999","V020","310,1,N,0050,1","99999,9,9,Y","009900,5,9,9","-0030,1","-0180,1","99999,9",,,,,,,,,,,,,"10300,1,99999,9",,,,,"MET054METAR ZBAA 121530Z 31005MPS CAVOK M03/M18 Q1030 NOSIG="
"54511099999","2022-01-12T16:00:00","4","40.080111","116.584556","35.35","BEIJING CAPITAL INTERNATIONAL AIRPORT, CH","FM-15","99999","V020","300,1,N,0050,1","99999,9,9,Y","009900,5,9,9","-0030,1","-0190,1","99999,9",,,,,,,,,,,,,"10300,1,99999,9",,,,,"MET054METAR ZBAA 121600Z 30005MPS CAVOK M03/M19 Q1030 NOSIG="
"54511099999","2022-01-12T16:30:00","4","40.080111","116.584556","35.35","BEIJING CAPITAL INTERNATIONAL AIRPORT, CH","FM-15","99999","V020","290,1,N,0050,1","99999,9,9,Y","009900,5,9,9","-0030,1","-0190,1","99999,9",,,,,,,,,,,,,"10300,1,99999,9",,,,,"MET054METAR ZBAA 121630Z 29005MPS CAVOK M03/M19 Q1030 NOSIG="
"54511099999","2022-01-12T17:00:00","4","40.080111","116.584556","35.35","BEIJING CAPITAL INTERNATIONAL AIRPORT, CH","FM-15","99999","V020","280,1,N,0040,1","99999,9,9,Y","009900,5,9,9","-0030,1","-0180,1","99999,9",,,,,,,,,,,,,"10300,1,99999,9",,,,,"MET054METAR ZBAA 121700Z 28004MPS CAVOK M03/M18 Q1030 NOSIG="
"54511099999","2022-01-12T17:30:00","4","40.080111","116.584556","35.35","BEIJING CAPITAL INTERNATIONAL AIRPORT, CH","FM-15","99999","V020","270,1,N,0030,1","99999,9,9,Y","009900,5,9,9","-0040,1","-0180,1","99999,9",,,,,,,,,,,,,"10300,1,99999,9",,,,,"MET054METAR ZBAA 121730Z 27003MPS CAVOK M04/M18 Q1030 NOSIG="
"54511099999","2022-01-12T18:00:00","4","40.080111","116.584556","35.35","BEIJING CAPITAL INTERNATIONAL AIRPORT, CH","FM-12","99999","V020","156,1,N,0006,1","99999,9,9,9","017900,1,9,9","-0055,1","-0180,1","10310,1","06,9999,9,9","12,9999,9,9","24,9999,9,9",,"0,1,99,9","0,1,99,9",,,,"999,-0152,9","240,M,+0028,1","240,N,-0065,1","99999,9,10266,1","7,1,001,1,+047,1","00,1","0104,1","4,12,0104,1,318","SYN004BUFR"
"54511099999","2022-01-12T18:00:00","4","40.080111","116.584556","35.35","BEIJING CAPITAL INTERNATIONAL AIRPORT, CH","FM-15","99999","V020","260,1,N,0030,1","99999,9,9,Y","009900,5,9,9","-0040,1","-0180,1","99999,9",,,,,,,,,,,,,"10300,1,99999,9",,,,,"MET054METAR ZBAA 121800Z 26003MPS CAVOK M04/M18 Q1030 NOSIG="
"54511099999","2022-01-12T18:30:00","4","40.080111","116.584556","35.35","BEIJING CAPITAL INTERNATIONAL AIRPORT, CH","FM-15","99999","V020","270,1,N,0040,1","99999,9,9,Y","009900,5,9,9","-0040,1","-0180,1","99999,9",,,,,,,,,,,,,"10300,1,99999,9",,,,,"MET054METAR ZBAA 121830Z 27004MPS CAVOK M04/M18 Q1030 NOSIG="
"54511099999","2022-01-12T19:00:00","4","40.080111","116.584556","35.35","BEIJING CAPITAL INTERNATIONAL AIRPORT, CH","FM-15","99999","V020","280,1,N,0050,1","99999,9,9,Y","009900,5,9,9","-0030,1","-0170,1","99999,9",,,,,,,,,,,,,"10300,1,99999,9",,,,,"MET054METAR ZBAA 121900Z 28005MPS CAVOK M03/M17 Q1030 NOSIG="
"54511099999","2022-01-12T19:30:00","4","40.080111","116.584556","35.35","BEIJING CAPITAL INTERNATIONAL AIRPORT, CH","FM-15","99999","V020","290,1,N,0050,1","99999,9,9,Y","009900,5,9,9","-0030,1","-0170,1","99999,9",,,,,,,,,,,,,"10300,1,99999,9",,,,,"MET054METAR ZBAA 121930Z 29005MPS CAVOK M03/M17 Q1030 NOSIG="
"54511099999","2022-01-12T20:00:00","4","40.080111","116.584556","35.35","BEIJING CAPITAL INTERNATIONAL AIRPORT, CH","FM-15","99999","V020","300,1,N,0050,1","99999,9,9,Y","009900,5,9,9","-0040,1","-0170,1","99999,9",,,,,,,,,,,,,"10300,1,99999,9",,,,,"MET054METAR ZBAA 122000Z 30005MPS CAVOK M04/M17 Q1030 NOSIG="
"54511099999","2022-01-12T20:30:00","4","40.080111","116.584556","35.35","BEIJING CAPITAL INTERNATIONAL AIRPORT, CH","FM-15","99999","V020","290,1,N,0060,1","99999,9,9,Y","009900,5,9,9","-0030,1","-0160,1","99999,9",,,,,,,,,,,,,"10300,1,99999,9",,,,,"MET054METAR ZBAA 122030Z 29006MPS CAVOK M03/M16 Q1030 NOSIG="
"54511099999","2022-01-12T21:00:00","4","40.080111","116.584556","35.35","BEIJING CAPITAL INTERNATIONAL AIRPORT, CH","FM-12","99999","V020","222,1,N,0010,1","99999,9,9,9","008200,1,9,9","-0077,1","-0162,1","10305,1","06,9999,9,9","12,9999,9,9","24,9999,9,9",,,,,,,"999,-0163,9","240,M,+0028,1","240,N,-0085,1","99999,9,10261,1","7,1,005,1,+054,1","00,1","0104,1","4,12,0104,1,318","SYN004BUFR"
"54511099999","2022-01-12T21:00:00","4","40.080111","116.584556","35.35","BEIJING CAPITAL INTERNATIONAL AIRPORT, CH","FM-15","99999","V020","290,1,N,0040,1","99999,9,9,Y","009900,5,9,9","-0040,1","-0160,1","99999,9",,,,,,,,,,,,,"10300,1,99999,9",,,,,"MET054METAR ZBAA 122100Z 29004MPS CAVOK M04/M16 Q1030 NOSIG="
"54511099999","2022-01-12T21:30:00","4","40.080111","116.584556","35.35","BEIJING CAPITAL INTERNATIONAL AIRPORT, CH","FM-15","99999","V020","280,1,N,0030,1","99999,9,9,Y","009900,5,9,9","-0040,1","-0160,1","99999,9",,,,,,,,,,,,,"10300,1,99999,9",,,,,"MET054METAR ZBAA 122130Z 28003MPS CAVOK M04/M16 Q1030 NOSIG="
"54511099999","2022-01-12T22:00:00","4","40.080111","116.584556","35.35","BEIJING CAPITAL INTERNATIONAL AIRPORT, CH","FM-15","99999","V020","280,1,N,0040,1","99999,9,9,Y","009900,5,9,9","-0040,1","-0160,1","99999,9",,,,,,,,,,,,,"10300,1,99999,9",,,,,"MET054METAR ZBAA 122200Z 28004MPS CAVOK M04/M16 Q1030 NOSIG="
"54511099999","2022-01-12T22:30:00","4","40.080111","116.584556","35.35","BEIJING CAPITAL INTERNATIONAL AIRPORT, CH","FM-15","99999","V020","280,1,N,0030,1","99999,9,9,Y","009900,5,9,9","-0040,1","-0160,1","99999,9",,,,,,,,,,,,,"10300,1,99999,9",,,,,"MET054METAR ZBAA 122230Z 28003MPS CAVOK M04/M16 Q1030 NOSIG="
"54511099999","2022-01-12T23:00:00","4","40.080111","116.584556","35.35","BEIJING CAPITAL INTERNATIONAL AIRPORT, CH","FM-15","99999","V020","280,1,N,0040,1","99999,9,9,Y","009900,5,9,9","-0050,1","-0160,1","99999,9",,,,,,,,,,,,,"10310,1,99999,9",,,,,"MET054METAR ZBAA 122300Z 28004MPS CAVOK M05/M16 Q1031 NOSIG="
"54511099999","2022-01-12T23:30:00","4","40.080111","116.584556","35.35","BEIJING CAPITAL INTERNATIONAL AIRPORT, CH","FM-15","99999","V020","290,1,N,0050,1","99999,9,9,Y","009900,5,9,9","-0040,1","-0150,1","99999,9",,,,,,,,,,,,,"10310,1,99999,9",,,,,"MET054METAR ZBAA 122330Z 29005MPS CAVOK M04/M15 Q1031 NOSIG="
"54511099999","2022-01-13T00:00:00","4","40.080111","116.584556","35.35","BEIJING CAPITAL INTERNATIONAL AIRPORT, CH","FM-12","99999","V020","002,1,N,0009,1","99999,9,9,9","013900,1,9,9","-0077,1","-0150,1","10316,1","06,9999,9,9","24,0000,9,1",,"9999,9,9,999999,9,9","0,1,12,1","0,1,12,1",,,,"999,-0168,9","240,M,+0028,1","240,N,-0085,1","99999,9,10272,1","2,1,011,1,+060,1","00,1","0094,1","4,12,0094,1,318","SYN004BUFR"
"54511099999","2022-01-13T00:00:00","4","40.080111","116.584556","35.35","BEIJING CAPITAL INTERNATIONAL AIRPORT, CH","FM-15","99999","V020","300,1,N,0030,1","99999,9,9,Y","009900,5,9,9","-0040,1","-0150,1","99999,9",,,,,,,,,,,,,"10310,1,99999,9",,,,,"MET054METAR ZBAA 130000Z 30003MPS CAVOK M04/M15 Q1031 NOSIG="
"54511099999","2022-01-13T00:30:00","4","40.080111","116.584556","35.35","BEIJING CAPITAL INTERNATIONAL AIRPORT, CH","FM-15","99999","V020","300,1,N,0040,1","99999,9,9,Y","009900,5,9,9","-0030,1","-0150,1","99999,9",,,,,,,,,,,,,"10310,1,99999,9",,,,,"MET054METAR ZBAA 130030Z 30004MPS CAVOK M03/M15 Q1031 NOSIG="
"54511099999","2022-01-13T01:30:00","4","40.080111","116.584556","35.35","BEIJING CAPITAL INTERNATIONAL AIRPORT, CH","FM-15","99999","V020","310,1,V,0030,1","99999,9,9,Y","009900,5,9,9","-0010,1","-0150,1","99999,9",,,,,,,,,,,,,"10310,1,99999,9",,,,,"MET062METAR ZBAA 130130Z 31003MPS 280V340 CAVOK M01/M15 Q1031 NOSIG="
"54511099999","2022-01-13T02:00:00","4","40.080111","116.584556","35.35","BEIJING CAPITAL INTERNATIONAL AIRPORT, CH","FM-15","99999","V020","300,1,N,0040,1","99999,9,9,Y","009900,5,9,9","-0010,1","-0160,1","99999,9",,,,,,,,,,,,,"10310,1,99999,9",,,,,"MET054METAR ZBAA 130200Z 30004MPS CAVOK M01/M16 Q1031 NOSIG="
"54511099999","2022-01-13T02:30:00","4","40.080111","116.584556","35.35","BEIJING CAPITAL INTERNATIONAL AIRPORT, CH","FM-15","99999","V020","310,1,N,0040,1","99999,9,9,Y","009900,5,9,9","+0000,1","-0170,1","99999,9",,,,,,,,,,,,,"10310,1,99999,9",,,,,"MET053METAR ZBAA 130230Z 31004MPS CAVOK 00/M17 Q1031 NOSIG="
"54511099999","2022-01-13T03:00:00","4","40.080111","116.584556","35.35","BEIJING CAPITAL INTERNATIONAL AIRPORT, CH","FM-12","99999","V020","231,1,N,0030,1","99999,9,9,9","030000,1,9,9","+0005,1","-0178,1","10314,1","06,9999,9,9","12,9999,9,9","24,9999,9,9",,"0,1,03,1","0,1,03,1",,,,"999,-0168,9","240,M,+0028,1","240,N,-0085,1","99999,9,10270,1","7,1,002,1,+051,1","00,1","0050,1","4,12,0050,1,233","SYN004BUFR"
"54511099999","2022-01-13T03:00:00","4","40.080111","116.584556","35.35","BEIJING CAPITAL INTERNATIONAL AIRPORT, CH","FM-15","99999","V020","310,1,V,0030,1","99999,9,9,Y","009900,5,9,9","+0010,1","-0170,1","99999,9",,,,,,,,,,,,,"10310,1,99999,9",,,,,"MET061METAR ZBAA 130300Z 31003MPS 280V350 CAVOK 01/M17 Q1031 NOSIG="
"54511099999","2022-01-13T03:30:00","4","40.080111","116.584556","35.35","BEIJING CAPITAL INTERNATIONAL AIRPORT, CH","FM-15","99999","V020","290,1,V,0020,1","99999,9,9,Y","009900,5,9,9","+0010,1","-0170,1","99999,9",,,,,,,,,,,,,"10300,1,99999,9",,,,,"MET061METAR ZBAA 130330Z 29002MPS 240V340 CAVOK 01/M17 Q1030 NOSIG="
"54511099999","2022-01-13T04:00:00","4","40.080111","116.584556","35.35","BEIJING CAPITAL INTERNATIONAL AIRPORT, CH","FM-15","99999","V020","270,1,V,0040,1","99999,9,9,Y","009900,5,9,9","+0020,1","-0180,1","99999,9",,,,,,,,,,,,,"10300,1,99999,9",,,,,"MET061METAR ZBAA 130400Z 27004MPS 240V300 CAVOK 02/M18 Q1030 NOSIG="
"54511099999","2022-01-13T04:30:00","4","40.080111","116.584556","35.35","BEIJING CAPITAL INTERNATIONAL AIRPORT, CH","FM-15","99999","V020","280,1,V,0030,1","99999,9,9,Y","009900,5,9,9","+0020,1","-0180,1","99999,9",,,,,,,,,,,,,"10290,1,99999,9",,,,,"MET061METAR ZBAA 130430Z 28003MPS 230V310 CAVOK 02/M18 Q1029 NOSIG="
"54511099999","2022-01-13T05:00:00","4","40.080111","116.584556","35.35","BEIJING CAPITAL INTERNATIONAL AIRPORT, CH","FM-15","99999","V020","280,1,V,0040,1","99999,9,9,Y","009900,5,9,9","+0030,1","-0180,1","99999,9",,,,,,,,,,,,,"10280,1,99999,9",,,,,"MET061METAR ZBAA 130500Z 28004MPS 240V340 CAVOK 03/M18 Q1028 NOSIG="
"54511099999","2022-01-13T05:30:00","4","40.080111","116.584556","35.35","BEIJING CAPITAL INTERNATIONAL AIRPORT, CH","FM-15","99999","V020","230,1,V,0030,1","99999,9,9,Y","009900,5,9,9","+0030,1","-0190,1","99999,9",,,,,,,,,,,,,"10280,1,99999,9",,,,,"MET061METAR ZBAA 130530Z 23003MPS 200V270 CAVOK 03/M19 Q1028 NOSIG="
"54511099999","2022-01-13T06:00:00","4","40.080111","116.584556","35.35","BEIJING CAPITAL INTERNATIONAL AIRPORT, CH","FM-12","99999","V020","229,1,N,0030,1","99999,9,9,9","030000,1,9,9","+0035,1","-0194,1","10278,1","06,9999,9,9","24,0000,9,1",,"9999,9,9,999999,9,9","0,1,06,1","0,1,06,1",,,,"999,-0168,9","240,M,+0036,1","240,N,-0085,1","99999,9,10234,1","7,1,036,1,+026,1","00,1","0068,1","4,12,0068,1,211","SYN004BUFR"
"54511099999","2022-01-13T06:00:00","4","40.080111","116.584556","35.35","BEIJING CAPITAL INTERNATIONAL AIRPORT, CH","FM-15","99999","V020","270,1,V,0030,1","99999,9,9,Y","009900,5,9,9","+0030,1","-0190,1","99999,9",,,,,,,,,,,,,"10270,1,99999,9",,,,,"MET061METAR ZBAA 130600Z 27003MPS 200V330 CAVOK 03/M19 Q1027 NOSIG="
"54511099999","2022-01-13T06:30:00","4","40.080111","116.584556","35.35","BEIJING CAPITAL INTERNATIONAL AIRPORT, CH","FM-15","99999","V020","210,1,V,0020,1","99999,9,9,Y","009900,5,9,9","+0030,1","-0190,1","99999,9",,,,,,,,,,,,,"10270,1,99999,9",,,,,"MET061METAR ZBAA 130630Z 21002MPS 170V270 CAVOK 03/M19 Q1027 NOSIG="
"54511099999","2022-01-13T07:00:00","4","40.080111","116.584556","35.35","BEIJING CAPITAL INTERNATIONAL AIRPORT, CH","FM-15","99999","V020","200,1,V,0030,1","99999,9,9,Y","009900,5,9,9","+0040,1","-0190,1","99999,9",,,,,,,,,,,,,"10260,1,99999,9",,,,,"MET061METAR ZBAA 130700Z 20003MPS 150V240 CAVOK 04/M19 Q1026 NOSIG="
"54511099999","2022-01-13T07:30:00","4","40.080111","116.584556","35.35","BEIJING CAPITAL INTERNATIONAL AIRPORT, CH","FM-15","99999","V020","210,1,V,0030,1","99999,9,9,Y","009900,5,9,9","+0030,1","-0190,1","99999,9",,,,,,,,,,,,,"10260,1,99999,9",,,,,"MET061METAR ZBAA 130730Z 21003MPS 180V240 CAVOK 03/M19 Q1026 NOSIG="
"54511099999","2022-01-13T08:00:00","4","40.080111","116.584556","35.35","BEIJING CAPITAL INTERNATIONAL AIRPORT, CH","FM-15","99999","V020","200,1,V,0030,1","99999,9,9,Y","009900,5,9,9","+0030,1","-0190,1","99999,9",,,,,,,,,,,,,"10260,1,99999,9",,,,,"MET061METAR ZBAA 130800Z 20003MPS 170V230 CAVOK 03/M19 Q1026 NOSIG="
"54511099999","2022-01-13T08:30:00","4","40.080111","116.584556","35.35","BEIJING CAPITAL INTERNATIONAL AIRPORT, CH","FM-15","99999","V020","200,1,V,0030,1","99999,9,9,Y","009900,5,9,9","+0030,1","-0190,1","99999,9",,,,,,,,,,,,,"10260,1,99999,9",,,,,"MET061METAR ZBAA 130830Z 20003MPS 170V230 CAVOK 03/M19 Q1026 NOSIG="
"54511099999","2022-01-13T09:00:00","4","40.080111","116.584556","35.35","BEIJING CAPITAL INTERNATIONAL AIRPORT, CH","FM-12","99999","V020","214,1,N,0026,1","99999,9,9,9","030000,1,9,9","+0020,1","-0193,1","10263,1","06,9999,9,9","12,9999,9,9","24,9999,9,9",,"0,1,03,1","0,1,03,1",,,,"999,-0168,9","240,M,+0039,1","240,N,-0085,1","99999,9,10219,1","7,1,015,1,-010,1","00,1","0068,1","4,12,0068,1,211","SYN004BUFR"
"54511099999","2022-01-13T09:00:00","4","40.080111","116.584556","35.35","BEIJING CAPITAL INTERNATIONAL AIRPORT, CH","FM-15","99999","V020","190,1,N,0030,1","99999,9,9,Y","009900,5,9,9","+0010,1","-0190,1","99999,9",,,,,,,,,,,,,"10250,1,99999,9",,,,,"MET053METAR ZBAA 130900Z 19003MPS CAVOK 01/M19 Q1025 NOSIG="
"54511099999","2022-01-13T09:30:00","4","40.080111","116.584556","35.35","BEIJING CAPITAL INTERNATIONAL AIRPORT, CH","FM-15","99999","V020","180,1,N,0040,1","99999,9,9,Y","009900,5,9,9","+0000,1","-0190,1","99999,9",,,,,,,,,,,,,"10250,1,99999,9",,,,,"MET053METAR ZBAA 130930Z 18004MPS CAVOK 00/M19 Q1025 NOSIG="
"54511099999","2022-01-13T10:00:00","4","40.080111","116.584556","35.35","BEIJING CAPITAL INTERNATIONAL AIRPORT, CH","FM-15","99999","V020","170,1,N,0030,1","99999,9,9,Y","009900,5,9,9","+0000,1","-0170,1","99999,9",,,,,,,,,,,,,"10250,1,99999,9",,,,,"MET054METAR ZBAA 131000Z 17003MPS CAVOK M00/M17 Q1025 NOSIG="
"54511099999","2022-01-13T10:30:00","4","40.080111","116.584556","35.35","BEIJING CAPITAL INTERNATIONAL AIRPORT, CH","FM-15","99999","V020","170,1,V,0030,1","99999,9,9,Y","009900,5,9,9","+0000,1","-0190,1","99999,9",,,,,,,,,,,,,"10250,1,99999,9",,,,,"MET061METAR ZBAA 131030Z 17003MPS 140V210 CAVOK 00/M19 Q1025 NOSIG="
"54511099999","2022-01-13T11:00:00","4","40.080111","116.584556","35.35","BEIJING CAPITAL INTERNATIONAL AIRPORT, CH","FM-15","99999","V020","170,1,N,0040,1","99999,9,9,Y","009900,5,9,9","-0010,1","-0180,1","99999,9",,,,,,,,,,,,,"10260,1,99999,9",,,,,"MET054METAR ZBAA 131100Z 17004MPS CAVOK M01/M18 Q1026 NOSIG="
"54511099999","2022-01-13T11:30:00","4","40.080111","116.584556","35.35","BEIJING CAPITAL INTERNATIONAL AIRPORT, CH","FM-15","99999","V020","190,1,N,0040,1","99999,9,9,Y","009900,5,9,9","+0000,1","-0180,1","99999,9",,,,,,,,,,,,,"10260,1,99999,9",,,,,"MET054METAR ZBAA 131130Z 19004MPS CAVOK M00/M18 Q1026 NOSIG="
"54511099999","2022-01-13T12:00:00","4","40.080111","116.584556","35.35","BEIJING CAPITAL INTERNATIONAL AIRPORT, CH","FM-12","99999","V020","180,1,N,0019,1","99999,9,9,9","022300,1,9,9","-0002,1","-0194,1","10264,1","06,9999,9,9","24,0000,9,1",,"9999,9,9,999999,9,9","0,1,06,1","0,1,06,1",,,,"999,-0154,9","240,M,+0039,1","240,N,-0085,1","99999,9,10220,1","2,1,001,1,-038,1","00,1","0068,1","4,12,0068,1,211","SYN004BUFR"
"54511099999","2022-01-13T12:00:00","4","40.080111","116.584556","35.35","BEIJING CAPITAL INTERNATIONAL AIRPORT, CH","FM-15","99999","V020","180,1,N,0040,1","99999,9,9,Y","009900,5,9,9","-0010,1","-0180,1","99999,9",,,,,,,,,,,,,"10260,1,99999,9",,,,,"MET054METAR ZBAA 131200Z 18004MPS CAVOK M01/M18 Q1026 NOSIG="
"54511099999","2022-01-13T12:30:00","4","40.080111","116.584556","35.35","BEIJING CAPITAL INTERNATIONAL AIRPORT, CH","FM-15","99999","V020","160,1,V,0030,1","99999,9,9,Y","009900,5,9,9","-0020,1","-0180,1","99999,9",,,,,,,,,,,,,"10260,1,99999,9",,,,,"MET062METAR ZBAA 131230Z 16003MPS 120V200 CAVOK M02/M18 Q1026 NOSIG="
"54511099999","2022-01-13T13:00:00","4","40.080111","116.584556","35.35","BEIJING CAPITAL INTERNATIONAL AIRPORT, CH","FM-15","99999","V020","999,9,V,0010,1","99999,9,9,Y","009900,5,9,9","-0030,1","-0170,1","99999,9",,,,,,,,,,,,,"10260,1,99999,9",,,,,"MET054METAR ZBAA 131300Z VRB01MPS CAVOK M03/M17 Q1026 NOSIG="
"54511099999","2022-01-13T13:30:00","4","40.080111","116.584556","35.35","BEIJING CAPITAL INTERNATIONAL AIRPORT, CH","FM-15","99999","V020","160,1,N,0010,1","99999,9,9,Y","009900,5,9,9","-0040,1","-0170,1","99999,9",,,,,,,,,,,,,"10260,1,99999,9",,,,,"MET054METAR ZBAA 131330Z 16001MPS CAVOK M04/M17 Q1026 NOSIG="
"54511099999","2022-01-13T14:00:00","4","40.080111","116.584556","35.35","BEIJING CAPITAL INTERNATIONAL AIRPORT, CH","FM-15","99999","V020","150,1,N,0010,1","99999,9,9,Y","009900,5,9,9","-0060,1","-0160,1","99999,9",,,,,,,,,,,,,"10260,1,99999,9",,,,,"MET054METAR ZBAA 131400Z 15001MPS CAVOK M06/M16 Q1026 NOSIG="
"54511099999","2022-01-13T14:30:00","4","40.080111","116.584556","35.35","BEIJING CAPITAL INTERNATIONAL AIRPORT, CH","FM-15","99999","V020","070,1,N,0020,1","99999,9,9,Y","009900,5,9,9","-0070,1","-0150,1","99999,9",,,,,,,,,,,,,"10250,1,99999,9",,,,,"MET054METAR ZBAA 131430Z 07002MPS CAVOK M07/M15 Q1025 NOSIG="
"54511099999","2022-01-13T15:00:00","4","40.080111","116.584556","35.35","BEIJING CAPITAL INTERNATIONAL AIRPORT, CH","FM-12","99999","V020","188,1,N,0016,1","99999,9,9,9","013200,1,9,9","-0027,1","-0180,1","10261,1","06,9999,9,9","12,9999,9,9","24,9999,9,9",,,,,,,"999,-0127,9","240,M,+0039,1","240,N,-0085,1","99999,9,10217,1","7,1,003,1,-050,1","00,1","0068,1","4,12,0068,1,211","SYN004BUFR"
"54511099999","2022-01-13T15:00:00","4","40.080111","116.584556","35.35","BEIJING CAPITAL INTERNATIONAL AIRPORT, CH","FM-15","99999","V020","999,9,V,0010,1","99999,9,9,Y","009900,5,9,9","-0070,1","-0160,1","99999,9",,,,,,,,,,,,,"10260,1,99999,9",,,,,"MET054METAR ZBAA 131500Z VRB01MPS CAVOK M07/M16 Q1026 NOSIG="
"54511099999","2022-01-13T15:30:00","4","40.080111","116.584556","35.35","BEIJING CAPITAL INTERNATIONAL AIRPORT, CH","FM-15","99999","V020","999,9,C,0000,1","99999,9,9,Y","009900,5,9,9","-0080,1","-0160,1","99999,9",,,,,,,,,,,,,"10250,1,99999,9",,,,,"MET054METAR ZBAA 131530Z 00000MPS CAVOK M08/M16 Q1025 NOSIG="
"54511099999","2022-01-13T16:00:00","4","40.080111","116.584556","35.35","BEIJING CAPITAL INTERNATIONAL AIRPORT, CH","FM-15","99999","V020","999,9,V,0010,1","99999,9,9,Y","009900,5,9,9","-0080,1","-0160,1","99999,9",,,,,,,,,,,,,"10250,1,99999,9",,,,,"MET054METAR ZBAA 131600Z VRB01MPS CAVOK M08/M16 Q1025 NOSIG="
"54511099999","2022-01-13T16:30:00","4","40.080111","116.584556","35.35","BEIJING CAPITAL INTERNATIONAL AIRPORT, CH","FM-15","99999","V020","050,1,N,0010,1","99999,9,9,Y","009900,5,9,9","-0070,1","-0160,1","99999,9",,,,,,,,,,,,,"10250,1,99999,9",,,,,"MET054METAR ZBAA 131630Z 05001MPS CAVOK M07/M16 Q1025 NOSIG="
"54511099999","2022-01-13T17:00:00","4","40.080111","116.584556","35.35","BEIJING CAPITAL INTERNATIONAL AIRPORT, CH","FM-15","99999","V020","999,9,V,0010,1","99999,9,9,Y","009900,5,9,9","-0070,1","-0160,1","99999,9",,,,,,,,,,,,,"10250,1,99999,9",,,,,"MET054METAR ZBAA 131700Z VRB01MPS CAVOK M07/M16 Q1025 NOSIG="
"54511099999","2022-01-13T17:30:00","4","40.080111","116.584556","35.35","BEIJING CAPITAL INTERNATIONAL AIRPORT, CH","FM-15","99999","V020","070,1,N,0010,1","99999,9,9,Y","009900,5,9,9","-0060,1","-0160,1","99999,9",,,,,,,,,,,,,"10250,1,99999,9",,,,,"MET054METAR ZBAA 131730Z 07001MPS CAVOK M06/M16 Q1025 NOSIG="
"54511099999","2022-01-13T18:00:00","4","40.080111","116.584556","35.35","BEIJING CAPITAL INTERNATIONAL AIRPORT, CH","FM-12","99999","V020","193,1,N,0011,1","99999,9,9,9","012000,1,9,9","-0054,1","-0157,1","10256,1","06,9999,9,9","12,9999,9,9","24,9999,9,9",,"0,1,99,9","0,1,99,9",,,,"999,-0140,9","240,M,+0039,1","240,N,-0085,1","99999,9,10212,1","7,1,005,1,-054,1","00,1","0059,1","4,12,0059,1,259","SYN004BUFR"
"54511099999","2022-01-13T18:00:00","4","40.080111","116.584556","35.35","BEIJING CAPITAL INTERNATIONAL AIRPORT, CH","FM-15","99999","V020","060,1,N,0010,1","99999,9,9,Y","009900,5,9,9","-0090,1","-0160,1","99999,9",,,,,,,,,,,,,"10250,1,99999,9",,,,,"MET054METAR ZBAA 131800Z 06001MPS CAVOK M09/M16 Q1025 NOSIG="
"54511099999","2022-01-13T18:30:00","4","40.080111","116.584556","35.35","BEIJING CAPITAL INTERNATIONAL AIRPORT, CH","FM-15","99999","V020","040,1,N,0010,1","99999,9,9,Y","009900,5,9,9","-0100,1","-0160,1","99999,9",,,,,,,,,,,,,"10250,1,99999,9",,,,,"MET054METAR ZBAA 131830Z 04001MPS CAVOK M10/M16 Q1025 NOSIG="
"54511099999","2022-01-13T19:00:00","4","40.080111","116.584556","35.35","BEIJING CAPITAL INTERNATIONAL AIRPORT, CH","FM-15","99999","V020","070,1,N,0010,1","99999,9,9,Y","009900,5,9,9","-0100,1","-0160,1","99999,9",,,,,,,,,,,,,"10250,1,99999,9",,,,,"MET054METAR ZBAA 131900Z 07001MPS CAVOK M10/M16 Q1025 NOSIG="
"54511099999","2022-01-13T19:30:00","4","40.080111","116.584556","35.35","BEIJING CAPITAL INTERNATIONAL AIRPORT, CH","FM-15","99999","V020","999,9,V,0010,1","99999,9,9,Y","009900,5,9,9","-0100,1","-0150,1","99999,9",,,,,,,,,,,,,"10250,1,99999,9",,,,,"MET054METAR ZBAA 131930Z VRB01MPS CAVOK M10/M15 Q1025 NOSIG="
"54511099999","2022-01-13T20:00:00","4","40.080111","116.584556","35.35","BEIJING CAPITAL INTERNATIONAL AIRPORT, CH","FM-15","99999","V020","999,9,V,0010,1","99999,9,9,Y","009900,5,9,9","-0100,1","-0160,1","99999,9",,,,,,,,,,,,,"10240,1,99999,9",,,,,"MET054METAR ZBAA 132000Z VRB01MPS CAVOK M10/M16 Q1024 NOSIG="
"54511099999","2022-01-13T20:30:00","4","40.080111","116.584556","35.35","BEIJING CAPITAL INTERNATIONAL AIRPORT, CH","FM-15","99999","V020","999,9,V,0010,1","99999,9,9,Y","009900,5,9,9","-0110,1","-0160,1","99999,9",,,,,,,,,,,,,"10240,1,99999,9",,,,,"MET054METAR ZBAA 132030Z VRB01MPS CAVOK M11/M16 Q1024 NOSIG="
"54511099999","2022-01-13T21:00:00","4","40.080111","116.584556","35.35","BEIJING CAPITAL INTERNATIONAL AIRPORT, CH","FM-12","99999","V020","112,1,N,0003,1","99999,9,9,9","011000,1,9,9","-0075,1","-0141,1","10244,1","06,9999,9,9","12,9999,9,9","24,9999,9,9",,,,,,,"999,-0150,9","240,M,+0039,1","240,N,-0085,1","99999,9,10200,1","7,1,012,1,-061,1","00,1",,"4,12,0037,1,208","SYN004BUFR"
"54511099999","2022-01-13T21:00:00","4","40.080111","116.584556","35.35","BEIJING CAPITAL INTERNATIONAL AIRPORT, CH","FM-15","99999","V020","999,9,V,0010,1","99999,9,9,Y","009900,5,9,9","-0110,1","-0150,1","99999,9",,,,,,,,,,,,,"10240,1,99999,9",,,,,"MET054METAR ZBAA 132100Z VRB01MPS CAVOK M11/M15 Q1024 NOSIG="
"54511099999","2022-01-13T21:30:00","4","40.080111","116.584556","35.35","BEIJING CAPITAL INTERNATIONAL AIRPORT, CH","FM-15","99999","V020","050,1,N,0010,1","99999,9,9,Y","009900,5,9,9","-0110,1","-0150,1","99999,9",,,,,,,,,,,,,"10240,1,99999,9",,,,,"MET054METAR ZBAA 132130Z 05001MPS CAVOK M11/M15 Q1024 NOSIG="
