"STATION","DATE","SOURCE","LATITUDE","LONGITUDE","ELEVATION","NAME","REPORT_TYPE","CALL_SIGN","QUALITY_CONTROL","WND","CIG","VIS","TMP","DEW","SLP","ED1","GA1","GA2","GE1","GF1","MA1","MW1","MW2","OC1","REM"
"58321199999","2022-01-01T00:00:00","4","31.143378","121.805214","3.96","PUDONG, CH","FM-15","99999","V020","090,1,V,0030,1","99999,9,9,Y","009900,5,9,9","+0080,1","+0040,1","99999,9",,,,,,"10300,1,99999,9",,,,"MET060METAR ZSPD 010000Z 09003MPS 010V110 CAVOK 08/04 Q1030 NOSIG="
"58321199999","2022-01-01T00:30:00","4","31.143378","121.805214","3.96","PUDONG, CH","FM-15","99999","V020","090,1,N,0030,1","99999,9,9,Y","009900,5,9,9","+0090,1","+0040,1","99999,9",,,,,,"10300,1,99999,9",,,,"MET052METAR ZSPD 010030Z 09003MPS CAVOK 09/04 Q1030 NOSIG="
"58321199999","2022-01-01T01:00:00","4","31.143378","121.805214","3.96","PUDONG, CH","FM-15","99999","V020","999,9,V,0040,1","99999,9,9,Y","009900,5,9,9","+0090,1","+0030,1","99999,9",,,,,,"10300,1,99999,9",,,,"MET052METAR ZSPD 010100Z VRB04MPS CAVOK 09/03 Q1030 NOSIG="
"58321199999","2022-01-01T01:30:00","4","31.143378","121.805214","3.96","PUDONG, CH","FM-15","99999","V020","100,1,N,0040,1","99999,9,9,Y","009900,5,9,9","+0100,1","+0040,1","99999,9",,,,,,"10300,1,99999,9",,,,"MET052METAR ZSPD 010130Z 10004MPS CAVOK 10/04 Q1030 NOSIG="
"58321199999","2022-01-01T02:00:00","4","31.143378","121.805214","3.96","PUDONG, CH","FM-15","99999","V020","110,1,N,0050,1","99999,9,9,Y","009900,5,9,9","+0100,1","+0030,1","99999,9",,,,,,"10300,1,99999,9",,,,"MET052METAR ZSPD 010200Z 11005MPS CAVOK 10/03 Q1030 NOSIG="
"58321199999","2022-01-01T02:30:00","4","31.143378","121.805214","3.96","PUDONG, CH","FM-15","99999","V020","120,1,V,0040,1","99999,9,9,Y","009900,5,9,9","+0110,1","+0030,1","99999,9",,,,,,"10300,1,99999,9",,,,"MET060METAR ZSPD 010230Z 12004MPS 090V150 CAVOK 11/03 Q1030 NOSIG="
"58321199999","2022-01-01T03:00:00","4","31.143378","121.805214","3.96","PUDONG, CH","FM-15","99999","V020","110,1,V,0050,1","99999,9,9,Y","009900,5,9,9","+0110,1","+0040,1","99999,9",,,,,,"10290,1,99999,9",,,,"MET060METAR ZSPD 010300Z 11005MPS 100V210 CAVOK 11/04 Q1029 NOSIG="
"58321199999","2022-01-01T03:30:00","4","31.143378","121.805214","3.96","PUDONG, CH","FM-15","99999","V020","110,1,N,0040,1","99999,9,9,Y","009900,5,9,9","+0100,1","+0030,1","99999,9",,,,,,"10290,1,99999,9",,,,"MET052METAR ZSPD 010330Z 11004MPS CAVOK 10/03 Q1029 NOSIG="
"58321199999","2022-01-01T04:00:00","4","31.143378","121.805214","3.96","PUDONG, CH","FM-15","99999","V020","110,1,N,0040,1","99999,9,9,Y","009900,5,9,9","+0100,1","+0040,1","99999,9",,,,,,"10280,1,99999,9",,,,"MET052METAR ZSPD 010400Z 11004MPS CAVOK 10/04 Q1028 NOSIG="
"58321199999","2022-01-01T04:30:00","4","31.143378","121.805214","3.96","PUDONG, CH","FM-15","99999","V020","110,1,N,0030,1","99999,9,9,Y","009900,5,9,9","+0100,1","+0040,1","99999,9",,,,,,"10280,1,99999,9",,,,"MET052METAR ZSPD 010430Z 11003MPS CAVOK 10/04 Q1028 NOSIG="
"58321199999","2022-01-01T05:00:00","4","31.143378","121.805214","3.96","PUDONG, CH","FM-15","99999","V020","110,1,N,0030,1","99999,9,9,Y","009900,5,9,9","+0100,1","+0040,1","99999,9",,,,,,"10270,1,99999,9",,,,"MET052METAR ZSPD 010500Z 11003MPS CAVOK 10/04 Q1027 NOSIG="
"58321199999","2022-01-01T05:30:00","4","31.143378","121.805214","3.96","PUDONG, CH","FM-15","99999","V020","100,1,N,0030,1","99999,9,9,Y","009900,5,9,9","+0100,1","+0050,1","99999,9",,,,,,"10270,1,99999,9",,,,"MET052METAR ZSPD 010530Z 10003MPS CAVOK 10/05 Q1027 NOSIG="
"58321199999","2022-01-01T06:00:00","4","31.143378","121.805214","3.96","PUDONG, CH","FM-15","99999","V020","100,1,N,0030,1","99999,9,9,Y","009900,5,9,9","+0100,1","+0050,1","99999,9",,,,,,"10270,1,99999,9",,,,"MET052METAR ZSPD 010600Z 10003MPS CAVOK 10/05 Q1027 NOSIG="
"58321199999","2022-01-01T06:30:00","4","31.143378","121.805214","3.96","PUDONG, CH","FM-15","99999","V020","120,1,V,0030,1","99999,9,9,Y","009900,5,9,9","+0100,1","+0050,1","99999,9",,,,,,"10260,1,99999,9",,,,"MET060METAR ZSPD 010630Z 12003MPS 090V220 CAVOK 10/05 Q1026 NOSIG="
"58321199999","2022-01-01T07:00:00","4","31.143378","121.805214","3.96","PUDONG, CH","FM-15","99999","V020","110,1,N,0020,1","99999,9,9,Y","009900,5,9,9","+0100,1","+0050,1","99999,9",,,,,,"10270,1,99999,9",,,,"MET052METAR ZSPD 010700Z 11002MPS CAVOK 10/05 Q1027 NOSIG="
"58321199999","2022-01-01T07:30:00","4","31.143378","121.805214","3.96","PUDONG, CH","FM-15","99999","V020","120,1,N,0030,1","99999,9,9,Y","009900,5,9,9","+0100,1","+0050,1","99999,9",,,,,,"10270,1,99999,9",,,,"MET052METAR ZSPD 010730Z 12003MPS CAVOK 10/05 Q1027 NOSIG="
"58321199999","2022-01-01T08:00:00","4","31.143378","121.805214","3.96","PUDONG, CH","FM-15","99999","V020","110,1,N,0020,1","99999,9,9,Y","009900,5,9,9","+0100,1","+0060,1","99999,9",,,,,,"10270,1,99999,9",,,,"MET052METAR ZSPD 010800Z 11002MPS CAVOK 10/06 Q1027 NOSIG="
"58321199999","2022-01-01T08:30:00","4","31.143378","121.805214","3.96","PUDONG, CH","FM-15","99999","V020","120,1,N,0020,1","99999,9,9,Y","009900,5,9,9","+0090,1","+0060,1","99999,9",,,,,,"10270,1,99999,9",,,,"MET052METAR ZSPD 010830Z 12002MPS CAVOK 09/06 Q1027 NOSIG="
"58321199999","2022-01-01T09:00:00","4","31.143378","121.805214","3.96","PUDONG, CH","FM-15","99999","V020","140,1,N,0020,1","99999,9,9,Y","009900,5,9,9","+0090,1","+0060,1","99999,9",,,,,,"10270,1,99999,9",,,,"MET052METAR ZSPD 010900Z 14002MPS CAVOK 09/06 Q1027 NOSIG="
"58321199999","2022-01-01T09:30:00","4","31.143378","121.805214","3.96","PUDONG, CH","FM-15","99999","V020","160,1,N,0010,1","99999,9,9,Y","009900,5,9,9","+0090,1","+0060,1","99999,9",,,,,,"10270,1,99999,9",,,,"MET052METAR ZSPD 010930Z 16001MPS CAVOK 09/06 Q1027 NOSIG="
"58321199999","2022-01-01T10:00:00","4","31.143378","121.805214","3.96","PUDONG, CH","FM-15","99999","V020","190,1,N,0020,1","99999,9,9,Y","009900,5,9,9","+0090,1","+0060,1","99999,9",,,,,,"10270,1,99999,9",,,,"MET052METAR ZSPD 011000Z 19002MPS CAVOK 09/06 Q1027 NOSIG="
"58321199999","2022-01-01T10:30:00","4","31.143378","121.805214","3.96","PUDONG, CH","FM-15","99999","V020","200,1,N,0020,1","99999,9,9,Y","009900,5,9,9","+0080,1","+0060,1","99999,9",,,,,,"10270,1,99999,9",,,,"MET052METAR ZSPD 011030Z 20002MPS CAVOK 08/06 Q1027 NOSIG="
"58321199999","2022-01-01T11:00:00","4","31.143378","121.805214","3.96","PUDONG, CH","FM-15","99999","V020","190,1,N,0020,1","99999,9,9,Y","009900,5,9,9","+0080,1","+0060,1","99999,9",,,,,,"10270,1,99999,9",,,,"MET052METAR ZSPD 011100Z 19002MPS CAVOK 08/06 Q1027 NOSIG="
"58321199999","2022-01-01T11:30:00","4","31.143378","121.805214","3.96","PUDONG, CH","FM-15","99999","V020","190,1,N,0020,1","99999,9,9,Y","009900,5,9,9","+0080,1","+0060,1","99999,9",,,,,,"10270,1,99999,9",,,,"MET052METAR ZSPD 011130Z 19002MPS CAVOK 08/06 Q1027 NOSIG="
"58321199999","2022-01-01T12:00:00","4","31.143378","121.805214","3.96","PUDONG, CH","FM-15","99999","V020","220,1,N,0030,1","99999,9,9,Y","009900,5,9,9","+0090,1","+0060,1","99999,9",,,,,,"10270,1,99999,9",,,,"MET052METAR ZSPD 011200Z 22003MPS CAVOK 09/06 Q1027 NOSIG="
"58321199999","2022-01-01T12:30:00","4","31.143378","121.805214","3.96","PUDONG, CH","FM-15","99999","V020","220,1,N,0020,1","99999,9,9,Y","009900,5,9,9","+0090,1","+0050,1","99999,9",,,,,,"10270,1,99999,9",,,,"MET052METAR ZSPD 011230Z 22002MPS CAVOK 09/05 Q1027 NOSIG="
"58321199999","2022-01-01T13:00:00","4","31.143378","121.805214","3.96","PUDONG, CH","FM-15","99999","V020","250,1,V,0020,1","99999,9,9,Y","009900,5,9,9","+0090,1","+0050,1","99999,9",,,,,,"10270,1,99999,9",,,,"MET060METAR ZSPD 011300Z 25002MPS 210V270 CAVOK 09/05 Q1027 NOSIG="
"58321199999","2022-01-01T13:30:00","4","31.143378","121.805214","3.96","PUDONG, CH","FM-15","99999","V020","240,1,N,0030,1","99999,9,9,Y","009900,5,9,9","+0090,1","+0060,1","99999,9",,,,,,"10270,1,99999,9",,,,"MET052METAR ZSPD 011330Z 24003MPS CAVOK 09/06 Q1027 NOSIG="
"58321199999","2022-01-01T14:00:00","4","31.143378","121.805214","3.96","PUDONG, CH","FM-15","99999","V020","260,1,N,0020,1","99999,9,9,Y","009900,5,9,9","+0080,1","+0060,1","99999,9",,,,,,"10270,1,99999,9",,,,"MET052METAR ZSPD 011400Z 26002MPS CAVOK 08/06 Q1027 NOSIG="
"58321199999","2022-01-01T14:30:00","4","31.143378","121.805214","3.96","PUDONG, CH","FM-15","99999","V020","250,1,V,0020,1","99999,9,9,Y","009900,5,9,9","+0080,1","+0060,1","99999,9",,,,,,"10270,1,99999,9",,,,"MET060METAR ZSPD 011430Z 25002MPS 220V280 CAVOK 08/06 Q1027 NOSIG="
"58321199999","2022-01-01T15:00:00","4","31.143378","121.805214","3.96","PUDONG, CH","FM-15","99999","V020","240,1,N,0030,1","99999,9,9,Y","009900,5,9,9","+0080,1","+0050,1","99999,9",,,,,,"10270,1,99999,9",,,,"MET052METAR ZSPD 011500Z 24003MPS CAVOK 08/05 Q1027 NOSIG="
"58321199999","2022-01-01T15:30:00","4","31.143378","121.805214","3.96","PUDONG, CH","FM-15","99999","V020","240,1,N,0040,1","99999,9,9,Y","009900,5,9,9","+0080,1","+0040,1","99999,9",,,,,,"10270,1,99999,9",,,,"MET052METAR ZSPD 011530Z 24004MPS CAVOK 08/04 Q1027 NOSIG="
"58321199999","2022-01-01T16:00:00","4","31.143378","121.805214","3.96","PUDONG, CH","FM-15","99999","V020","260,1,N,0030,1","99999,9,9,Y","009900,5,9,9","+0080,1","+0030,1","99999,9",,,,,,"10270,1,99999,9",,,,"MET052METAR ZSPD 011600Z 26003MPS CAVOK 08/03 Q1027 NOSIG="
"58321199999","2022-01-01T16:30:00","4","31.143378","121.805214","3.96","PUDONG, CH","FM-15","99999","V020","260,1,N,0030,1","99999,9,9,Y","009900,5,9,9","+0080,1","+0030,1","99999,9",,,,,,"10270,1,99999,9",,,,"MET052METAR ZSPD 011630Z 26003MPS CAVOK 08/03 Q1027 NOSIG="
"58321199999","2022-01-01T17:00:00","4","31.143378","121.805214","3.96","PUDONG, CH","FM-15","99999","V020","260,1,N,0030,1","99999,9,9,Y","009900,5,9,9","+0070,1","+0020,1","99999,9",,,,,,"10270,1,99999,9",,,,"MET052METAR ZSPD 011700Z 26003MPS CAVOK 07/02 Q1027 NOSIG="
"58321199999","2022-01-01T17:30:00","4","31.143378","121.805214","3.96","PUDONG, CH","FM-15","99999","V020","270,1,V,0030,1","99999,9,9,Y","009900,5,9,9","+0060,1","+0020,1","99999,9",,,,,,"10270,1,99999,9",,,,"MET060METAR ZSPD 011730Z 27003MPS 230V290 CAVOK 06/02 Q1027 NOSIG="
"58321199999","2022-01-01T18:00:00","4","31.143378","121.805214","3.96","PUDONG, CH","FM-15","99999","V020","280,1,N,0030,1","99999,9,9,Y","009900,5,9,9","+0060,1","+0020,1","99999,9",,,,,,"10270,1,99999,9",,,,"MET052METAR ZSPD 011800Z 28003MPS CAVOK 06/02 Q1027 NOSIG="
"58321199999","2022-01-01T18:30:00","4","31.143378","121.805214","3.96","PUDONG, CH","FM-15","99999","V020","280,1,N,0040,1","99999,9,9,Y","009900,5,9,9","+0060,1","+0020,1","99999,9",,,,,,"10270,1,99999,9",,,,"MET052METAR ZSPD 011830Z 28004MPS CAVOK 06/02 Q1027 NOSIG="
"58321199999","2022-01-01T19:00:00","4","31.143378","121.805214","3.96","PUDONG, CH","FM-15","99999","V020","280,1,N,0040,1","99999,9,9,Y","009900,5,9,9","+0060,1","+0020,1","99999,9",,,,,,"10270,1,99999,9",,,,"MET052METAR ZSPD 011900Z 28004MPS CAVOK 06/02 Q1027 NOSIG="
"58321199999","2022-01-01T19:30:00","4","31.143378","121.805214","3.96","PUDONG, CH","FM-15","99999","V020","290,1,N,0030,1","99999,9,9,Y","009900,5,9,9","+0050,1","+0020,1","99999,9",,,,,,"10270,1,99999,9",,,,"MET052METAR ZSPD 011930Z 29003MPS CAVOK 05/02 Q1027 NOSIG="
"58321199999","2022-01-01T20:00:00","4","31.143378","121.805214","3.96","PUDONG, CH","FM-15","99999","V020","300,1,N,0030,1","99999,9,9,Y","009900,5,9,9","+0050,1","+0010,1","99999,9",,,,,,"10270,1,99999,9",,,,"MET052METAR ZSPD 012000Z 30003MPS CAVOK 05/01 Q1027 NOSIG="
"58321199999","2022-01-01T20:30:00","4","31.143378","121.805214","3.96","PUDONG, CH","FM-15","99999","V020","290,1,N,0030,1","99999,9,9,Y","009900,5,9,9","+0050,1","+0010,1","99999,9",,,,,,"10270,1,99999,9",,,,"MET052METAR ZSPD 012030Z 29003MPS CAVOK 05/01 Q1027 NOSIG="
"58321199999","2022-01-01T21:00:00","4","31.143378","121.805214","3.96","PUDONG, CH","FM-15","99999","V020","300,1,N,0020,1","22000,1,9,N","007000,1,9,9","+0040,1","+0010,1","99999,9",,,,,"00,99,1,99,9,99,9,99999,9,99,9,99,9","10280,1,99999,9",,,,"MET055METAR ZSPD 012100Z 30002MPS 7000 NSC 04/01 Q1028 NOSIG="
"58321199999","2022-01-01T21:30:00","4","31.143378","121.805214","3.96","PUDONG, CH","FM-15","99999","V020","310,1,N,0030,1","22000,1,9,N","007000,1,9,9","+0030,1","+0010,1","99999,9",,,,,"00,99,1,99,9,99,9,99999,9,99,9,99,9","10280,1,99999,9",,,,"MET055METAR ZSPD 012130Z 31003MPS 7000 NSC 03/01 Q1028 NOSIG="
"58321199999","2022-01-01T22:00:00","4","31.143378","121.805214","3.96","PUDONG, CH","FM-15","99999","V020","290,1,N,0040,1","22000,1,9,N","007000,1,9,9","+0050,1","+0010,1","99999,9",,,,,"00,99,1,99,9,99,9,99999,9,99,9,99,9","10280,1,99999,9",,,,"MET055METAR ZSPD 012200Z 29004MPS 7000 NSC 05/01 Q1028 NOSIG="
"58321199999","2022-01-01T22:30:00","4","31.143378","121.805214","3.96","PUDONG, CH","FM-15","99999","V020","300,1,N,0040,1","22000,1,9,N","006000,1,9,9","+0040,1","+0010,1","99999,9",,,,,"00,99,1,99,9,99,9,99999,9,99,9,99,9","10290,1,99999,9",,,,"MET055METAR ZSPD 012230Z 30004MPS 6000 NSC 04/01 Q1029 NOSIG="
"58321199999","2022-01-01T23:00:00","4","31.143378","121.805214","3.96","PUDONG, CH","FM-15","99999","V020","320,1,V,0020,1","22000,1,9,N","005000,1,9,9","+0030,1","+0010,1","99999,9",,,,,"00,99,1,99,9,99,9,99999,9,99,9,99,9","10290,1,99999,9","10,1",,,"MET066METAR ZSPD 012300Z 32002MPS 290V350 5000 BR NSC 03/01 Q1029 NOSIG="
"58321199999","2022-01-01T23:30:00","4","31.143378","121.805214","3.96","PUDONG, CH","FM-15","99999","V020","300,1,N,0020,1","22000,1,9,N","005000,1,9,9","+0040,1","+0010,1","99999,9",,,,,"00,99,1,99,9,99,9,99999,9,99,9,99,9","10290,1,99999,9","10,1",,,"MET058METAR ZSPD 012330Z 30002MPS 5000 BR NSC 04/01 Q1029 NOSIG="
"58321199999","2022-01-02T00:00:00","4","31.143378","121.805214","3.96","PUDONG, CH","FM-15","99999","V020","300,1,N,0020,1","22000,1,9,N","005000,1,9,9","+0050,1","+0020,1","99999,9",,,,,"00,99,1,99,9,99,9,99999,9,99,9,99,9","10290,1,99999,9","10,1",,,"MET058METAR ZSPD 020000Z 30002MPS 5000 BR NSC 05/02 Q1029 NOSIG="
"58321199999","2022-01-02T00:30:00","4","31.143378","121.805214","3.96","PUDONG, CH","FM-15","99999","V020","320,1,N,0030,1","22000,1,9,N","005000,1,9,9","+0070,1","+0030,1","99999,9",,,,,"00,99,1,99,9,99,9,99999,9,99,9,99,9","10300,1,99999,9","10,1",,,"MET058METAR ZSPD 020030Z 32003MPS 5000 BR NSC 07/03 Q1030 NOSIG="
"58321199999","2022-01-02T01:00:00","4","31.143378","121.805214","3.96","PUDONG, CH","FM-15","99999","V020","330,1,N,0040,1","22000,1,9,N","005000,1,9,9","+0080,1","+0030,1","99999,9",,,,,"00,99,1,99,9,99,9,99999,9,99,9,99,9","10300,1,99999,9","05,1",,,"MET058METAR ZSPD 020100Z 33004MPS 5000 HZ NSC 08/03 Q1030 NOSIG="
"58321199999","2022-01-02T01:30:00","4","31.143378","121.805214","3.96","PUDONG, CH","FM-15","99999","V020","330,1,N,0050,1","22000,1,9,N","005000,1,9,9","+0090,1","+0030,1","99999,9",,,,,"00,99,1,99,9,99,9,99999,9,99,9,99,9","10300,1,99999,9","05,1",,,"MET058METAR ZSPD 020130Z 33005MPS 5000 HZ NSC 09/03 Q1030 NOSIG="
"58321199999","2022-01-02T02:00:00","4","31.143378","121.805214","3.96","PUDONG, CH","FM-15","99999","V020","350,1,N,0070,1","22000,1,9,N","006000,1,9,9","+0100,1","+0020,1","99999,9",,,,,"00,99,1,99,9,99,9,99999,9,99,9,99,9","10300,1,99999,9",,,,"MET055METAR ZSPD 020200Z 35007MPS 6000 NSC 10/02 Q1030 NOSIG="
"58321199999","2022-01-02T02:30:00","4","31.143378","121.805214","3.96","PUDONG, CH","FM-15","99999","V020","350,1,N,0060,1","22000,1,9,N","007000,1,9,9","+0100,1","+0020,1","99999,9",,,,,"00,99,1,99,9,99,9,99999,9,99,9,99,9","10300,1,99999,9",,,,"MET055METAR ZSPD 020230Z 35006MPS 7000 NSC 10/02 Q1030 NOSIG="
"58321199999","2022-01-02T03:00:00","4","31.143378","121.805214","3.96","PUDONG, CH","FM-15","99999","V020","360,1,N,0060,1","22000,1,9,N","007000,1,9,9","+0110,1","+0020,1","99999,9",,,,,"00,99,1,99,9,99,9,99999,9,99,9,99,9","10300,1,99999,9",,,,"MET055METAR ZSPD 020300Z 36006MPS 7000 NSC 11/02 Q1030 NOSIG="
"58321199999","2022-01-02T03:30:00","4","31.143378","121.805214","3.96","PUDONG, CH","FM-15","99999","V020","010,1,N,0060,1","22000,1,9,N","007000,1,9,9","+0110,1","+0020,1","99999,9",,,,,"00,99,1,99,9,99,9,99999,9,99,9,99,9","10290,1,99999,9",,,,"MET055METAR ZSPD 020330Z 01006MPS 7000 NSC 11/02 Q1029 NOSIG="
"58321199999","2022-01-02T04:00:00","4","31.143378","121.805214","3.96","PUDONG, CH","FM-15","99999","V020","360,1,V,0060,1","22000,1,9,N","007000,1,9,9","+0110,1","+0020,1","99999,9",,,,,"00,99,1,99,9,99,9,99999,9,99,9,99,9","10290,1,99999,9",,,,"MET063METAR ZSPD 020400Z 36006MPS 320V020 7000 NSC 11/02 Q1029 NOSIG="
"58321199999","2022-01-02T04:30:00","4","31.143378","121.805214","3.96","PUDONG, CH","FM-15","99999","V020","360,1,N,0060,1","22000,1,9,N","007000,1,9,9","+0110,1","+0020,1","99999,9",,,,,"00,99,1,99,9,99,9,99999,9,99,9,99,9","10280,1,99999,9",,,,"MET055METAR ZSPD 020430Z 36006MPS 7000 NSC 11/02 Q1028 NOSIG="
"58321199999","2022-01-02T05:00:00","4","31.143378","121.805214","3.96","PUDONG, CH","FM-15","99999","V020","010,1,V,0050,1","22000,1,9,N","007000,1,9,9","+0110,1","+0020,1","99999,9",,,,,"00,99,1,99,9,99,9,99999,9,99,9,99,9","10280,1,99999,9",,,,"MET063METAR ZSPD 020500Z 01005MPS 330V030 7000 NSC 11/02 Q1028 NOSIG="
"58321199999","2022-01-02T05:30:00","4","31.143378","121.805214","3.96","PUDONG, CH","FM-15","99999","V020","010,1,V,0050,1","22000,1,9,N","007000,1,9,9","+0110,1","+0020,1","99999,9",,,,,"00,99,1,99,9,99,9,99999,9,99,9,99,9","10270,1,99999,9",,,,"MET063METAR ZSPD 020530Z 01005MPS 340V040 7000 NSC 11/02 Q1027 NOSIG="
"58321199999","2022-01-02T06:00:00","4","31.143378","121.805214","3.96","PUDONG, CH","FM-15","99999","V020","010,1,V,0050,1","22000,1,9,N","007000,1,9,9","+0110,1","+0020,1","99999,9",,,,,"00,99,1,99,9,99,9,99999,9,99,9,99,9","10270,1,99999,9",,,,"MET063METAR ZSPD 020600Z 01005MPS 330V050 7000 NSC 11/02 Q1027 NOSIG="
"58321199999","2022-01-02T06:30:00","4","31.143378","121.805214","3.96","PUDONG, CH","FM-15","99999","V020","030,1,V,0060,1","22000,1,9,N","007000,1,9,9","+0110,1","+0030,1","99999,9",,,,,"00,99,1,99,9,99,9,99999,9,99,9,99,9","10270,1,99999,9",,,,"MET063METAR ZSPD 020630Z 03006MPS 360V070 7000 NSC 11/03 Q1027 NOSIG="
"58321199999","2022-01-02T07:00:00","4","31.143378","121.805214","3.96","PUDONG, CH","FM-15","99999","V020","040,1,N,0060,1","22000,1,9,N","007000,1,9,9","+0100,1","+0040,1","99999,9",,,,,"00,99,1,99,9,99,9,99999,9,99,9,99,9","10270,1,99999,9",,,,"MET055METAR ZSPD 020700Z 04006MPS 7000 NSC 10/04 Q1027 NOSIG="
"58321199999","2022-01-02T07:30:00","4","31.143378","121.805214","3.96","PUDONG, CH","FM-15","99999","V020","030,1,N,0060,1","22000,1,9,N","008000,1,9,9","+0100,1","+0030,1","99999,9",,,,,"00,99,1,99,9,99,9,99999,9,99,9,99,9","10270,1,99999,9",,,,"MET055METAR ZSPD 020730Z 03006MPS 8000 NSC 10/03 Q1027 NOSIG="
"58321199999","2022-01-02T08:00:00","4","31.143378","121.805214","3.96","PUDONG, CH","FM-15","99999","V020","040,1,N,0060,1","99999,9,9,Y","009900,5,9,9","+0090,1","+0040,1","99999,9",,,,,,"10280,1,99999,9",,,,"MET052METAR ZSPD 020800Z 04006MPS CAVOK 09/04 Q1028 NOSIG="
"58321199999","2022-01-02T08:30:00","4","31.143378","121.805214","3.96","PUDONG, CH","FM-15","99999","V020","040,1,N,0050,1","99999,9,9,Y","009900,5,9,9","+0090,1","+0030,1","99999,9",,,,,,"10280,1,99999,9",,,,"MET052METAR ZSPD 020830Z 04005MPS CAVOK 09/03 Q1028 NOSIG="
"58321199999","2022-01-02T09:00:00","4","31.143378","121.805214","3.96","PUDONG, CH","FM-15","99999","V020","040,1,N,0050,1","99999,9,9,Y","009900,5,9,9","+0090,1","+0030,1","99999,9",,,,,,"10280,1,99999,9",,,,"MET052METAR ZSPD 020900Z 04005MPS CAVOK 09/03 Q1028 NOSIG="
"58321199999","2022-01-02T09:30:00","4","31.143378","121.805214","3.96","PUDONG, CH","FM-15","99999","V020","030,1,N,0050,1","99999,9,9,Y","009900,5,9,9","+0080,1","+0030,1","99999,9",,,,,,"10280,1,99999,9",,,,"MET052METAR ZSPD 020930Z 03005MPS CAVOK 08/03 Q1028 NOSIG="
"58321199999","2022-01-02T10:00:00","4","31.143378","121.805214","3.96","PUDONG, CH","FM-15","99999","V020","030,1,N,0040,1","99999,9,9,Y","009900,5,9,9","+0080,1","+0040,1","99999,9",,,,,,"10280,1,99999,9",,,,"MET052METAR ZSPD 021000Z 03004MPS CAVOK 08/04 Q1028 NOSIG="
"58321199999","2022-01-02T10:30:00","4","31.143378","121.805214","3.96","PUDONG, CH","FM-15","99999","V020","020,1,N,0040,1","99999,9,9,Y","009900,5,9,9","+0080,1","+0040,1","99999,9",,,,,,"10290,1,99999,9",,,,"MET052METAR ZSPD 021030Z 02004MPS CAVOK 08/04 Q1029 NOSIG="
"58321199999","2022-01-02T11:00:00","4","31.143378","121.805214","3.96","PUDONG, CH","FM-15","99999","V020","010,1,N,0030,1","99999,9,9,Y","009900,5,9,9","+0080,1","+0030,1","99999,9",,,,,,"10290,1,99999,9",,,,"MET052METAR ZSPD 021100Z 01003MPS CAVOK 08/03 Q1029 NOSIG="
"58321199999","2022-01-02T11:30:00","4","31.143378","121.805214","3.96","PUDONG, CH","FM-15","99999","V020","360,1,N,0030,1","99999,9,9,Y","009900,5,9,9","+0080,1","+0040,1","99999,9",,,,,,"10290,1,99999,9",,,,"MET052METAR ZSPD 021130Z 36003MPS CAVOK 08/04 Q1029 NOSIG="
"58321199999","2022-01-02T12:00:00","4","31.143378","121.805214","3.96","PUDONG, CH","FM-15","99999","V020","010,1,N,0030,1","99999,9,9,Y","009900,5,9,9","+0080,1","+0040,1","99999,9",,,,,,"10290,1,99999,9",,,,"MET052METAR ZSPD 021200Z 01003MPS CAVOK 08/04 Q1029 NOSIG="
"58321199999","2022-01-02T12:30:00","4","31.143378","121.805214","3.96","PUDONG, CH","FM-15","99999","V020","360,1,N,0030,1","99999,9,9,Y","009900,5,9,9","+0070,1","+0040,1","99999,9",,,,,,"10280,1,99999,9",,,,"MET052METAR ZSPD 021230Z 36003MPS CAVOK 07/04 Q1028 NOSIG="
"58321199999","2022-01-02T13:00:00","4","31.143378","121.805214","3.96","PUDONG, CH","FM-15","99999","V020","340,1,N,0030,1","22000,1,9,N","006000,1,9,9","+0050,1","+0030,1","99999,9",,,,,"00,99,1,99,9,99,9,99999,9,99,9,99,9","10280,1,99999,9",,,,"MET055METAR ZSPD 021300Z 34003MPS 6000 NSC 05/03 Q1028 NOSIG="
"58321199999","2022-01-02T13:30:00","4","31.143378","121.805214","3.96","PUDONG, CH","FM-15","99999","V020","330,1,N,0020,1","22000,1,9,N","005000,1,9,9","+0060,1","+0040,1","99999,9",,,,,"00,99,1,99,9,99,9,99999,9,99,9,99,9","10280,1,99999,9","10,1",,,"MET058METAR ZSPD 021330Z 33002MPS 5000 BR NSC 06/04 Q1028 NOSIG="
"58321199999","2022-01-02T14:00:00","4","31.143378","121.805214","3.96","PUDONG, CH","FM-15","99999","V020","330,1,N,0020,1","22000,1,9,N","005000,1,9,9","+0050,1","+0030,1","99999,9",,,,,"00,99,1,99,9,99,9,99999,9,99,9,99,9","10280,1,99999,9","10,1",,,"MET058METAR ZSPD 021400Z 33002MPS 5000 BR NSC 05/03 Q1028 NOSIG="
"58321199999","2022-01-02T14:30:00","4","31.143378","121.805214","3.96","PUDONG, CH","FM-15","99999","V020","340,1,N,0030,1","22000,1,9,N","005000,1,9,9","+0050,1","+0040,1","99999,9",,,,,"00,99,1,99,9,99,9,99999,9,99,9,99,9","10280,1,99999,9","10,1",,,"MET058METAR ZSPD 021430Z 34003MPS 5000 BR NSC 05/04 Q1028 NOSIG="
"58321199999","2022-01-02T15:00:00","4","31.143378","121.805214","3.96","PUDONG, CH","FM-15","99999","V020","340,1,N,0020,1","22000,1,9,N","005000,1,9,9","+0040,1","+0030,1","99999,9",,,,,"00,99,1,99,9,99,9,99999,9,99,9,99,9","10280,1,99999,9","10,1",,,"MET058METAR ZSPD 021500Z 34002MPS 5000 BR NSC 04/03 Q1028 NOSIG="
"58321199999","2022-01-02T15:30:00","4","31.143378","121.805214","3.96","PUDONG, CH","FM-15","99999","V020","310,1,N,0020,1","22000,1,9,N","005000,1,9,9","+0040,1","+0030,1","99999,9",,,,,"00,99,1,99,9,99,9,99999,9,99,9,99,9","10280,1,99999,9","10,1",,,"MET058METAR ZSPD 021530Z 31002MPS 5000 BR NSC 04/03 Q1028 NOSIG="
"58321199999","2022-01-02T16:00:00","4","31.143378","121.805214","3.96","PUDONG, CH","FM-15","99999","V020","300,1,N,0010,1","22000,1,9,N","005000,1,9,9","+0040,1","+0030,1","99999,9",,,,,"00,99,1,99,9,99,9,99999,9,99,9,99,9","10270,1,99999,9","10,1",,,"MET058METAR ZSPD 021600Z 30001MPS 5000 BR NSC 04/03 Q1027 NOSIG="
"58321199999","2022-01-02T16:30:00","4","31.143378","121.805214","3.96","PUDONG, CH","FM-15","99999","V020","999,9,V,0010,1","22000,1,9,N","004000,1,9,9","+0040,1","+0030,1","99999,9",,,,,"00,99,1,99,9,99,9,99999,9,99,9,99,9","10270,1,99999,9","10,1",,,"MET058METAR ZSPD 021630Z VRB01MPS 4000 BR NSC 04/03 Q1027 NOSIG="
"58321199999","2022-01-02T17:00:00","4","31.143378","121.805214","3.96","PUDONG, CH","FM-15","99999","V020","290,1,N,0020,1","22000,1,9,N","004000,1,9,9","+0040,1","+0020,1","99999,9",,,,,"00,99,1,99,9,99,9,99999,9,99,9,99,9","10270,1,99999,9","10,1",,,"MET058METAR ZSPD 021700Z 29002MPS 4000 BR NSC 04/02 Q1027 NOSIG="
"58321199999","2022-01-02T17:30:00","4","31.143378","121.805214","3.96","PUDONG, CH","FM-15","99999","V020","320,1,N,0020,1","22000,1,9,N","004000,1,9,9","+0030,1","+0020,1","99999,9",,,,,"00,99,1,99,9,99,9,99999,9,99,9,99,9","10270,1,99999,9","10,1",,,"MET058METAR ZSPD 021730Z 32002MPS 4000 BR NSC 03/02 Q1027 NOSIG="
"58321199999","2022-01-02T18:00:00","4","31.143378","121.805214","3.96","PUDONG, CH","FM-15","99999","V020","999,9,C,0000,1","22000,1,9,N","004000,1,9,9","+0030,1","+0020,1","99999,9",,,,,"00,99,1,99,9,99,9,99999,9,99,9,99,9","10270,1,99999,9","10,1",,,"MET070METAR ZSPD 021800Z 00000MPS 4000 BR NSC 03/02 Q1027 BECMG TL1930 2800="
"58321199999","2022-01-02T18:30:00","4","31.143378","121.805214","3.96","PUDONG, CH","FM-15","99999","V020","320,1,N,0010,1","22000,1,9,N","004000,1,9,9","+0030,1","+0020,1","99999,9",,,,,"00,99,1,99,9,99,9,99999,9,99,9,99,9","10270,1,99999,9","10,1",,,"MET058METAR ZSPD 021830Z 32001MPS 4000 BR NSC 03/02 Q1027 NOSIG="
"58321199999","2022-01-02T19:00:00","4","31.143378","121.805214","3.96","PUDONG, CH","FM-15","99999","V020","340,1,N,0020,1","22000,1,9,N","004000,1,9,9","+0030,1","+0020,1","99999,9",,,,,"00,99,1,99,9,99,9,99999,9,99,9,99,9","10270,1,99999,9","10,1",,,"MET070METAR ZSPD 021900Z 34002MPS 4000 BR NSC 03/02 Q1027 BECMG TL2030 2800="
"58321199999","2022-01-02T19:30:00","4","31.143378","121.805214","3.96","PUDONG, CH","FM-15","99999","V020","310,1,N,0010,1","22000,1,9,N","004000,1,9,9","+0020,1","+0020,1","99999,9",,,,,"00,99,1,99,9,99,9,99999,9,99,9,99,9","10260,1,99999,9","10,1",,,"MET058METAR ZSPD 021930Z 31001MPS 4000 BR NSC 02/02 Q1026 NOSIG="
"58321199999","2022-01-02T20:00:00","4","31.143378","121.805214","3.96","PUDONG, CH","FM-15","99999","V020","999,9,V,0010,1","22000,1,9,N","003500,1,9,9","+0030,1","+0030,1","99999,9",,,,,"00,99,1,99,9,99,9,99999,9,99,9,99,9","10260,1,99999,9","10,1",,,"MET070METAR ZSPD 022000Z VRB01MPS 3500 BR NSC 03/03 Q1026 BECMG TL2130 2800="
"58321199999","2022-01-02T20:30:00","4","31.143378","121.805214","3.96","PUDONG, CH","FM-15","99999","V020","999,9,C,0000,1","22000,1,9,N","003500,1,9,9","+0010,1","+0010,1","99999,9",,,,,"00,99,1,99,9,99,9,99999,9,99,9,99,9","10260,1,99999,9","10,1","11,1",,"MET063METAR ZSPD 022030Z 00000MPS 3500 PRFG BR NSC 01/01 Q1026 NOSIG="
"58321199999","2022-01-02T21:00:00","4","31.143378","121.805214","3.96","PUDONG, CH","FM-15","99999","V020","310,1,N,0010,1","22000,1,9,N","003500,1,9,9","+0020,1","+0010,1","99999,9",,,,,"00,99,1,99,9,99,9,99999,9,99,9,99,9","10260,1,99999,9","10,1",,,"MET070METAR ZSPD 022100Z 31001MPS 3500 BR NSC 02/01 Q1026 BECMG TL2230 2800="
"58321199999","2022-01-02T21:30:00","4","31.143378","121.805214","3.96","PUDONG, CH","FM-15","99999","V020","320,1,N,0010,1","22000,1,9,N","004000,1,9,9","+0020,1","+0020,1","99999,9",,,,,"00,99,1,99,9,99,9,99999,9,99,9,99,9","10260,1,99999,9","10,1",,,"MET058METAR ZSPD 022130Z 32001MPS 4000 BR NSC 02/02 Q1026 NOSIG="
"58321199999","2022-01-02T22:00:00","4","31.143378","121.805214","3.96","PUDONG, CH","FM-15","99999","V020","340,1,N,0020,1","22000,1,9,N","004000,1,9,9","+0020,1","+0020,1","99999,9",,,,,"00,99,1,99,9,99,9,99999,9,99,9,99,9","10260,1,99999,9","10,1",,,"MET058METAR ZSPD 022200Z 34002MPS 4000 BR NSC 02/02 Q1026 NOSIG="
"58321199999","2022-01-02T22:30:00","4","31.143378","121.805214","3.96","PUDONG, CH","FM-15","99999","V020","010,1,N,0020,1","22000,1,9,N","004000,1,9,9","+0030,1","+0020,1","99999,9",,,,,"00,99,1,99,9,99,9,99999,9,99,9,99,9","10260,1,99999,9","10,1",,,"MET058METAR ZSPD 022230Z 01002MPS 4000 BR NSC 03/02 Q1026 NOSIG="
"58321199999","2022-01-02T23:00:00","4","31.143378","121.805214","3.96","PUDONG, CH","FM-15","99999","V020","010,1,V,0020,1","22000,1,9,N","003000,1,9,9","+0030,1","+0030,1","99999,9",,,,,"00,99,1,99,9,99,9,99999,9,99,9,99,9","10260,1,99999,9","10,1",,,"MET078METAR ZSPD 022300Z 01002MPS 340V040 3000 BR NSC 03/03 Q1026 BECMG TL2350 2800="
"58321199999","2022-01-02T23:30:00","4","31.143378","121.805214","3.96","PUDONG, CH","FM-15","99999","V020","010,1,V,0020,1","22000,1,9,N","002600,1,9,9","+0040,1","+0030,1","99999,9",,,,,"00,99,1,99,9,99,9,99999,9,99,9,99,9","10260,1,99999,9","10,1",,,"MET066METAR ZSPD 022330Z 01002MPS 330V040 2600 BR NSC 04/03 Q1026 NOSIG="
"58321199999","2022-01-03T00:00:00","4","31.143378","121.805214","3.96","PUDONG, CH","FM-15","99999","V020","030,1,N,0030,1","22000,1,9,N","003500,1,9,9","+0080,1","+0050,1","99999,9",,,,,"00,99,1,99,9,99,9,99999,9,99,9,99,9","10260,1,99999,9","10,1",,,"MET058METAR ZSPD 030000Z 03003MPS 3500 BR NSC 08/05 Q1026 NOSIG="
"58321199999","2022-01-03T00:30:00","4","31.143378","121.805214","3.96","PUDONG, CH","FM-15","99999","V020","030,1,V,0030,1","22000,1,9,N","004000,1,9,9","+0090,1","+0060,1","99999,9",,,,,"00,99,1,99,9,99,9,99999,9,99,9,99,9","10270,1,99999,9","10,1",,,"MET066METAR ZSPD 030030Z 03003MPS 360V060 4000 BR NSC 09/06 Q1027 NOSIG="
"58321199999","2022-01-03T01:00:00","4","31.143378","121.805214","3.96","PUDONG, CH","FM-15","99999","V020","040,1,V,0030,1","22000,1,9,N","005000,1,9,9","+0100,1","+0060,1","99999,9",,,,,"00,99,1,99,9,99,9,99999,9,99,9,99,9","10270,1,99999,9","10,1",,,"MET066METAR ZSPD 030100Z 04003MPS 010V070 5000 BR NSC 10/06 Q1027 NOSIG="
"58321199999","2022-01-03T01:30:00","4","31.143378","121.805214","3.96","PUDONG, CH","FM-15","99999","V020","060,1,V,0020,1","22000,1,9,N","006000,1,9,9","+0110,1","+0060,1","99999,9",,,,,"00,99,1,99,9,99,9,99999,9,99,9,99,9","10270,1,99999,9",,,,"MET063METAR ZSPD 030130Z 06002MPS 360V110 6000 NSC 11/06 Q1027 NOSIG="
"58321199999","2022-01-03T02:00:00","4","31.143378","121.805214","3.96","PUDONG, CH","FM-15","99999","V020","050,1,V,0030,1","22000,1,9,N","008000,1,9,9","+0110,1","+0050,1","99999,9",,,,,"00,99,1,99,9,99,9,99999,9,99,9,99,9","10270,1,99999,9",,,,"MET063METAR ZSPD 030200Z 05003MPS 020V080 8000 NSC 11/05 Q1027 NOSIG="
"58321199999","2022-01-03T02:30:00","4","31.143378","121.805214","3.96","PUDONG, CH","FM-15","99999","V020","060,1,V,0020,1","22000,1,9,N","008000,1,9,9","+0120,1","+0050,1","99999,9",,,,,"00,99,1,99,9,99,9,99999,9,99,9,99,9","10270,1,99999,9",,,,"MET063METAR ZSPD 030230Z 06002MPS 010V120 8000 NSC 12/05 Q1027 NOSIG="
"58321199999","2022-01-03T03:00:00","4","31.143378","121.805214","3.96","PUDONG, CH","FM-15","99999","V020","999,9,V,0010,1","99999,9,9,Y","009900,5,9,9","+0130,1","+0050,1","99999,9",,,,,,"10260,1,99999,9",,,,"MET052METAR ZSPD 030300Z VRB01MPS CAVOK 13/05 Q1026 NOSIG="
"58321199999","2022-01-03T03:30:00","4","31.143378","121.805214","3.96","PUDONG, CH","FM-15","99999","V020","999,9,V,0010,1","99999,9,9,Y","009900,5,9,9","+0130,1","+0050,1","99999,9",,,,,,"10260,1,99999,9",,,,"MET052METAR ZSPD 030330Z VRB01MPS CAVOK 13/05 Q1026 NOSIG="
"58321199999","2022-01-03T04:00:00","4","31.143378","121.805214","3.96","PUDONG, CH","FM-15","99999","V020","190,1,V,0030,1","99999,9,9,Y","009900,5,9,9","+0130,1","+0040,1","99999,9",,,,,,"10250,1,99999,9",,,,"MET060METAR ZSPD 030400Z 19003MPS 150V240 CAVOK 13/04 Q1025 NOSIG="
"58321199999","2022-01-03T04:30:00","4","31.143378","121.805214","3.96","PUDONG, CH","FM-15","99999","V020","999,9,V,0020,1","99999,9,9,Y","009900,5,9,9","+0140,1","+0040,1","99999,9",,,,,,"10250,1,99999,9",,,,"MET052METAR ZSPD 030430Z VRB02MPS CAVOK 14/04 Q1025 NOSIG="
"58321199999","2022-01-03T05:00:00","4","31.143378","121.805214","3.96","PUDONG, CH","FM-15","99999","V020","999,9,V,0020,1","99999,9,9,Y","009900,5,9,9","+0140,1","+0030,1","99999,9",,,,,,"10240,1,99999,9",,,,"MET052METAR ZSPD 030500Z VRB02MPS CAVOK 14/03 Q1024 NOSIG="
"58321199999","2022-01-03T05:30:00","4","31.143378","121.805214","3.96","PUDONG, CH","FM-15","99999","V020","060,1,V,0050,1","99999,9,9,Y","009900,5,9,9","+0130,1","+0040,1","99999,9",,,,,,"10240,1,99999,9",,,,"MET060METAR ZSPD 030530Z 06005MPS 290V090 CAVOK 13/04 Q1024 NOSIG="
"58321199999","2022-01-03T06:00:00","4","31.143378","121.805214","3.96","PUDONG, CH","FM-15","99999","V020","080,1,N,0040,1","99999,9,9,Y","009900,5,9,9","+0130,1","+0050,1","99999,9",,,,,,"10240,1,99999,9",,,,"MET052METAR ZSPD 030600Z 08004MPS CAVOK 13/05 Q1024 NOSIG="
"58321199999","2022-01-03T06:30:00","4","31.143378","121.805214","3.96","PUDONG, CH","FM-15","99999","V020","100,1,N,0040,1","99999,9,9,Y","009900,5,9,9","+0130,1","+0050,1","99999,9",,,,,,"10230,1,99999,9",,,,"MET052METAR ZSPD 030630Z 10004MPS CAVOK 13/05 Q1023 NOSIG="
"58321199999","2022-01-03T07:00:00","4","31.143378","121.805214","3.96","PUDONG, CH","FM-15","99999","V020","090,1,N,0050,1","99999,9,9,Y","009900,5,9,9","+0130,1","+0050,1","99999,9",,,,,,"10240,1,99999,9",,,,"MET052METAR ZSPD 030700Z 09005MPS CAVOK 13/05 Q1024 NOSIG="
"58321199999","2022-01-03T07:30:00","4","31.143378","121.805214","3.96","PUDONG, CH","FM-15","99999","V020","090,1,N,0050,1","99999,9,9,Y","009900,5,9,9","+0120,1","+0050,1","99999,9",,,,,,"10240,1,99999,9",,,,"MET052METAR ZSPD 030730Z 09005MPS CAVOK 12/05 Q1024 NOSIG="
"58321199999","2022-01-03T08:00:00","4","31.143378","121.805214","3.96","PUDONG, CH","FM-15","99999","V020","090,1,N,0040,1","99999,9,9,Y","009900,5,9,9","+0120,1","+0060,1","99999,9",,,,,,"10240,1,99999,9",,,,"MET052METAR ZSPD 030800Z 09004MPS CAVOK 12/06 Q1024 NOSIG="
"58321199999","2022-01-03T08:30:00","4","31.143378","121.805214","3.96","PUDONG, CH","FM-15","99999","V020","100,1,N,0050,1","99999,9,9,Y","009900,5,9,9","+0110,1","+0060,1","99999,9",,,,,,"10240,1,99999,9",,,,"MET052METAR ZSPD 030830Z 10005MPS CAVOK 11/06 Q1024 NOSIG="
"58321199999","2022-01-03T09:00:00","4","31.143378","121.805214","3.96","PUDONG, CH","FM-15","99999","V020","100,1,N,0040,1","99999,9,9,Y","009900,5,9,9","+0100,1","+0060,1","99999,9",,,,,,"10240,1,99999,9",,,,"MET052METAR ZSPD 030900Z 10004MPS CAVOK 10/06 Q1024 NOSIG="
"58321199999","2022-01-03T09:30:00","4","31.143378","121.805214","3.96","PUDONG, CH","FM-15","99999","V020","110,1,N,0030,1","99999,9,9,Y","009900,5,9,9","+0090,1","+0060,1","99999,9",,,,,,"10250,1,99999,9",,,,"MET052METAR ZSPD 030930Z 11003MPS CAVOK 09/06 Q1025 NOSIG="
"58321199999","2022-01-03T10:00:00","4","31.143378","121.805214","3.96","PUDONG, CH","FM-15","99999","V020","140,1,V,0020,1","99999,9,9,Y","009900,5,9,9","+0090,1","+0050,1","99999,9",,,,,,"10250,1,99999,9",,,,"MET060METAR ZSPD 031000Z 14002MPS 120V180 CAVOK 09/05 Q1025 NOSIG="
"58321199999","2022-01-03T10:30:00","4","31.143378","121.805214","3.96","PUDONG, CH","FM-15","99999","V020","150,1,N,0020,1","99999,9,9,Y","009900,5,9,9","+0080,1","+0050,1","99999,9",,,,,,"10250,1,99999,9",,,,"MET052METAR ZSPD 031030Z 15002MPS CAVOK 08/05 Q1025 NOSIG="
"58321199999","2022-01-03T11:00:00","4","31.143378","121.805214","3.96","PUDONG, CH","FM-15","99999","V020","170,1,N,0020,1","99999,9,9,Y","009900,5,9,9","+0070,1","+0040,1","99999,9",,,,,,"10250,1,99999,9",,,,"MET052METAR ZSPD 031100Z 17002MPS CAVOK 07/04 Q1025 NOSIG="
"58321199999","2022-01-03T11:30:00","4","31.143378","121.805214","3.96","PUDONG, CH","FM-15","99999","V020","160,1,N,0010,1","99999,9,9,Y","009900,5,9,9","+0070,1","+0040,1","99999,9",,,,,,"10250,1,99999,9",,,,"MET052METAR ZSPD 031130Z 16001MPS CAVOK 07/04 Q1025 NOSIG="
"58321199999","2022-01-03T12:00:00","4","31.143378","121.805214","3.96","PUDONG, CH","FM-15","99999","V020","100,1,N,0020,1","99999,9,9,Y","009900,5,9,9","+0070,1","+0040,1","99999,9",,,,,,"10250,1,99999,9",,,,"MET052METAR ZSPD 031200Z 10002MPS CAVOK 07/04 Q1025 NOSIG="
"58321199999","2022-01-03T12:30:00","4","31.143378","121.805214","3.96","PUDONG, CH","FM-15","99999","V020","150,1,N,0020,1","22000,1,9,N","008000,1,9,9","+0060,1","+0040,1","99999,9",,,,,"00,99,1,99,9,99,9,99999,9,99,9,99,9","10260,1,99999,9",,,,"MET055METAR ZSPD 031230Z 15002MPS 8000 NSC 06/04 Q1026 NOSIG="
"58321199999","2022-01-03T13:00:00","4","31.143378","121.805214","3.96","PUDONG, CH","FM-15","99999","V020","170,1,N,0010,1","22000,1,9,N","008000,1,9,9","+0060,1","+0040,1","99999,9",,,,,"00,99,1,99,9,99,9,99999,9,99,9,99,9","10260,1,99999,9",,,,"MET055METAR ZSPD 031300Z 17001MPS 8000 NSC 06/04 Q1026 NOSIG="
"58321199999","2022-01-03T13:30:00","4","31.143378","121.805214","3.96","PUDONG, CH","FM-15","99999","V020","999,9,C,0000,1","22000,1,9,N","008000,1,9,9","+0060,1","+0040,1","99999,9",,,,,"00,99,1,99,9,99,9,99999,9,99,9,99,9","10260,1,99999,9",,,,"MET055METAR ZSPD 031330Z 00000MPS 8000 NSC 06/04 Q1026 NOSIG="
"58321199999","2022-01-03T14:00:00","4","31.143378","121.805214","3.96","PUDONG, CH","FM-15","99999","V020","999,9,C,0000,1","22000,1,9,N","008000,1,9,9","+0060,1","+0030,1","99999,9",,,,,"00,99,1,99,9,99,9,99999,9,99,9,99,9","10260,1,99999,9",,,,"MET055METAR ZSPD 031400Z 00000MPS 8000 NSC 06/03 Q1026 NOSIG="
"58321199999","2022-01-03T14:30:00","4","31.143378","121.805214","3.96","PUDONG, CH","FM-15","99999","V020","999,9,C,0000,1","22000,1,9,N","008000,1,9,9","+0050,1","+0030,1","99999,9",,,,,"00,99,1,99,9,99,9,99999,9,99,9,99,9","10260,1,99999,9",,,,"MET055METAR ZSPD 031430Z 00000MPS 8000 NSC 05/03 Q1026 NOSIG="
"58321199999","2022-01-03T15:00:00","4","31.143378","121.805214","3.96","PUDONG, CH","FM-15","99999","V020","110,1,N,0010,1","22000,1,9,N","008000,1,9,9","+0050,1","+0030,1","99999,9",,,,,"00,99,1,99,9,99,9,99999,9,99,9,99,9","10260,1,99999,9",,,,"MET055METAR ZSPD 031500Z 11001MPS 8000 NSC 05/03 Q1026 NOSIG="
"58321199999","2022-01-03T15:30:00","4","31.143378","121.805214","3.96","PUDONG, CH","FM-15","99999","V020","999,9,V,0010,1","22000,1,9,N","006000,1,9,9","+0050,1","+0040,1","99999,9",,,,,"00,99,1,99,9,99,9,99999,9,99,9,99,9","10260,1,99999,9",,,,"MET055METAR ZSPD 031530Z VRB01MPS 6000 NSC 05/04 Q1026 NOSIG="
"58321199999","2022-01-03T16:00:00","4","31.143378","121.805214","3.96","PUDONG, CH","FM-15","99999","V020","999,9,V,0010,1","22000,1,9,N","005000,1,9,9","+0050,1","+0040,1","99999,9",,,,,"00,99,1,99,9,99,9,99999,9,99,9,99,9","10260,1,99999,9","10,1",,,"MET058METAR ZSPD 031600Z VRB01MPS 5000 BR NSC 05/04 Q1026 NOSIG="
"58321199999","2022-01-03T16:30:00","4","31.143378","121.805214","3.96","PUDONG, CH","FM-15","99999","V020","010,1,V,0020,1","22000,1,9,N","004000,1,9,9","+0060,1","+0050,1","99999,9","35,R,9999,9",,,,"00,99,1,99,9,99,9,99999,9,99,9,99,9","10260,1,99999,9","10,1","11,1",,"MET117METAR ZSPD 031630Z 01002MPS 340V050 4000 R35R/P2000N R34L/0150D R35L/P2000N R34R/0125D PRFG BR NSC 06/05 Q1026 NOSIG="
"58321199999","2022-01-03T17:00:00","4","31.143378","121.805214","3.96","PUDONG, CH","FM-15","99999","V020","040,1,N,0010,1","22000,1,9,N","004000,1,9,9","+0070,1","+0060,1","99999,9","35,R,9999,9",,,,"00,99,1,99,9,99,9,99999,9,99,9,99,9","10260,1,99999,9","10,1","11,1",,"MET126METAR ZSPD 031700Z 04001MPS 4000 R35R/P2000N R34L/0150N R35L/P2000N R34R/0175V0300N PRFG BR NSC 07/06 Q1026 BECMG TL1800 2500="
"58321199999","2022-01-03T17:30:00","4","31.143378","121.805214","3.96","PUDONG, CH","FM-15","99999","V020","030,1,V,0020,1","22000,1,9,N","002800,1,9,9","+0070,1","+0060,1","99999,9","35,R,9999,9",,,,"00,99,1,99,9,99,9,99999,9,99,9,99,9","10260,1,99999,9","10,1","11,1",,"MET117METAR ZSPD 031730Z 03002MPS 340V060 2800 R35R/P2000N R34L/0225N R35L/P2000N R34R/0250N PRFG BR NSC 07/06 Q1026 NOSIG="
"58321199999","2022-01-03T18:00:00","4","31.143378","121.805214","3.96","PUDONG, CH","FM-15","99999","V020","330,1,N,0010,1","22000,1,9,N","002800,1,9,9","+0060,1","+0050,1","99999,9","35,R,9999,9",,,,"00,99,1,99,9,99,9,99999,9,99,9,99,9","10260,1,99999,9","10,1","11,1",,"MET109METAR ZSPD 031800Z 33001MPS 2800 R35R/P2000N R34L/0200N R35L/P2000N R34R/0200N PRFG BR NSC 06/05 Q1026 NOSIG="
"58321199999","2022-01-03T18:30:00","4","31.143378","121.805214","3.96","PUDONG, CH","FM-15","99999","V020","360,1,V,0020,1","22000,1,9,N","004000,1,9,9","+0050,1","+0040,1","99999,9","35,R,9999,9",,,,"00,99,1,99,9,99,9,99999,9,99,9,99,9","10260,1,99999,9","10,1","11,1",,"MET122METAR ZSPD 031830Z 36002MPS 330V030 4000 R35R/P2000N R34L/0400V0900U R35L/P2000N R34R/1800U PRFG BR NSC 05/04 Q1026 NOSIG="
"58321199999","2022-01-03T19:00:00","4","31.143378","121.805214","3.96","PUDONG, CH","FM-15","99999","V020","010,1,N,0010,1","22000,1,9,N","004000,1,9,9","+0040,1","+0040,1","99999,9","35,R,9999,9",,,,"00,99,1,99,9,99,9,99999,9,99,9,99,9","10260,1,99999,9","10,1","11,1",,"MET120METAR ZSPD 031900Z 01001MPS 4000 R35R/1700D R34L/0700N R35L/P2000N R34R/0300N PRFG BR NSC 04/04 Q1026 BECMG TL2020 2500="
"58321199999","2022-01-03T19:30:00","4","31.143378","121.805214","3.96","PUDONG, CH","FM-15","99999","V020","330,1,N,0010,1","22000,1,9,N","004000,1,9,9","+0030,1","+0030,1","99999,9","35,R,9999,9",,,,"00,99,1,99,9,99,9,99999,9,99,9,99,9","10260,1,99999,9","10,1","11,1",,"MET118METAR ZSPD 031930Z 33001MPS 4000 R35R/2000U R34L/0225V0500U R35L/P2000N R34R/0275V0550D PRFG BR NSC 03/03 Q1026 NOSIG="
"58321199999","2022-01-03T20:00:00","4","31.143378","121.805214","3.96","PUDONG, CH","FM-15","99999","V020","360,1,V,0020,1","22000,1,9,N","004000,1,9,9","+0050,1","+0050,1","99999,9","35,R,9999,9",,,,"00,99,1,99,9,99,9,99999,9,99,9,99,9","10260,1,99999,9","10,1","11,1",,"MET122METAR ZSPD 032000Z 36002MPS 320V030 4000 R35R/P2000N R34L/1100D R35L/P2000N R34R/0300V0800U PRFG BR NSC 05/05 Q1026 NOSIG="
"58321199999","2022-01-03T20:30:00","4","31.143378","121.805214","3.96","PUDONG, CH","FM-15","99999","V020","350,1,V,0020,1","22000,1,9,N","004000,1,9,9","+0050,1","+0050,1","99999,9","35,R,9999,9",,,,"00,99,1,99,9,99,9,99999,9,99,9,99,9","10260,1,99999,9","10,1","11,1",,"MET117METAR ZSPD 032030Z 35002MPS 330V030 4000 R35R/P2000N R34L/1400U R35L/P2000N R34R/0800D PRFG BR NSC 05/05 Q1026 NOSIG="
"58321199999","2022-01-03T21:00:00","4","31.143378","121.805214","3.96","PUDONG, CH","FM-15","99999","V020","340,1,N,0020,1","22000,1,9,N","005000,1,9,9","+0040,1","+0030,1","99999,9",,,,,"00,99,1,99,9,99,9,99999,9,99,9,99,9","10260,1,99999,9","10,1","11,1",,"MET063METAR ZSPD 032100Z 34002MPS 5000 PRFG BR NSC 04/03 Q1026 NOSIG="
"58321199999","2022-01-03T21:30:00","4","31.143378","121.805214","3.96","PUDONG, CH","FM-15","99999","V020","330,1,N,0020,1","22000,1,9,N","005000,1,9,9","+0040,1","+0040,1","99999,9",,,,,"00,99,1,99,9,99,9,99999,9,99,9,99,9","10270,1,99999,9","10,1",,,"MET058METAR ZSPD 032130Z 33002MPS 5000 BR NSC 04/04 Q1027 NOSIG="
"58321199999","2022-01-03T22:00:00","4","31.143378","121.805214","3.96","PUDONG, CH","FM-15","99999","V020","350,1,N,0030,1","22000,1,9,N","004000,1,9,9","+0030,1","+0030,1","99999,9",,,,,"00,99,1,99,9,99,9,99999,9,99,9,99,9","10270,1,99999,9","10,1","11,1",,"MET063METAR ZSPD 032200Z 35003MPS 4000 PRFG BR NSC 03/03 Q1027 NOSIG="
"58321199999","2022-01-03T22:30:00","4","31.143378","121.805214","3.96","PUDONG, CH","FM-15","99999","V020","350,1,N,0030,1","22000,1,9,N","003000,1,9,9","+0030,1","+0030,1","99999,9",,,,,"00,99,1,99,9,99,9,99999,9,99,9,99,9","10270,1,99999,9","10,1","11,1",,"MET063METAR ZSPD 032230Z 35003MPS 3000 PRFG BR NSC 03/03 Q1027 NOSIG="
"58321199999","2022-01-03T23:00:00","4","31.143378","121.805214","3.96","PUDONG, CH","FM-15","99999","V020","020,1,N,0030,1","22000,1,9,N","003000,1,9,9","+0060,1","+0060,1","99999,9","35,R,9999,9",,,,"00,99,1,99,9,99,9,99999,9,99,9,99,9","10270,1,99999,9","10,1","11,1",,"MET126METAR ZSPD 032300Z 02003MPS 3000 R35R/P2000N R34L/0275U R35L/P2000N R34R/0200V0500D PRFG BR NSC 06/06 Q1027 BECMG TL2350 2500="
"58321199999","2022-01-03T23:30:00","4","31.143378","121.805214","3.96","PUDONG, CH","FM-15","99999","V020","030,1,N,0050,1","22000,1,9,N","004000,1,9,9","+0080,1","+0080,1","99999,9",,,,,"00,99,1,99,9,99,9,99999,9,99,9,99,9","10270,1,99999,9","10,1",,,"MET058METAR ZSPD 032330Z 03005MPS 4000 BR NSC 08/08 Q1027 NOSIG="
"58321199999","2022-01-04T00:00:00","4","31.143378","121.805214","3.96","PUDONG, CH","FM-15","99999","V020","020,1,N,0050,1","22000,1,9,N","004000,1,9,9","+0090,1","+0080,1","99999,9",,,,,"00,99,1,99,9,99,9,99999,9,99,9,99,9","10270,1,99999,9","10,1",,,"MET058METAR ZSPD 040000Z 02005MPS 4000 BR NSC 09/08 Q1027 NOSIG="
"58321199999","2022-01-04T00:30:00","4","31.143378","121.805214","3.96","PUDONG, CH","FM-15","99999","V020","030,1,N,0050,1","22000,1,9,N","005000,1,9,9","+0090,1","+0080,1","99999,9",,,,,"00,99,1,99,9,99,9,99999,9,99,9,99,9","10270,1,99999,9","10,1",,,"MET058METAR ZSPD 040030Z 03005MPS 5000 BR NSC 09/08 Q1027 NOSIG="
"58321199999","2022-01-04T01:00:00","4","31.143378","121.805214","3.96","PUDONG, CH","FM-15","99999","V020","030,1,N,0050,1","22000,1,9,N","005000,1,9,9","+0100,1","+0090,1","99999,9",,,,,"00,99,1,99,9,99,9,99999,9,99,9,99,9","10280,1,99999,9","10,1",,,"MET058METAR ZSPD 040100Z 03005MPS 5000 BR NSC 10/09 Q1028 NOSIG="
"58321199999","2022-01-04T01:30:00","4","31.143378","121.805214","3.96","PUDONG, CH","FM-15","99999","V020","050,1,V,0060,1","22000,1,9,N","008000,1,9,9","+0110,1","+0080,1","99999,9",,,,,"00,99,1,99,9,99,9,99999,9,99,9,99,9","10270,1,99999,9",,,,"MET063METAR ZSPD 040130Z 05006MPS 020V080 8000 NSC 11/08 Q1027 NOSIG="
"58321199999","2022-01-04T02:00:00","4","31.143378","121.805214","3.96","PUDONG, CH","FM-15","99999","V020","060,1,N,0070,1","22000,1,9,N","008000,1,9,9","+0110,1","+0070,1","99999,9",,,,,"00,99,1,99,9,99,9,99999,9,99,9,99,9","10270,1,99999,9",,,,"MET055METAR ZSPD 040200Z 06007MPS 8000 NSC 11/07 Q1027 NOSIG="
"58321199999","2022-01-04T02:30:00","4","31.143378","121.805214","3.96","PUDONG, CH","FM-15","99999","V020","060,1,N,0060,1","99999,9,9,Y","009900,5,9,9","+0120,1","+0070,1","99999,9",,,,,,"10270,1,99999,9",,,,"MET052METAR ZSPD 040230Z 06006MPS CAVOK 12/07 Q1027 NOSIG="
"58321199999","2022-01-04T03:00:00","4","31.143378","121.805214","3.96","PUDONG, CH","FM-15","99999","V020","060,1,N,0070,1","99999,9,9,N","009999,1,9,9","+0130,1","+0080,1","99999,9",,"02,1,+01006,1,99,9",,"9,AGL   ,+99999,+99999","99,99,9,02,1,99,9,01006,1,99,9,99,9","10270,1,99999,9",,,,"MET058METAR ZSPD 040300Z 06007MPS 9999 FEW033 13/08 Q1027 NOSIG="
"58321199999","2022-01-04T03:30:00","4","31.143378","121.805214","3.96","PUDONG, CH","FM-15","99999","V020","060,1,N,0060,1","99999,9,9,N","009999,1,9,9","+0130,1","+0080,1","99999,9",,"04,1,+01006,1,99,9",,"9,AGL   ,+99999,+99999","99,99,9,04,1,99,9,01006,1,99,9,99,9","10260,1,99999,9",,,,"MET058METAR ZSPD 040330Z 06006MPS 9999 SCT033 13/08 Q1026 NOSIG="
"58321199999","2022-01-04T04:00:00","4","31.143378","121.805214","3.96","PUDONG, CH","FM-15","99999","V020","060,1,V,0060,1","01006,1,C,N","009999,1,9,9","+0130,1","+0070,1","99999,9",,"07,1,+01006,1,99,9",,"9,AGL   ,+99999,+99999","99,99,9,07,1,99,9,01006,1,99,9,99,9","10250,1,99999,9",,,,"MET066METAR ZSPD 040400Z 06006MPS 030V090 9999 BKN033 13/07 Q1025 NOSIG="
"58321199999","2022-01-04T04:30:00","4","31.143378","121.805214","3.96","PUDONG, CH","FM-15","99999","V020","060,1,N,0060,1","01006,1,C,N","009999,1,9,9","+0130,1","+0070,1","99999,9",,"07,1,+01006,1,99,9",,"9,AGL   ,+99999,+99999","99,99,9,07,1,99,9,01006,1,99,9,99,9","10250,1,99999,9",,,,"MET058METAR ZSPD 040430Z 06006MPS 9999 BKN033 13/07 Q1025 NOSIG="
"58321199999","2022-01-04T05:00:00","4","31.143378","121.805214","3.96","PUDONG, CH","FM-15","99999","V020","080,1,V,0060,1","01006,1,C,N","009999,1,9,9","+0130,1","+0070,1","99999,9",,"07,1,+01006,1,99,9",,"9,AGL   ,+99999,+99999","99,99,9,07,1,99,9,01006,1,99,9,99,9","10250,1,99999,9",,,,"MET066METAR ZSPD 040500Z 08006MPS 040V100 9999 BKN033 13/07 Q1025 NOSIG="
"58321199999","2022-01-04T05:30:00","4","31.143378","121.805214","3.96","PUDONG, CH","FM-15","99999","V020","100,1,V,0070,1","01006,1,C,N","009999,1,9,9","+0140,1","+0070,1","99999,9",,"07,1,+01006,1,99,9",,"9,AGL   ,+99999,+99999","99,99,9,07,1,99,9,01006,1,99,9,99,9","10240,1,99999,9",,,,"MET066METAR ZSPD 040530Z 10007MPS 050V120 9999 BKN033 14/07 Q1024 NOSIG="
"58321199999","2022-01-04T06:00:00","4","31.143378","121.805214","3.96","PUDONG, CH","FM-15","99999","V020","090,1,N,0060,1","01006,1,C,N","009999,1,9,9","+0130,1","+0080,1","99999,9",,"07,1,+01006,1,99,9",,"9,AGL   ,+99999,+99999","99,99,9,07,1,99,9,01006,1,99,9,99,9","10240,1,99999,9",,,,"MET058METAR ZSPD 040600Z 09006MPS 9999 BKN033 13/08 Q1024 NOSIG="
"58321199999","2022-01-04T06:30:00","4","31.143378","121.805214","3.96","PUDONG, CH","FM-15","99999","V020","090,1,V,0060,1","01006,1,C,N","009999,1,9,9","+0140,1","+0080,1","99999,9",,"07,1,+01006,1,99,9",,"9,AGL   ,+99999,+99999","99,99,9,07,1,99,9,01006,1,99,9,99,9","10240,1,99999,9",,,,"MET066METAR ZSPD 040630Z 09006MPS 040V110 9999 BKN033 14/08 Q1024 NOSIG="
"58321199999","2022-01-04T07:00:00","4","31.143378","121.805214","3.96","PUDONG, CH","FM-15","99999","V020","090,1,N,0060,1","01006,1,C,N","009999,1,9,9","+0130,1","+0070,1","99999,9",,"07,1,+01006,1,99,9",,"9,AGL   ,+99999,+99999","99,99,9,07,1,99,9,01006,1,99,9,99,9","10240,1,99999,9",,,,"MET058METAR ZSPD 040700Z 09006MPS 9999 BKN033 13/07 Q1024 NOSIG="
"58321199999","2022-01-04T07:30:00","4","31.143378","121.805214","3.96","PUDONG, CH","FM-15","99999","V020","080,1,N,0060,1","01006,1,C,N","009999,1,9,9","+0120,1","+0070,1","99999,9",,"07,1,+01006,1,99,9",,"9,AGL   ,+99999,+99999","99,99,9,07,1,99,9,01006,1,99,9,99,9","10250,1,99999,9",,,,"MET058METAR ZSPD 040730Z 08006MPS 9999 BKN033 12/07 Q1025 NOSIG="
"58321199999","2022-01-04T08:00:00","4","31.143378","121.805214","3.96","PUDONG, CH","FM-15","99999","V020","070,1,V,0050,1","01006,1,C,N","009999,1,9,9","+0120,1","+0080,1","99999,9",,"07,1,+01006,1,99,9",,"9,AGL   ,+99999,+99999","99,99,9,07,1,99,9,01006,1,99,9,99,9","10250,1,99999,9",,,,"MET066METAR ZSPD 040800Z 07005MPS 040V100 9999 BKN033 12/08 Q1025 NOSIG="
"58321199999","2022-01-04T08:30:00","4","31.143378","121.805214","3.96","PUDONG, CH","FM-15","99999","V020","070,1,N,0050,1","01006,1,C,N","009999,1,9,9","+0120,1","+0080,1","99999,9",,"07,1,+01006,1,99,9",,"9,AGL   ,+99999,+99999","99,99,9,07,1,99,9,01006,1,99,9,99,9","10240,1,99999,9",,,,"MET058METAR ZSPD 040830Z 07005MPS 9999 BKN033 12/08 Q1024 NOSIG="
"58321199999","2022-01-04T09:00:00","4","31.143378","121.805214","3.96","PUDONG, CH","FM-15","99999","V020","070,1,V,0050,1","01006,1,C,N","009999,1,9,9","+0120,1","+0080,1","99999,9",,"07,1,+01006,1,99,9",,"9,AGL   ,+99999,+99999","99,99,9,07,1,99,9,01006,1,99,9,99,9","10240,1,99999,9",,,,"MET066METAR ZSPD 040900Z 07005MPS 040V100 9999 BKN033 12/08 Q1024 NOSIG="
"58321199999","2022-01-04T09:30:00","4","31.143378","121.805214","3.96","PUDONG, CH","FM-15","99999","V020","080,1,V,0060,1","01006,1,C,N","009999,1,9,9","+0120,1","+0080,1","99999,9",,"07,1,+01006,1,99,9",,"9,AGL   ,+99999,+99999","99,99,9,07,1,99,9,01006,1,99,9,99,9","10240,1,99999,9",,,,"MET066METAR ZSPD 040930Z 08006MPS 040V110 9999 BKN033 12/08 Q1024 NOSIG="
"58321199999","2022-01-04T10:00:00","4","31.143378","121.805214","3.96","PUDONG, CH","FM-15","99999","V020","080,1,N,0060,1","01006,1,C,N","009999,1,9,9","+0110,1","+0080,1","99999,9",,"07,1,+01006,1,99,9",,"9,AGL   ,+99999,+99999","99,99,9,07,1,99,9,01006,1,99,9,99,9","10250,1,99999,9",,,,"MET058METAR ZSPD 041000Z 08006MPS 9999 BKN033 11/08 Q1025 NOSIG="
"58321199999","2022-01-04T10:30:00","4","31.143378","121.805214","3.96","PUDONG, CH","FM-15","99999","V020","080,1,N,0050,1","01006,1,C,N","009999,1,9,9","+0110,1","+0080,1","99999,9",,"07,1,+01006,1,99,9",,"9,AGL   ,+99999,+99999","99,99,9,07,1,99,9,01006,1,99,9,99,9","10250,1,99999,9",,,,"MET058METAR ZSPD 041030Z 08005MPS 9999 BKN033 11/08 Q1025 NOSIG="
"58321199999","2022-01-04T11:00:00","4","31.143378","121.805214","3.96","PUDONG, CH","FM-15","99999","V020","080,1,V,0050,1","01006,1,C,N","009999,1,9,9","+0110,1","+0080,1","99999,9",,"07,1,+01006,1,99,9",,"9,AGL   ,+99999,+99999","99,99,9,07,1,99,9,01006,1,99,9,99,9","10250,1,99999,9",,,,"MET066METAR ZSPD 041100Z 08005MPS 040V100 9999 BKN033 11/08 Q1025 NOSIG="
"58321199999","2022-01-04T11:30:00","4","31.143378","121.805214","3.96","PUDONG, CH","FM-15","99999","V020","080,1,N,0060,1","01006,1,C,N","009999,1,9,9","+0110,1","+0080,1","99999,9",,"08,1,+01006,1,99,9",,"9,AGL   ,+99999,+99999","99,99,9,08,1,99,9,01006,1,99,9,99,9","10250,1,99999,9",,,,"MET058METAR ZSPD 041130Z 08006MPS 9999 OVC033 11/08 Q1025 NOSIG="
"58321199999","2022-01-04T12:00:00","4","31.143378","121.805214","3.96","PUDONG, CH","FM-15","99999","V020","080,1,N,0050,1","01006,1,C,N","009999,1,9,9","+0110,1","+0080,1","99999,9",,"08,1,+01006,1,99,9",,"9,AGL   ,+99999,+99999","99,99,9,08,1,99,9,01006,1,99,9,99,9","10250,1,99999,9",,,,"MET058METAR ZSPD 041200Z 08005MPS 9999 OVC033 11/08 Q1025 NOSIG="
"58321199999","2022-01-04T12:30:00","4","31.143378","121.805214","3.96","PUDONG, CH","FM-15","99999","V020","090,1,V,0060,1","01006,1,C,N","009999,1,9,9","+0110,1","+0080,1","99999,9",,"08,1,+01006,1,99,9",,"9,AGL   ,+99999,+99999","99,99,9,08,1,99,9,01006,1,99,9,99,9","10250,1,99999,9","61,1",,,"MET070METAR ZSPD 041230Z 09006MPS 040V100 9999 -RA OVC033 11/08 Q1025 NOSIG="
"58321199999","2022-01-04T13:00:00","4","31.143378","121.805214","3.96","PUDONG, CH","FM-15","99999","V020","100,1,N,0060,1","01006,1,C,N","009999,1,9,9","+0110,1","+0080,1","99999,9",,"08,1,+01006,1,99,9",,"9,AGL   ,+99999,+99999","99,99,9,08,1,99,9,01006,1,99,9,99,9","10250,1,99999,9",,,,"MET058METAR ZSPD 041300Z 10006MPS 9999 OVC033 11/08 Q1025 NOSIG="
"58321199999","2022-01-04T13:30:00","4","31.143378","121.805214","3.96","PUDONG, CH","FM-15","99999","V020","100,1,N,0070,1","01006,1,C,N","009999,1,9,9","+0110,1","+0070,1","99999,9",,"08,1,+01006,1,99,9",,"9,AGL   ,+99999,+99999","99,99,9,08,1,99,9,01006,1,99,9,99,9","10240,1,99999,9",,,,"MET058METAR ZSPD 041330Z 10007MPS 9999 OVC033 11/07 Q1024 NOSIG="
"58321199999","2022-01-04T14:00:00","4","31.143378","121.805214","3.96","PUDONG, CH","FM-15","99999","V020","110,1,N,0060,1","01006,1,C,N","009999,1,9,9","+0110,1","+0070,1","99999,9",,"08,1,+01006,1,99,9",,"9,AGL   ,+99999,+99999","99,99,9,08,1,99,9,01006,1,99,9,99,9","10250,1,99999,9",,,,"MET058METAR ZSPD 041400Z 11006MPS 9999 OVC033 11/07 Q1025 NOSIG="
"58321199999","2022-01-04T14:30:00","4","31.143378","121.805214","3.96","PUDONG, CH","FM-15","99999","V020","110,1,N,0060,1","01006,1,C,N","009999,1,9,9","+0110,1","+0070,1","99999,9",,"08,1,+01006,1,99,9",,"9,AGL   ,+99999,+99999","99,99,9,08,1,99,9,01006,1,99,9,99,9","10240,1,99999,9",,,,"MET058METAR ZSPD 041430Z 11006MPS 9999 OVC033 11/07 Q1024 NOSIG="
"58321199999","2022-01-04T15:00:00","4","31.143378","121.805214","3.96","PUDONG, CH","FM-15","99999","V020","110,1,N,0060,1","00914,1,C,N","009999,1,9,9","+0110,1","+0070,1","99999,9",,"08,1,+00914,1,99,9",,"9,AGL   ,+99999,+99999","99,99,9,08,1,99,9,00914,1,99,9,99,9","10240,1,99999,9",,,,"MET058METAR ZSPD 041500Z 11006MPS 9999 OVC030 11/07 Q1024 NOSIG="
"58321199999","2022-01-04T15:30:00","4","31.143378","121.805214","3.96","PUDONG, CH","FM-15","99999","V020","110,1,N,0060,1","00914,1,C,N","009999,1,9,9","+0110,1","+0070,1","99999,9",,"08,1,+00914,1,99,9",,"9,AGL   ,+99999,+99999","99,99,9,08,1,99,9,00914,1,99,9,99,9","10240,1,99999,9",,,,"MET058METAR ZSPD 041530Z 11006MPS 9999 OVC030 11/07 Q1024 NOSIG="
"58321199999","2022-01-04T16:00:00","4","31.143378","121.805214","3.96","PUDONG, CH","FM-15","99999","V020","110,1,N,0050,1","00914,1,C,N","009999,1,9,9","+0110,1","+0070,1","99999,9",,"08,1,+00914,1,99,9",,"9,AGL   ,+99999,+99999","99,99,9,08,1,99,9,00914,1,99,9,99,9","10230,1,99999,9",,,,"MET058METAR ZSPD 041600Z 11005MPS 9999 OVC030 11/07 Q1023 NOSIG="
"58321199999","2022-01-04T16:30:00","4","31.143378","121.805214","3.96","PUDONG, CH","FM-15","99999","V020","110,1,N,0050,1","00914,1,C,N","009999,1,9,9","+0110,1","+0070,1","99999,9",,"08,1,+00914,1,99,9",,"9,AGL   ,+99999,+99999","99,99,9,08,1,99,9,00914,1,99,9,99,9","10230,1,99999,9",,,,"MET058METAR ZSPD 041630Z 11005MPS 9999 OVC030 11/07 Q1023 NOSIG="
"58321199999","2022-01-04T17:00:00","4","31.143378","121.805214","3.96","PUDONG, CH","FM-15","99999","V020","110,1,N,0050,1","01006,1,C,N","009999,1,9,9","+0110,1","+0080,1","99999,9",,"08,1,+01006,1,99,9",,"9,AGL   ,+99999,+99999","99,99,9,08,1,99,9,01006,1,99,9,99,9","10230,1,99999,9",,,,"MET058METAR ZSPD 041700Z 11005MPS 9999 OVC033 11/08 Q1023 NOSIG="
"58321199999","2022-01-04T17:30:00","4","31.143378","121.805214","3.96","PUDONG, CH","FM-15","99999","V020","110,1,N,0060,1","01006,1,C,N","009999,1,9,9","+0110,1","+0070,1","99999,9",,"08,1,+01006,1,99,9",,"9,AGL   ,+99999,+99999","99,99,9,08,1,99,9,01006,1,99,9,99,9","10220,1,99999,9",,,,"MET058METAR ZSPD 041730Z 11006MPS 9999 OVC033 11/07 Q1022 NOSIG="
"58321199999","2022-01-04T18:00:00","4","31.143378","121.805214","3.96","PUDONG, CH","FM-15","99999","V020","120,1,N,0060,1","01006,1,C,N","009999,1,9,9","+0110,1","+0080,1","99999,9",,"08,1,+01006,1,99,9",,"9,AGL   ,+99999,+99999","99,99,9,08,1,99,9,01006,1,99,9,99,9","10220,1,99999,9",,,,"MET058METAR ZSPD 041800Z 12006MPS 9999 OVC033 11/08 Q1022 NOSIG="
"58321199999","2022-01-04T18:30:00","4","31.143378","121.805214","3.96","PUDONG, CH","FM-15","99999","V020","110,1,N,0050,1","01219,1,C,N","009999,1,9,9","+0110,1","+0080,1","99999,9",,"08,1,+01219,1,99,9",,"9,AGL   ,+99999,+99999","99,99,9,08,1,99,9,01219,1,99,9,99,9","10220,1,99999,9",,,,"MET058METAR ZSPD 041830Z 11005MPS 9999 OVC040 11/08 Q1022 NOSIG="
"58321199999","2022-01-04T19:00:00","4","31.143378","121.805214","3.96","PUDONG, CH","FM-15","99999","V020","110,1,N,0050,1","01219,1,C,N","009999,1,9,9","+0110,1","+0080,1","99999,9",,"08,1,+01219,1,99,9",,"9,AGL   ,+99999,+99999","99,99,9,08,1,99,9,01219,1,99,9,99,9","10220,1,99999,9",,,,"MET058METAR ZSPD 041900Z 11005MPS 9999 OVC040 11/08 Q1022 NOSIG="
"58321199999","2022-01-04T19:30:00","4","31.143378","121.805214","3.96","PUDONG, CH","FM-15","99999","V020","110,1,N,0040,1","01219,1,C,N","009999,1,9,9","+0110,1","+0080,1","99999,9",,"08,1,+01219,1,99,9",,"9,AGL   ,+99999,+99999","99,99,9,08,1,99,9,01219,1,99,9,99,9","10220,1,99999,9",,,,"MET058METAR ZSPD 041930Z 11004MPS 9999 OVC040 11/08 Q1022 NOSIG="
"58321199999","2022-01-04T20:00:00","4","31.143378","121.805214","3.96","PUDONG, CH","FM-15","99999","V020","110,1,N,0050,1","01219,1,C,N","009999,1,9,9","+0110,1","+0070,1","99999,9",,"08,1,+01219,1,99,9",,"9,AGL   ,+99999,+99999","99,99,9,08,1,99,9,01219,1,99,9,99,9","10210,1,99999,9",,,,"MET058METAR ZSPD 042000Z 11005MPS 9999 OVC040 11/07 Q1021 NOSIG="
"58321199999","2022-01-04T20:30:00","4","31.143378","121.805214","3.96","PUDONG, CH","FM-15","99999","V020","110,1,N,0060,1","01219,1,C,N","009999,1,9,9","+0110,1","+0070,1","99999,9",,"08,1,+01219,1,99,9",,"9,AGL   ,+99999,+99999","99,99,9,08,1,99,9,01219,1,99,9,99,9","10210,1,99999,9",,,,"MET058METAR ZSPD 042030Z 11006MPS 9999 OVC040 11/07 Q1021 NOSIG="
"58321199999","2022-01-04T21:00:00","4","31.143378","121.805214","3.96","PUDONG, CH","FM-15","99999","V020","110,1,N,0060,1","01219,1,C,N","009999,1,9,9","+0110,1","+0070,1","99999,9",,"08,1,+01219,1,99,9",,"9,AGL   ,+99999,+99999","99,99,9,08,1,99,9,01219,1,99,9,99,9","10210,1,99999,9",,,,"MET058METAR ZSPD 042100Z 11006MPS 9999 OVC040 11/07 Q1021 NOSIG="
"58321199999","2022-01-04T21:30:00","4","31.143378","121.805214","3.96","PUDONG, CH","FM-15","99999","V020","110,1,N,0050,1","01219,1,C,N","009999,1,9,9","+0110,1","+0070,1","99999,9",,"08,1,+01219,1,99,9",,"9,AGL   ,+99999,+99999","99,99,9,08,1,99,9,01219,1,99,9,99,9","10210,1,99999,9",,,,"MET058METAR ZSPD 042130Z 11005MPS 9999 OVC040 11/07 Q1021 NOSIG="
"58321199999","2022-01-04T22:00:00","4","31.143378","121.805214","3.96","PUDONG, CH","FM-15","99999","V020","100,1,N,0060,1","01219,1,C,N","009999,1,9,9","+0110,1","+0080,1","99999,9",,"08,1,+01219,1,99,9",,"9,AGL   ,+99999,+99999","99,99,9,08,1,99,9,01219,1,99,9,99,9","10210,1,99999,9",,,,"MET058METAR ZSPD 042200Z 10006MPS 9999 OVC040 11/08 Q1021 NOSIG="
"58321199999","2022-01-04T22:30:00","4","31.143378","121.805214","3.96","PUDONG, CH","FM-15","99999","V020","100,1,N,0070,1","01219,1,C,N","009999,1,9,9","+0110,1","+0080,1","99999,9",,"08,1,+01219,1,99,9",,"9,AGL   ,+99999,+99999","99,99,9,08,1,99,9,01219,1,99,9,99,9","10210,1,99999,9",,,,"MET058METAR ZSPD 042230Z 10007MPS 9999 OVC040 11/08 Q1021 NOSIG="
"58321199999","2022-01-04T23:00:00","4","31.143378","121.805214","3.96","PUDONG, CH","FM-15","99999","V020","100,1,N,0070,1","01219,1,C,N","009999,1,9,9","+0110,1","+0080,1","99999,9",,"08,1,+01219,1,99,9",,"9,AGL   ,+99999,+99999","99,99,9,08,1,99,9,01219,1,99,9,99,9","10210,1,99999,9",,,,"MET058METAR ZSPD 042300Z 10007MPS 9999 OVC040 11/08 Q1021 NOSIG="
"58321199999","2022-01-04T23:30:00","4","31.143378","121.805214","3.96","PUDONG, CH","FM-15","99999","V020","100,1,N,0070,1","01219,1,C,N","009999,1,9,9","+0110,1","+0080,1","99999,9",,"08,1,+01219,1,99,9",,"9,AGL   ,+99999,+99999","99,99,9,08,1,99,9,01219,1,99,9,99,9","10210,1,99999,9",,,,"MET058METAR ZSPD 042330Z 10007MPS 9999 OVC040 11/08 Q1021 NOSIG="
"58321199999","2022-01-05T00:00:00","4","31.143378","121.805214","3.96","PUDONG, CH","FM-15","99999","V020","090,1,N,0080,1","01219,1,C,N","009999,1,9,9","+0110,1","+0080,1","99999,9",,"08,1,+01219,1,99,9",,"9,AGL   ,+99999,+99999","99,99,9,08,1,99,9,01219,1,99,9,99,9","10210,1,99999,9",,,,"MET058METAR ZSPD 050000Z 09008MPS 9999 OVC040 11/08 Q1021 NOSIG="
"58321199999","2022-01-05T00:30:00","4","31.143378","121.805214","3.96","PUDONG, CH","FM-15","99999","V020","090,1,N,0080,1","01219,1,C,N","009999,1,9,9","+0110,1","+0090,1","99999,9",,"08,1,+01219,1,99,9",,"9,AGL   ,+99999,+99999","99,99,9,08,1,99,9,01219,1,99,9,99,9","10210,1,99999,9",,,,"MET058METAR ZSPD 050030Z 09008MPS 9999 OVC040 11/09 Q1021 NOSIG="
"58321199999","2022-01-05T01:00:00","4","31.143378","121.805214","3.96","PUDONG, CH","FM-15","99999","V020","090,1,N,0080,1","01219,1,C,N","009999,1,9,9","+0110,1","+0090,1","99999,9",,"08,1,+01219,1,99,9",,"9,AGL   ,+99999,+99999","99,99,9,08,1,99,9,01219,1,99,9,99,9","10210,1,99999,9",,,,"MET072METAR ZSPD 050100Z 09008MPS 9999 OVC040 11/09 Q1021 BECMG TL0240 BKN010="
"58321199999","2022-01-05T01:30:00","4","31.143378","121.805214","3.96","PUDONG, CH","FM-15","99999","V020","090,1,N,0080,1","00610,1,C,N","009999,1,9,9","+0110,1","+0080,1","99999,9",,"07,1,+00610,1,99,9",,"9,AGL   ,+99999,+99999","99,99,9,07,1,99,9,00610,1,99,9,99,9","10210,1,99999,9",,,,"MET058METAR ZSPD 050130Z 09008MPS 9999 BKN020 11/08 Q1021 NOSIG="
"58321199999","2022-01-05T02:00:00","4","31.143378","121.805214","3.96","PUDONG, CH","FM-15","99999","V020","100,1,N,0090,1","00610,1,C,N","009999,1,9,9","+0110,1","+0080,1","99999,9",,"07,1,+00610,1,99,9",,"9,AGL   ,+99999,+99999","99,99,9,07,1,99,9,00610,1,99,9,99,9","10200,1,99999,9",,,,"MET072METAR ZSPD 050200Z 10009MPS 9999 BKN020 11/08 Q1020 BECMG TL0350 BKN010="
"58321199999","2022-01-05T02:30:00","4","31.143378","121.805214","3.96","PUDONG, CH","FM-15","99999","V020","090,1,N,0080,1","00610,1,C,N","009999,1,9,9","+0110,1","+0080,1","99999,9",,"07,1,+00610,1,99,9",,"9,AGL   ,+99999,+99999","99,99,9,07,1,99,9,00610,1,99,9,99,9","10200,1,99999,9",,,,"MET058METAR ZSPD 050230Z 09008MPS 9999 BKN020 11/08 Q1020 NOSIG="
"58321199999","2022-01-05T03:00:00","4","31.143378","121.805214","3.96","PUDONG, CH","FM-15","99999","V020","100,1,N,0070,1","00610,1,C,N","009999,1,9,9","+0110,1","+0080,1","99999,9",,"07,1,+00610,1,99,9",,"9,AGL   ,+99999,+99999","99,99,9,07,1,99,9,00610,1,99,9,99,9","10200,1,99999,9","61,1",,,"MET076METAR ZSPD 050300Z 10007MPS 9999 -RA BKN020 11/08 Q1020 BECMG TL0450 BKN010="
"58321199999","2022-01-05T03:30:00","4","31.143378","121.805214","3.96","PUDONG, CH","FM-15","99999","V020","090,1,N,0050,1","00488,1,C,N","007000,1,9,9","+0100,1","+0090,1","99999,9",,"07,1,+00488,1,99,9",,"9,AGL   ,+99999,+99999","99,99,9,07,1,99,9,00488,1,99,9,99,9","10200,1,99999,9","61,1",,,"MET062METAR ZSPD 050330Z 09005MPS 7000 -RA BKN016 10/09 Q1020 NOSIG="
"58321199999","2022-01-05T04:00:00","4","31.143378","121.805214","3.96","PUDONG, CH","FM-15","99999","V020","080,1,N,0070,1","00396,1,C,N","009999,1,9,9","+0100,1","+0090,1","99999,9",,"07,1,+00396,1,99,9",,"9,AGL   ,+99999,+99999","99,99,9,07,1,99,9,00396,1,99,9,99,9","10200,1,99999,9","61,1",,,"MET076METAR ZSPD 050400Z 08007MPS 9999 -RA BKN013 10/09 Q1020 BECMG TL0540 BKN009="
"58321199999","2022-01-05T04:30:00","4","31.143378","121.805214","3.96","PUDONG, CH","FM-15","99999","V020","060,1,N,0050,1","00244,1,C,N","006000,1,9,9","+0100,1","+0090,1","99999,9",,"07,1,+00244,1,99,9",,"9,AGL   ,+99999,+99999","99,99,9,07,1,99,9,00244,1,99,9,99,9","10190,1,99999,9","61,1",,,"MET062METAR ZSPD 050430Z 06005MPS 6000 -RA BKN008 10/09 Q1019 NOSIG="
"58321199999","2022-01-05T05:00:00","4","31.143378","121.805214","3.96","PUDONG, CH","FM-15","99999","V020","040,1,N,0050,1","00152,1,C,N","004000,1,9,9","+0100,1","+0090,1","99999,9",,"07,1,+00152,1,99,9",,"9,AGL   ,+99999,+99999","99,99,9,07,1,99,9,00152,1,99,9,99,9","10200,1,99999,9","10,1","61,1",,"MET079METAR ZSPD 050500Z 04005MPS 4000 -RA BR BKN005 10/09 Q1020 BECMG TL0550 BKN004="
"58321199999","2022-01-05T05:30:00","4","31.143378","121.805214","3.96","PUDONG, CH","FM-15","99999","V020","050,1,V,0060,1","00152,1,C,N","003500,1,9,9","+0100,1","+0090,1","99999,9",,"07,1,+00152,1,99,9",,"9,AGL   ,+99999,+99999","99,99,9,07,1,99,9,00152,1,99,9,99,9","10190,1,99999,9","10,1","61,1",,"MET078METAR ZSPD 050530Z 05006MPS 010V080 3500 -RA BR BKN005 10/09 Q1019 RERA NOSIG="
"58321199999","2022-01-05T06:00:00","4","31.143378","121.805214","3.96","PUDONG, CH","FM-15","99999","V020","050,1,V,0050,1","00152,1,C,N","003500,1,9,9","+0100,1","+0090,1","99999,9",,"07,1,+00152,1,99,9",,"9,AGL   ,+99999,+99999","99,99,9,07,1,99,9,00152,1,99,9,99,9","10190,1,99999,9","10,1","61,1",,"MET094METAR ZSPD 050600Z 05005MPS 010V080 3500 -RA BR BKN005 10/09 Q1019 BECMG TL0730 BKN011 OVC040="
"58321199999","2022-01-05T06:30:00","4","31.143378","121.805214","3.96","PUDONG, CH","FM-15","99999","V020","070,1,V,0060,1","00152,1,C,N","005000,1,9,9","+0100,1","+0090,1","99999,9",,"07,1,+00152,1,99,9",,"9,AGL   ,+99999,+99999","99,99,9,07,1,99,9,00152,1,99,9,99,9","10190,1,99999,9","10,1","61,1",,"MET073METAR ZSPD 050630Z 07006MPS 020V090 5000 -RA BR BKN005 10/09 Q1019 NOSIG="
"58321199999","2022-01-05T07:00:00","4","31.143378","121.805214","3.96","PUDONG, CH","FM-15","99999","V020","050,1,N,0060,1","00183,1,C,N","008000,1,9,9","+0100,1","+0090,1","99999,9",,"07,1,+00183,1,99,9",,"9,AGL   ,+99999,+99999","99,99,9,07,1,99,9,00183,1,99,9,99,9","10200,1,99999,9","61,1",,,"MET083METAR ZSPD 050700Z 05006MPS 8000 -RA BKN006 10/09 Q1020 BECMG TL0850 BKN010 OVC040="
"58321199999","2022-01-05T07:30:00","4","31.143378","121.805214","3.96","PUDONG, CH","FM-15","99999","V020","010,1,N,0050,1","00183,1,C,N","008000,1,9,9","+0100,1","+0090,1","99999,9",,"07,1,+00183,1,99,9",,"9,AGL   ,+99999,+99999","99,99,9,07,1,99,9,00183,1,99,9,99,9","10200,1,99999,9","61,1",,,"MET062METAR ZSPD 050730Z 01005MPS 8000 -RA BKN006 10/09 Q1020 NOSIG="
"58321199999","2022-01-05T08:00:00","4","31.143378","121.805214","3.96","PUDONG, CH","FM-15","99999","V020","030,1,N,0070,1","00213,1,C,N","008000,1,9,9","+0100,1","+0090,1","99999,9",,"07,1,+00213,1,99,9",,"9,AGL   ,+99999,+99999","99,99,9,07,1,99,9,00213,1,99,9,99,9","10210,1,99999,9","61,1",,,"MET062METAR ZSPD 050800Z 03007MPS 8000 -RA BKN007 10/09 Q1021 NOSIG="
"58321199999","2022-01-05T08:30:00","4","31.143378","121.805214","3.96","PUDONG, CH","FM-15","99999","V020","030,1,N,0080,1","00213,1,C,N","009999,1,9,9","+0090,1","+0090,1","99999,9",,"07,1,+00213,1,99,9",,"9,AGL   ,+99999,+99999","99,99,9,07,1,99,9,00213,1,99,9,99,9","10210,1,99999,9","61,1",,,"MET062METAR ZSPD 050830Z 03008MPS 9999 -RA BKN007 09/09 Q1021 NOSIG="
"58321199999","2022-01-05T09:00:00","4","31.143378","121.805214","3.96","PUDONG, CH","FM-15","99999","V020","020,1,N,0090,1","00213,1,C,N","009999,1,9,9","+0090,1","+0090,1","99999,9",,"07,1,+00213,1,99,9",,"9,AGL   ,+99999,+99999","99,99,9,07,1,99,9,00213,1,99,9,99,9","10220,1,99999,9","61,1",,,"MET062METAR ZSPD 050900Z 02009MPS 9999 -RA BKN007 09/09 Q1022 NOSIG="
"58321199999","2022-01-05T09:30:00","4","31.143378","121.805214","3.96","PUDONG, CH","FM-15","99999","V020","010,1,N,0080,1","00183,1,C,N","005000,1,9,9","+0090,1","+0080,1","99999,9",,"07,1,+00183,1,99,9",,"9,AGL   ,+99999,+99999","99,99,9,07,1,99,9,00183,1,99,9,99,9","10220,1,99999,9","10,1","61,1",,"MET065METAR ZSPD 050930Z 01008MPS 5000 -RA BR BKN006 09/08 Q1022 NOSIG="
"58321199999","2022-01-05T10:00:00","4","31.143378","121.805214","3.96","PUDONG, CH","FM-15","99999","V020","360,1,N,0080,1","00183,1,C,N","005000,1,9,9","+0080,1","+0070,1","99999,9",,"07,1,+00183,1,99,9",,"9,AGL   ,+99999,+99999","99,99,9,07,1,99,9,00183,1,99,9,99,9","10230,1,99999,9","10,1","61,1",,"MET086METAR ZSPD 051000Z 36008MPS 5000 -RA BR BKN006 08/07 Q1023 BECMG TL1150 BKN010 OVC040="
"58321199999","2022-01-05T10:30:00","4","31.143378","121.805214","3.96","PUDONG, CH","FM-15","99999","V020","010,1,N,0080,1","00213,1,C,N","005000,1,9,9","+0080,1","+0070,1","99999,9",,"07,1,+00213,1,99,9",,"9,AGL   ,+99999,+99999","99,99,9,07,1,99,9,00213,1,99,9,99,9","10230,1,99999,9","10,1","61,1",,"MET065METAR ZSPD 051030Z 01008MPS 5000 -RA BR BKN007 08/07 Q1023 NOSIG="
"58321199999","2022-01-05T11:00:00","4","31.143378","121.805214","3.96","PUDONG, CH","FM-15","99999","V020","010,1,N,0080,1","00213,1,C,N","007000,1,9,9","+0070,1","+0070,1","99999,9",,"07,1,+00213,1,99,9",,"9,AGL   ,+99999,+99999","99,99,9,07,1,99,9,00213,1,99,9,99,9","10230,1,99999,9","61,1",,,"MET083METAR ZSPD 051100Z 01008MPS 7000 -RA BKN007 07/07 Q1023 BECMG TL1220 BKN010 OVC040="
"58321199999","2022-01-05T11:30:00","4","31.143378","121.805214","3.96","PUDONG, CH","FM-15","99999","V020","360,1,N,0080,1","00244,1,C,N","009999,1,9,9","+0080,1","+0070,1","99999,9",,"07,1,+00244,1,99,9",,"9,AGL   ,+99999,+99999","99,99,9,07,1,99,9,00244,1,99,9,99,9","10240,1,99999,9","61,1",,,"MET062METAR ZSPD 051130Z 36008MPS 9999 -RA BKN008 08/07 Q1024 NOSIG="
"58321199999","2022-01-05T12:00:00","4","31.143378","121.805214","3.96","PUDONG, CH","FM-15","99999","V020","020,1,N,0080,1","00244,1,C,N","009999,1,9,9","+0080,1","+0070,1","99999,9",,"07,1,+00244,1,99,9",,"9,AGL   ,+99999,+99999","99,99,9,07,1,99,9,00244,1,99,9,99,9","10240,1,99999,9","61,1",,,"MET083METAR ZSPD 051200Z 02008MPS 9999 -RA BKN008 08/07 Q1024 BECMG TL1250 BKN011 OVC040="
"58321199999","2022-01-05T12:30:00","4","31.143378","121.805214","3.96","PUDONG, CH","FM-15","99999","V020","010,1,N,0080,1","00244,1,C,N","009999,1,9,9","+0080,1","+0070,1","99999,9",,"07,1,+00244,1,99,9",,"9,AGL   ,+99999,+99999","99,99,9,07,1,99,9,00244,1,99,9,99,9","10240,1,99999,9","61,1",,,"MET062METAR ZSPD 051230Z 01008MPS 9999 -RA BKN008 08/07 Q1024 NOSIG="
"58321199999","2022-01-05T13:00:00","4","31.143378","121.805214","3.96","PUDONG, CH","FM-15","99999","V020","010,1,N,0070,1","00244,1,C,N","009999,1,9,9","+0080,1","+0070,1","99999,9",,"07,1,+00244,1,99,9",,"9,AGL   ,+99999,+99999","99,99,9,07,1,99,9,00244,1,99,9,99,9","10250,1,99999,9","61,1",,,"MET083METAR ZSPD 051300Z 01007MPS 9999 -RA BKN008 08/07 Q1025 BECMG TL1450 BKN010 OVC040="
"58321199999","2022-01-05T13:30:00","4","31.143378","121.805214","3.96","PUDONG, CH","FM-15","99999","V020","010,1,N,0070,1","00305,1,C,N","009999,1,9,9","+0070,1","+0070,1","99999,9",,"07,1,+00305,1,99,9","08,1,+01219,1,99,9","9,AGL   ,+99999,+99999","99,99,9,07,1,99,9,00305,1,99,9,99,9","10250,1,99999,9","61,1",,,"MET069METAR ZSPD 051330Z 01007MPS 9999 -RA BKN010 OVC040 07/07 Q1025 NOSIG="
"58321199999","2022-01-05T14:00:00","4","31.143378","121.805214","3.96","PUDONG, CH","FM-15","99999","V020","010,1,N,0060,1","00213,1,C,N","009999,1,9,9","+0080,1","+0070,1","99999,9",,"07,1,+00213,1,99,9","08,1,+01219,1,99,9","9,AGL   ,+99999,+99999","99,99,9,07,1,99,9,00213,1,99,9,99,9","10250,1,99999,9","61,1",,,"MET090METAR ZSPD 051400Z 01006MPS 9999 -RA BKN007 OVC040 08/07 Q1025 BECMG TL1530 BKN011 OVC040="
"58321199999","2022-01-05T14:30:00","4","31.143378","121.805214","3.96","PUDONG, CH","FM-15","99999","V020","010,1,N,0070,1","00244,1,C,N","009999,1,9,9","+0080,1","+0070,1","99999,9",,"07,1,+00244,1,99,9","08,1,+01219,1,99,9","9,AGL   ,+99999,+99999","99,99,9,07,1,99,9,00244,1,99,9,99,9","10260,1,99999,9","61,1",,,"MET069METAR ZSPD 051430Z 01007MPS 9999 -RA BKN008 OVC040 08/07 Q1026 NOSIG="
"58321199999","2022-01-05T15:00:00","4","31.143378","121.805214","3.96","PUDONG, CH","FM-15","99999","V020","010,1,N,0080,1","00335,1,C,N","009999,1,9,9","+0080,1","+0060,1","99999,9",,"07,1,+00335,1,99,9","08,1,+01219,1,99,9","9,AGL   ,+99999,+99999","99,99,9,07,1,99,9,00335,1,99,9,99,9","10260,1,99999,9",,,,"MET079METAR ZSPD 051500Z 01008MPS 9999 BKN011 OVC040 08/06 Q1026 BECMG TL1550 BKN015="
"58321199999","2022-01-05T15:30:00","4","31.143378","121.805214","3.96","PUDONG, CH","FM-15","99999","V020","360,1,N,0070,1","00335,1,C,N","009999,1,9,9","+0070,1","+0070,1","99999,9",,"07,1,+00335,1,99,9","08,1,+01219,1,99,9","9,AGL   ,+99999,+99999","99,99,9,07,1,99,9,00335,1,99,9,99,9","10260,1,99999,9",,,,"MET065METAR ZSPD 051530Z 36007MPS 9999 BKN011 OVC040 07/07 Q1026 NOSIG="
"58321199999","2022-01-05T16:00:00","4","31.143378","121.805214","3.96","PUDONG, CH","FM-15","99999","V020","360,1,N,0070,1","00366,1,C,N","009999,1,9,9","+0070,1","+0060,1","99999,9",,"07,1,+00366,1,99,9","08,1,+01219,1,99,9","9,AGL   ,+99999,+99999","99,99,9,07,1,99,9,00366,1,99,9,99,9","10270,1,99999,9","61,1",,,"MET083METAR ZSPD 051600Z 36007MPS 9999 -RA BKN012 OVC040 07/06 Q1027 BECMG TL1720 BKN015="
"58321199999","2022-01-05T16:30:00","4","31.143378","121.805214","3.96","PUDONG, CH","FM-15","99999","V020","010,1,N,0060,1","00366,1,C,N","009999,1,9,9","+0070,1","+0060,1","99999,9",,"07,1,+00366,1,99,9","08,1,+01219,1,99,9","9,AGL   ,+99999,+99999","99,99,9,07,1,99,9,00366,1,99,9,99,9","10270,1,99999,9","61,1",,,"MET069METAR ZSPD 051630Z 01006MPS 9999 -RA BKN012 OVC040 07/06 Q1027 NOSIG="
"58321199999","2022-01-05T17:00:00","4","31.143378","121.805214","3.96","PUDONG, CH","FM-15","99999","V020","360,1,N,0060,1","00305,1,C,N","006000,1,9,9","+0070,1","+0070,1","99999,9",,"07,1,+00305,1,99,9","08,1,+01219,1,99,9","9,AGL   ,+99999,+99999","99,99,9,07,1,99,9,00305,1,99,9,99,9","10270,1,99999,9","61,1",,,"MET069METAR ZSPD 051700Z 36006MPS 6000 -RA BKN010 OVC040 07/07 Q1027 NOSIG="
"58321199999","2022-01-05T17:30:00","4","31.143378","121.805214","3.96","PUDONG, CH","FM-15","99999","V020","360,1,N,0060,1","00396,1,C,N","009999,1,9,9","+0070,1","+0060,1","99999,9",,"07,1,+00396,1,99,9","08,1,+01219,1,99,9","9,AGL   ,+99999,+99999","99,99,9,07,1,99,9,00396,1,99,9,99,9","10270,1,99999,9","61,1",,,"MET069METAR ZSPD 051730Z 36006MPS 9999 -RA BKN013 OVC040 07/06 Q1027 NOSIG="
"58321199999","2022-01-05T18:00:00","4","31.143378","121.805214","3.96","PUDONG, CH","FM-15","99999","V020","350,1,N,0060,1","00610,1,C,N","009999,1,9,9","+0070,1","+0060,1","99999,9",,"07,1,+00610,1,99,9","08,1,+01219,1,99,9","9,AGL   ,+99999,+99999","99,99,9,07,1,99,9,00610,1,99,9,99,9","10270,1,99999,9","61,1",,,"MET069METAR ZSPD 051800Z 35006MPS 9999 -RA BKN020 OVC040 07/06 Q1027 NOSIG="
"58321199999","2022-01-05T18:30:00","4","31.143378","121.805214","3.96","PUDONG, CH","FM-15","99999","V020","360,1,N,0070,1","00610,1,C,N","009999,1,9,9","+0070,1","+0060,1","99999,9",,"07,1,+00610,1,99,9","08,1,+01219,1,99,9","9,AGL   ,+99999,+99999","99,99,9,07,1,99,9,00610,1,99,9,99,9","10270,1,99999,9",,,,"MET065METAR ZSPD 051830Z 36007MPS 9999 BKN020 OVC040 07/06 Q1027 NOSIG="
"58321199999","2022-01-05T19:00:00","4","31.143378","121.805214","3.96","PUDONG, CH","FM-15","99999","V020","350,1,N,0060,1","00610,1,C,N","009999,1,9,9","+0070,1","+0060,1","99999,9",,"07,1,+00610,1,99,9","08,1,+01219,1,99,9","9,AGL   ,+99999,+99999","99,99,9,07,1,99,9,00610,1,99,9,99,9","10270,1,99999,9",,,,"MET065METAR ZSPD 051900Z 35006MPS 9999 BKN020 OVC040 07/06 Q1027 NOSIG="
"58321199999","2022-01-05T19:30:00","4","31.143378","121.805214","3.96","PUDONG, CH","FM-15","99999","V020","360,1,N,0060,1","00792,1,C,N","009999,1,9,9","+0070,1","+0050,1","99999,9",,"07,1,+00792,1,99,9",,"9,AGL   ,+99999,+99999","99,99,9,07,1,99,9,00792,1,99,9,99,9","10270,1,99999,9",,,,"MET058METAR ZSPD 051930Z 36006MPS 9999 BKN026 07/05 Q1027 NOSIG="
"58321199999","2022-01-05T20:00:00","4","31.143378","121.805214","3.96","PUDONG, CH","FM-15","99999","V020","340,1,N,0050,1","00792,1,C,N","009999,1,9,9","+0070,1","+0050,1","99999,9",,"07,1,+00792,1,99,9",,"9,AGL   ,+99999,+99999","99,99,9,07,1,99,9,00792,1,99,9,99,9","10270,1,99999,9",,,,"MET058METAR ZSPD 052000Z 34005MPS 9999 BKN026 07/05 Q1027 NOSIG="
"58321199999","2022-01-05T20:30:00","4","31.143378","121.805214","3.96","PUDONG, CH","FM-15","99999","V020","350,1,N,0060,1","01006,1,C,N","009999,1,9,9","+0070,1","+0050,1","99999,9",,"07,1,+01006,1,99,9",,"9,AGL   ,+99999,+99999","99,99,9,07,1,99,9,01006,1,99,9,99,9","10280,1,99999,9",,,,"MET058METAR ZSPD 052030Z 35006MPS 9999 BKN033 07/05 Q1028 NOSIG="
"58321199999","2022-01-05T21:00:00","4","31.143378","121.805214","3.96","PUDONG, CH","FM-15","99999","V020","350,1,N,0060,1","01006,1,C,N","009999,1,9,9","+0070,1","+0040,1","99999,9",,"07,1,+01006,1,99,9",,"9,AGL   ,+99999,+99999","99,99,9,07,1,99,9,01006,1,99,9,99,9","10280,1,99999,9",,,,"MET058METAR ZSPD 052100Z 35006MPS 9999 BKN033 07/04 Q1028 NOSIG="
"58321199999","2022-01-05T21:30:00","4","31.143378","121.805214","3.96","PUDONG, CH","FM-15","99999","V020","350,1,N,0060,1","01006,1,C,N","009999,1,9,9","+0070,1","+0040,1","99999,9",,"07,1,+01006,1,99,9",,"9,AGL   ,+99999,+99999","99,99,9,07,1,99,9,01006,1,99,9,99,9","10290,1,99999,9",,,,"MET058METAR ZSPD 052130Z 35006MPS 9999 BKN033 07/04 Q1029 NOSIG="
"58321199999","2022-01-05T22:00:00","4","31.143378","121.805214","3.96","PUDONG, CH","FM-15","99999","V020","350,1,N,0070,1","01006,1,C,N","009999,1,9,9","+0070,1","+0040,1","99999,9",,"08,1,+01006,1,99,9",,"9,AGL   ,+99999,+99999","99,99,9,08,1,99,9,01006,1,99,9,99,9","10290,1,99999,9",,,,"MET058METAR ZSPD 052200Z 35007MPS 9999 OVC033 07/04 Q1029 NOSIG="
"58321199999","2022-01-05T22:30:00","4","31.143378","121.805214","3.96","PUDONG, CH","FM-15","99999","V020","350,1,N,0070,1","01219,1,C,N","009999,1,9,9","+0070,1","+0040,1","99999,9",,"07,1,+01219,1,99,9",,"9,AGL   ,+99999,+99999","99,99,9,07,1,99,9,01219,1,99,9,99,9","10290,1,99999,9",,,,"MET058METAR ZSPD 052230Z 35007MPS 9999 BKN040 07/04 Q1029 NOSIG="
"58321199999","2022-01-05T23:00:00","4","31.143378","121.805214","3.96","PUDONG, CH","FM-15","99999","V020","360,1,N,0080,1","01219,1,C,N","009999,1,9,9","+0070,1","+0030,1","99999,9",,"07,1,+01219,1,99,9",,"9,AGL   ,+99999,+99999","99,99,9,07,1,99,9,01219,1,99,9,99,9","10290,1,99999,9",,,,"MET058METAR ZSPD 052300Z 36008MPS 9999 BKN040 07/03 Q1029 NOSIG="
"58321199999","2022-01-05T23:30:00","4","31.143378","121.805214","3.96","PUDONG, CH","FM-15","99999","V020","360,1,N,0080,1","01219,1,C,N","009999,1,9,9","+0080,1","+0040,1","99999,9",,"07,1,+01219,1,99,9",,"9,AGL   ,+99999,+99999","99,99,9,07,1,99,9,01219,1,99,9,99,9","10290,1,99999,9",,,,"MET058METAR ZSPD 052330Z 36008MPS 9999 BKN040 08/04 Q1029 NOSIG="
"58321199999","2022-01-06T00:00:00","4","31.143378","121.805214","3.96","PUDONG, CH","FM-15","99999","V020","360,1,N,0070,1","01219,1,C,N","009999,1,9,9","+0080,1","+0030,1","99999,9",,"07,1,+01219,1,99,9",,"9,AGL   ,+99999,+99999","99,99,9,07,1,99,9,01219,1,99,9,99,9","10300,1,99999,9",,,,"MET058METAR ZSPD 060000Z 36007MPS 9999 BKN040 08/03 Q1030 NOSIG="
"58321199999","2022-01-06T00:30:00","4","31.143378","121.805214","3.96","PUDONG, CH","FM-15","99999","V020","360,1,N,0070,1","01219,1,C,N","009999,1,9,9","+0080,1","+0030,1","99999,9",,"07,1,+01219,1,99,9",,"9,AGL   ,+99999,+99999","99,99,9,07,1,99,9,01219,1,99,9,99,9","10300,1,99999,9",,,,"MET058METAR ZSPD 060030Z 36007MPS 9999 BKN040 08/03 Q1030 NOSIG="
"58321199999","2022-01-06T01:00:00","4","31.143378","121.805214","3.96","PUDONG, CH","FM-15","99999","V020","360,1,N,0070,1","01219,1,C,N","009999,1,9,9","+0080,1","+0030,1","99999,9",,"07,1,+01219,1,99,9",,"9,AGL   ,+99999,+99999","99,99,9,07,1,99,9,01219,1,99,9,99,9","10310,1,99999,9",,,,"MET058METAR ZSPD 060100Z 36007MPS 9999 BKN040 08/03 Q1031 NOSIG="
"58321199999","2022-01-06T01:30:00","4","31.143378","121.805214","3.96","PUDONG, CH","FM-15","99999","V020","360,1,N,0070,1","01219,1,C,N","009999,1,9,9","+0080,1","+0040,1","99999,9",,"07,1,+01219,1,99,9",,"9,AGL   ,+99999,+99999","99,99,9,07,1,99,9,01219,1,99,9,99,9","10310,1,99999,9",,,,"MET058METAR ZSPD 060130Z 36007MPS 9999 BKN040 08/04 Q1031 NOSIG="
"58321199999","2022-01-06T02:00:00","4","31.143378","121.805214","3.96","PUDONG, CH","FM-15","99999","V020","360,1,N,0060,1","01219,1,C,N","009999,1,9,9","+0090,1","+0030,1","99999,9",,"07,1,+01219,1,99,9",,"9,AGL   ,+99999,+99999","99,99,9,07,1,99,9,01219,1,99,9,99,9","10310,1,99999,9",,,,"MET058METAR ZSPD 060200Z 36006MPS 9999 BKN040 09/03 Q1031 NOSIG="
"58321199999","2022-01-06T02:30:00","4","31.143378","121.805214","3.96","PUDONG, CH","FM-15","99999","V020","020,1,V,0070,1","01219,1,C,N","009999,1,9,9","+0090,1","+0020,1","99999,9",,"07,1,+01219,1,99,9",,"9,AGL   ,+99999,+99999","99,99,9,07,1,99,9,01219,1,99,9,99,9","10310,1,99999,9",,,,"MET066METAR ZSPD 060230Z 02007MPS 350V050 9999 BKN040 09/02 Q1031 NOSIG="
"58321199999","2022-01-06T03:00:00","4","31.143378","121.805214","3.96","PUDONG, CH","FM-15","99999","V020","020,1,N,0070,1","01219,1,C,N","009999,1,9,9","+0090,1","+0020,1","99999,9",,"07,1,+01219,1,99,9",,"9,AGL   ,+99999,+99999","99,99,9,07,1,99,9,01219,1,99,9,99,9","10310,1,99999,9",,,,"MET058METAR ZSPD 060300Z 02007MPS 9999 BKN040 09/02 Q1031 NOSIG="
"58321199999","2022-01-06T03:30:00","4","31.143378","121.805214","3.96","PUDONG, CH","FM-15","99999","V020","020,1,N,0070,1","01219,1,C,N","009999,1,9,9","+0090,1","+0030,1","99999,9",,"07,1,+01219,1,99,9",,"9,AGL   ,+99999,+99999","99,99,9,07,1,99,9,01219,1,99,9,99,9","10300,1,99999,9",,,,"MET058METAR ZSPD 060330Z 02007MPS 9999 BKN040 09/03 Q1030 NOSIG="
"58321199999","2022-01-06T04:00:00","4","31.143378","121.805214","3.96","PUDONG, CH","FM-15","99999","V020","020,1,N,0090,1","01219,1,C,N","009999,1,9,9","+0090,1","+0020,1","99999,9",,"07,1,+01219,1,99,9",,"9,AGL   ,+99999,+99999","99,99,9,07,1,99,9,01219,1,99,9,99,9","10300,1,99999,9",,,,"MET058METAR ZSPD 060400Z 02009MPS 9999 BKN040 09/02 Q1030 NOSIG="
"58321199999","2022-01-06T04:30:00","4","31.143378","121.805214","3.96","PUDONG, CH","FM-15","99999","V020","020,1,N,0070,1","01219,1,C,N","009999,1,9,9","+0100,1","+0020,1","99999,9",,"07,1,+01219,1,99,9",,"9,AGL   ,+99999,+99999","99,99,9,07,1,99,9,01219,1,99,9,99,9","10290,1,99999,9",,,,"MET058METAR ZSPD 060430Z 02007MPS 9999 BKN040 10/02 Q1029 NOSIG="
"58321199999","2022-01-06T05:00:00","4","31.143378","121.805214","3.96","PUDONG, CH","FM-15","99999","V020","020,1,N,0090,1","01219,1,C,N","009999,1,9,9","+0100,1","+0010,1","99999,9",,"07,1,+01219,1,99,9",,"9,AGL   ,+99999,+99999","99,99,9,07,1,99,9,01219,1,99,9,99,9","10290,1,99999,9",,,,"MET058METAR ZSPD 060500Z 02009MPS 9999 BKN040 10/01 Q1029 NOSIG="
"58321199999","2022-01-06T05:30:00","4","31.143378","121.805214","3.96","PUDONG, CH","FM-15","99999","V020","020,1,N,0080,1","01219,1,C,N","009999,1,9,9","+0090,1","+0020,1","99999,9",,"07,1,+01219,1,99,9",,"9,AGL   ,+99999,+99999","99,99,9,07,1,99,9,01219,1,99,9,99,9","10290,1,99999,9",,,,"MET058METAR ZSPD 060530Z 02008MPS 9999 BKN040 09/02 Q1029 NOSIG="
"58321199999","2022-01-06T06:00:00","4","31.143378","121.805214","3.96","PUDONG, CH","FM-15","99999","V020","020,1,N,0070,1","01006,1,C,N","009999,1,9,9","+0090,1","+0010,1","99999,9",,"07,1,+01006,1,99,9",,"9,AGL   ,+99999,+99999","99,99,9,07,1,99,9,01006,1,99,9,99,9","10300,1,99999,9",,,,"MET058METAR ZSPD 060600Z 02007MPS 9999 BKN033 09/01 Q1030 NOSIG="
"58321199999","2022-01-06T06:30:00","4","31.143378","121.805214","3.96","PUDONG, CH","FM-15","99999","V020","020,1,N,0070,1","01006,1,C,N","009999,1,9,9","+0090,1","+0010,1","99999,9",,"07,1,+01006,1,99,9",,"9,AGL   ,+99999,+99999","99,99,9,07,1,99,9,01006,1,99,9,99,9","10290,1,99999,9",,,,"MET058METAR ZSPD 060630Z 02007MPS 9999 BKN033 09/01 Q1029 NOSIG="
"58321199999","2022-01-06T07:00:00","4","31.143378","121.805214","3.96","PUDONG, CH","FM-15","99999","V020","020,1,N,0080,1","01006,1,C,N","009999,1,9,9","+0090,1","+0010,1","99999,9",,"07,1,+01006,1,99,9",,"9,AGL   ,+99999,+99999","99,99,9,07,1,99,9,01006,1,99,9,99,9","10300,1,99999,9",,,,"MET058METAR ZSPD 060700Z 02008MPS 9999 BKN033 09/01 Q1030 NOSIG="
"58321199999","2022-01-06T07:30:00","4","31.143378","121.805214","3.96","PUDONG, CH","FM-15","99999","V020","020,1,N,0080,1","01006,1,C,N","009999,1,9,9","+0090,1","+0010,1","99999,9",,"07,1,+01006,1,99,9",,"9,AGL   ,+99999,+99999","99,99,9,07,1,99,9,01006,1,99,9,99,9","10290,1,99999,9",,,,"MET058METAR ZSPD 060730Z 02008MPS 9999 BKN033 09/01 Q1029 NOSIG="
"58321199999","2022-01-06T08:00:00","4","31.143378","121.805214","3.96","PUDONG, CH","FM-15","99999","V020","010,1,N,0060,1","01006,1,C,N","009999,1,9,9","+0090,1","+0010,1","99999,9",,"07,1,+01006,1,99,9",,"9,AGL   ,+99999,+99999","99,99,9,07,1,99,9,01006,1,99,9,99,9","10300,1,99999,9",,,,"MET058METAR ZSPD 060800Z 01006MPS 9999 BKN033 09/01 Q1030 NOSIG="
"58321199999","2022-01-06T08:30:00","4","31.143378","121.805214","3.96","PUDONG, CH","FM-15","99999","V020","010,1,N,0060,1","01006,1,C,N","009999,1,9,9","+0080,1","+0010,1","99999,9",,"07,1,+01006,1,99,9",,"9,AGL   ,+99999,+99999","99,99,9,07,1,99,9,01006,1,99,9,99,9","10300,1,99999,9",,,,"MET058METAR ZSPD 060830Z 01006MPS 9999 BKN033 08/01 Q1030 NOSIG="
"58321199999","2022-01-06T09:00:00","4","31.143378","121.805214","3.96","PUDONG, CH","FM-15","99999","V020","010,1,N,0050,1","01006,1,C,N","009999,1,9,9","+0080,1","+0010,1","99999,9",,"07,1,+01006,1,99,9",,"9,AGL   ,+99999,+99999","99,99,9,07,1,99,9,01006,1,99,9,99,9","10300,1,99999,9",,,,"MET058METAR ZSPD 060900Z 01005MPS 9999 BKN033 08/01 Q1030 NOSIG="
"58321199999","2022-01-06T09:30:00","4","31.143378","121.805214","3.96","PUDONG, CH","FM-15","99999","V020","010,1,N,0060,1","01006,1,C,N","009999,1,9,9","+0080,1","+0010,1","99999,9",,"07,1,+01006,1,99,9",,"9,AGL   ,+99999,+99999","99,99,9,07,1,99,9,01006,1,99,9,99,9","10300,1,99999,9",,,,"MET058METAR ZSPD 060930Z 01006MPS 9999 BKN033 08/01 Q1030 NOSIG="
"58321199999","2022-01-06T10:00:00","4","31.143378","121.805214","3.96","PUDONG, CH","FM-15","99999","V020","010,1,N,0060,1","99999,9,9,N","009999,1,9,9","+0070,1","+0010,1","99999,9",,"04,1,+01219,1,99,9",,"9,AGL   ,+99999,+99999","99,99,9,04,1,99,9,01219,1,99,9,99,9","10300,1,99999,9",,,,"MET058METAR ZSPD 061000Z 01006MPS 9999 SCT040 07/01 Q1030 NOSIG="
"58321199999","2022-01-06T10:30:00","4","31.143378","121.805214","3.96","PUDONG, CH","FM-15","99999","V020","360,1,N,0060,1","99999,9,9,N","009999,1,9,9","+0070,1","+0020,1","99999,9",,"04,1,+01219,1,99,9",,"9,AGL   ,+99999,+99999","99,99,9,04,1,99,9,01219,1,99,9,99,9","10310,1,99999,9",,,,"MET058METAR ZSPD 061030Z 36006MPS 9999 SCT040 07/02 Q1031 NOSIG="
"58321199999","2022-01-06T11:00:00","4","31.143378","121.805214","3.96","PUDONG, CH","FM-15","99999","V020","360,1,N,0060,1","99999,9,9,N","009999,1,9,9","+0070,1","+0010,1","99999,9",,"04,1,+01219,1,99,9",,"9,AGL   ,+99999,+99999","99,99,9,04,1,99,9,01219,1,99,9,99,9","10310,1,99999,9",,,,"MET058METAR ZSPD 061100Z 36006MPS 9999 SCT040 07/01 Q1031 NOSIG="
"58321199999","2022-01-06T11:30:00","4","31.143378","121.805214","3.96","PUDONG, CH","FM-15","99999","V020","350,1,N,0060,1","01219,1,C,N","009999,1,9,9","+0070,1","+0020,1","99999,9",,"07,1,+01219,1,99,9",,"9,AGL   ,+99999,+99999","99,99,9,07,1,99,9,01219,1,99,9,99,9","10310,1,99999,9",,,,"MET058METAR ZSPD 061130Z 35006MPS 9999 BKN040 07/02 Q1031 NOSIG="
"58321199999","2022-01-06T12:00:00","4","31.143378","121.805214","3.96","PUDONG, CH","FM-15","99999","V020","350,1,N,0060,1","01219,1,C,N","009999,1,9,9","+0070,1","+0010,1","99999,9",,"07,1,+01219,1,99,9",,"9,AGL   ,+99999,+99999","99,99,9,07,1,99,9,01219,1,99,9,99,9","10310,1,99999,9",,,,"MET058METAR ZSPD 061200Z 35006MPS 9999 BKN040 07/01 Q1031 NOSIG="
"58321199999","2022-01-06T12:30:00","4","31.143378","121.805214","3.96","PUDONG, CH","FM-15","99999","V020","350,1,N,0050,1","01219,1,C,N","009999,1,9,9","+0070,1","+0010,1","99999,9",,"07,1,+01219,1,99,9",,"9,AGL   ,+99999,+99999","99,99,9,07,1,99,9,01219,1,99,9,99,9","10310,1,99999,9",,,,"MET058METAR ZSPD 061230Z 35005MPS 9999 BKN040 07/01 Q1031 NOSIG="
"58321199999","2022-01-06T13:00:00","4","31.143378","121.805214","3.96","PUDONG, CH","FM-15","99999","V020","330,1,N,0050,1","01219,1,C,N","009999,1,9,9","+0060,1","+0010,1","99999,9",,"07,1,+01219,1,99,9",,"9,AGL   ,+99999,+99999","99,99,9,07,1,99,9,01219,1,99,9,99,9","10310,1,99999,9",,,,"MET058METAR ZSPD 061300Z 33005MPS 9999 BKN040 06/01 Q1031 NOSIG="
"58321199999","2022-01-06T13:30:00","4","31.143378","121.805214","3.96","PUDONG, CH","FM-15","99999","V020","330,1,N,0050,1","01219,1,C,N","009999,1,9,9","+0060,1","+0020,1","99999,9",,"07,1,+01219,1,99,9",,"9,AGL   ,+99999,+99999","99,99,9,07,1,99,9,01219,1,99,9,99,9","10320,1,99999,9",,,,"MET058METAR ZSPD 061330Z 33005MPS 9999 BKN040 06/02 Q1032 NOSIG="
"58321199999","2022-01-06T14:00:00","4","31.143378","121.805214","3.96","PUDONG, CH","FM-15","99999","V020","330,1,N,0050,1","01219,1,C,N","009999,1,9,9","+0060,1","+0020,1","99999,9",,"07,1,+01219,1,99,9",,"9,AGL   ,+99999,+99999","99,99,9,07,1,99,9,01219,1,99,9,99,9","10320,1,99999,9",,,,"MET058METAR ZSPD 061400Z 33005MPS 9999 BKN040 06/02 Q1032 NOSIG="
"58321199999","2022-01-06T14:30:00","4","31.143378","121.805214","3.96","PUDONG, CH","FM-15","99999","V020","320,1,V,0050,1","01219,1,C,N","009999,1,9,9","+0070,1","+0020,1","99999,9",,"07,1,+01219,1,99,9",,"9,AGL   ,+99999,+99999","99,99,9,07,1,99,9,01219,1,99,9,99,9","10320,1,99999,9",,,,"MET066METAR ZSPD 061430Z 32005MPS 290V350 9999 BKN040 07/02 Q1032 NOSIG="
"58321199999","2022-01-06T15:00:00","4","31.143378","121.805214","3.96","PUDONG, CH","FM-15","99999","V020","320,1,N,0050,1","01219,1,C,N","009999,1,9,9","+0070,1","+0010,1","99999,9",,"07,1,+01219,1,99,9",,"9,AGL   ,+99999,+99999","99,99,9,07,1,99,9,01219,1,99,9,99,9","10320,1,99999,9",,,,"MET058METAR ZSPD 061500Z 32005MPS 9999 BKN040 07/01 Q1032 NOSIG="
"58321199999","2022-01-06T15:30:00","4","31.143378","121.805214","3.96","PUDONG, CH","FM-15","99999","V020","310,1,N,0040,1","01219,1,C,N","009999,1,9,9","+0070,1","+0010,1","99999,9",,"07,1,+01219,1,99,9",,"9,AGL   ,+99999,+99999","99,99,9,07,1,99,9,01219,1,99,9,99,9","10320,1,99999,9",,,,"MET058METAR ZSPD 061530Z 31004MPS 9999 BKN040 07/01 Q1032 NOSIG="
"58321199999","2022-01-06T16:00:00","4","31.143378","121.805214","3.96","PUDONG, CH","FM-15","99999","V020","310,1,N,0050,1","01219,1,C,N","009999,1,9,9","+0070,1","+0010,1","99999,9",,"07,1,+01219,1,99,9",,"9,AGL   ,+99999,+99999","99,99,9,07,1,99,9,01219,1,99,9,99,9","10320,1,99999,9",,,,"MET058METAR ZSPD 061600Z 31005MPS 9999 BKN040 07/01 Q1032 NOSIG="
"58321199999","2022-01-06T16:30:00","4","31.143378","121.805214","3.96","PUDONG, CH","FM-15","99999","V020","310,1,N,0050,1","01219,1,C,N","009999,1,9,9","+0070,1","+0010,1","99999,9",,"07,1,+01219,1,99,9",,"9,AGL   ,+99999,+99999","99,99,9,07,1,99,9,01219,1,99,9,99,9","10320,1,99999,9",,,,"MET058METAR ZSPD 061630Z 31005MPS 9999 BKN040 07/01 Q1032 NOSIG="
"58321199999","2022-01-06T17:00:00","4","31.143378","121.805214","3.96","PUDONG, CH","FM-15","99999","V020","330,1,N,0050,1","01219,1,C,N","009999,1,9,9","+0070,1","+0020,1","99999,9",,"07,1,+01219,1,99,9",,"9,AGL   ,+99999,+99999","99,99,9,07,1,99,9,01219,1,99,9,99,9","10320,1,99999,9",,,,"MET058METAR ZSPD 061700Z 33005MPS 9999 BKN040 07/02 Q1032 NOSIG="
"58321199999","2022-01-06T17:30:00","4","31.143378","121.805214","3.96","PUDONG, CH","FM-15","99999","V020","330,1,N,0060,1","01219,1,C,N","009999,1,9,9","+0070,1","+0020,1","99999,9",,"07,1,+01219,1,99,9",,"9,AGL   ,+99999,+99999","99,99,9,07,1,99,9,01219,1,99,9,99,9","10320,1,99999,9",,,,"MET058METAR ZSPD 061730Z 33006MPS 9999 BKN040 07/02 Q1032 NOSIG="
"58321199999","2022-01-06T18:00:00","4","31.143378","121.805214","3.96","PUDONG, CH","FM-15","99999","V020","320,1,N,0060,1","01219,1,C,N","009999,1,9,9","+0070,1","+0020,1","99999,9",,"07,1,+01219,1,99,9",,"9,AGL   ,+99999,+99999","99,99,9,07,1,99,9,01219,1,99,9,99,9","10320,1,99999,9",,,,"MET058METAR ZSPD 061800Z 32006MPS 9999 BKN040 07/02 Q1032 NOSIG="
"58321199999","2022-01-06T18:30:00","4","31.143378","121.805214","3.96","PUDONG, CH","FM-15","99999","V020","320,1,N,0050,1","01219,1,C,N","009999,1,9,9","+0070,1","+0020,1","99999,9",,"07,1,+01219,1,99,9",,"9,AGL   ,+99999,+99999","99,99,9,07,1,99,9,01219,1,99,9,99,9","10310,1,99999,9",,,,"MET058METAR ZSPD 061830Z 32005MPS 9999 BKN040 07/02 Q1031 NOSIG="
"58321199999","2022-01-06T19:00:00","4","31.143378","121.805214","3.96","PUDONG, CH","FM-15","99999","V020","320,1,N,0060,1","99999,9,9,Y","009900,5,9,9","+0070,1","+0020,1","99999,9",,,,,,"10310,1,99999,9",,,,"MET052METAR ZSPD 061900Z 32006MPS CAVOK 07/02 Q1031 NOSIG="
"58321199999","2022-01-06T19:30:00","4","31.143378","121.805214","3.96","PUDONG, CH","FM-15","99999","V020","320,1,N,0050,1","99999,9,9,Y","009900,5,9,9","+0060,1","+0020,1","99999,9",,,,,,"10310,1,99999,9",,,,"MET052METAR ZSPD 061930Z 32005MPS CAVOK 06/02 Q1031 NOSIG="
"58321199999","2022-01-06T20:00:00","4","31.143378","121.805214","3.96","PUDONG, CH","FM-15","99999","V020","360,1,N,0050,1","99999,9,9,Y","009900,5,9,9","+0060,1","+0010,1","99999,9",,,,,,"10310,1,99999,9",,,,"MET052METAR ZSPD 062000Z 36005MPS CAVOK 06/01 Q1031 NOSIG="
"58321199999","2022-01-06T20:30:00","4","31.143378","121.805214","3.96","PUDONG, CH","FM-15","99999","V020","350,1,N,0060,1","99999,9,9,Y","009900,5,9,9","+0060,1","+0020,1","99999,9",,,,,,"10310,1,99999,9",,,,"MET052METAR ZSPD 062030Z 35006MPS CAVOK 06/02 Q1031 NOSIG="
"58321199999","2022-01-06T21:00:00","4","31.143378","121.805214","3.96","PUDONG, CH","FM-15","99999","V020","360,1,N,0060,1","99999,9,9,Y","009900,5,9,9","+0060,1","+0010,1","99999,9",,,,,,"10310,1,99999,9",,,,"MET052METAR ZSPD 062100Z 36006MPS CAVOK 06/01 Q1031 NOSIG="
"58321199999","2022-01-06T21:30:00","4","31.143378","121.805214","3.96","PUDONG, CH","FM-15","99999","V020","010,1,N,0050,1","99999,9,9,Y","009900,5,9,9","+0060,1","+0020,1","99999,9",,,,,,"10310,1,99999,9",,,,"MET052METAR ZSPD 062130Z 01005MPS CAVOK 06/02 Q1031 NOSIG="
"58321199999","2022-01-06T22:00:00","4","31.143378","121.805214","3.96","PUDONG, CH","FM-15","99999","V020","010,1,N,0040,1","99999,9,9,Y","009900,5,9,9","+0060,1","+0020,1","99999,9",,,,,,"10310,1,99999,9",,,,"MET052METAR ZSPD 062200Z 01004MPS CAVOK 06/02 Q1031 NOSIG="
"58321199999","2022-01-06T22:30:00","4","31.143378","121.805214","3.96","PUDONG, CH","FM-15","99999","V020","010,1,N,0040,1","99999,9,9,Y","009900,5,9,9","+0060,1","+0020,1","99999,9",,,,,,"10310,1,99999,9",,,,"MET052METAR ZSPD 062230Z 01004MPS CAVOK 06/02 Q1031 NOSIG="
"58321199999","2022-01-06T23:00:00","4","31.143378","121.805214","3.96","PUDONG, CH","FM-15","99999","V020","020,1,N,0040,1","99999,9,9,Y","009900,5,9,9","+0060,1","+0020,1","99999,9",,,,,,"10310,1,99999,9",,,,"MET052METAR ZSPD 062300Z 02004MPS CAVOK 06/02 Q1031 NOSIG="
"58321199999","2022-01-06T23:30:00","4","31.143378","121.805214","3.96","PUDONG, CH","FM-15","99999","V020","010,1,N,0040,1","99999,9,9,Y","009900,5,9,9","+0060,1","+0030,1","99999,9",,,,,,"10320,1,99999,9",,,,"MET052METAR ZSPD 062330Z 01004MPS CAVOK 06/03 Q1032 NOSIG="
"58321199999","2022-01-07T00:00:00","4","31.143378","121.805214","3.96","PUDONG, CH","FM-15","99999","V020","360,1,N,0050,1","99999,9,9,Y","009900,5,9,9","+0070,1","+0030,1","99999,9",,,,,,"10310,1,99999,9",,,,"MET052METAR ZSPD 070000Z 36005MPS CAVOK 07/03 Q1031 NOSIG="
"58321199999","2022-01-07T00:30:00","4","31.143378","121.805214","3.96","PUDONG, CH","FM-15","99999","V020","360,1,N,0050,1","99999,9,9,Y","009900,5,9,9","+0080,1","+0030,1","99999,9",,,,,,"10310,1,99999,9",,,,"MET052METAR ZSPD 070030Z 36005MPS CAVOK 08/03 Q1031 NOSIG="
"58321199999","2022-01-07T01:00:00","4","31.143378","121.805214","3.96","PUDONG, CH","FM-15","99999","V020","010,1,N,0060,1","99999,9,9,Y","009900,5,9,9","+0080,1","+0020,1","99999,9",,,,,,"10310,1,99999,9",,,,"MET052METAR ZSPD 070100Z 01006MPS CAVOK 08/02 Q1031 NOSIG="
"58321199999","2022-01-07T01:30:00","4","31.143378","121.805214","3.96","PUDONG, CH","FM-15","99999","V020","010,1,N,0050,1","99999,9,9,Y","009900,5,9,9","+0090,1","+0030,1","99999,9",,,,,,"10320,1,99999,9",,,,"MET052METAR ZSPD 070130Z 01005MPS CAVOK 09/03 Q1032 NOSIG="
"58321199999","2022-01-07T02:00:00","4","31.143378","121.805214","3.96","PUDONG, CH","FM-15","99999","V020","020,1,N,0060,1","99999,9,9,Y","009900,5,9,9","+0090,1","+0030,1","99999,9",,,,,,"10310,1,99999,9",,,,"MET052METAR ZSPD 070200Z 02006MPS CAVOK 09/03 Q1031 NOSIG="
"58321199999","2022-01-07T02:30:00","4","31.143378","121.805214","3.96","PUDONG, CH","FM-15","99999","V020","020,1,N,0070,1","99999,9,9,Y","009900,5,9,9","+0100,1","+0030,1","99999,9",,,,,,"10310,1,99999,9",,,,"MET052METAR ZSPD 070230Z 02007MPS CAVOK 10/03 Q1031 NOSIG="
"58321199999","2022-01-07T03:00:00","4","31.143378","121.805214","3.96","PUDONG, CH","FM-15","99999","V020","030,1,N,0060,1","99999,9,9,Y","009900,5,9,9","+0100,1","+0020,1","99999,9",,,,,,"10310,1,99999,9",,,,"MET052METAR ZSPD 070300Z 03006MPS CAVOK 10/02 Q1031 NOSIG="
"58321199999","2022-01-07T03:30:00","4","31.143378","121.805214","3.96","PUDONG, CH","FM-15","99999","V020","040,1,V,0060,1","99999,9,9,Y","009900,5,9,9","+0110,1","+0010,1","99999,9",,,,,,"10300,1,99999,9",,,,"MET060METAR ZSPD 070330Z 04006MPS 360V070 CAVOK 11/01 Q1030 NOSIG="
"58321199999","2022-01-07T04:00:00","4","31.143378","121.805214","3.96","PUDONG, CH","FM-15","99999","V020","040,1,V,0060,1","99999,9,9,Y","009900,5,9,9","+0110,1","+0020,1","99999,9",,,,,,"10300,1,99999,9",,,,"MET060METAR ZSPD 070400Z 04006MPS 360V070 CAVOK 11/02 Q1030 NOSIG="
"58321199999","2022-01-07T04:30:00","4","31.143378","121.805214","3.96","PUDONG, CH","FM-15","99999","V020","030,1,V,0060,1","99999,9,9,Y","009900,5,9,9","+0100,1","+0010,1","99999,9",,,,,,"10290,1,99999,9",,,,"MET060METAR ZSPD 070430Z 03006MPS 010V070 CAVOK 10/01 Q1029 NOSIG="
"58321199999","2022-01-07T05:00:00","4","31.143378","121.805214","3.96","PUDONG, CH","FM-15","99999","V020","040,1,N,0060,1","99999,9,9,Y","009900,5,9,9","+0110,1","+0010,1","99999,9",,,,,,"10290,1,99999,9",,,,"MET052METAR ZSPD 070500Z 04006MPS CAVOK 11/01 Q1029 NOSIG="
"58321199999","2022-01-07T05:30:00","4","31.143378","121.805214","3.96","PUDONG, CH","FM-15","99999","V020","020,1,V,0060,1","99999,9,9,Y","009900,5,9,9","+0100,1","+0010,1","99999,9",,,,,,"10290,1,99999,9",,,,"MET060METAR ZSPD 070530Z 02006MPS 350V050 CAVOK 10/01 Q1029 NOSIG="
"58321199999","2022-01-07T06:00:00","4","31.143378","121.805214","3.96","PUDONG, CH","FM-15","99999","V020","030,1,V,0050,1","99999,9,9,Y","009900,5,9,9","+0110,1","+0010,1","99999,9",,,,,,"10290,1,99999,9",,,,"MET060METAR ZSPD 070600Z 03005MPS 360V070 CAVOK 11/01 Q1029 NOSIG="
"58321199999","2022-01-07T06:30:00","4","31.143378","121.805214","3.96","PUDONG, CH","FM-15","99999","V020","030,1,V,0050,1","99999,9,9,Y","009900,5,9,9","+0100,1","+0010,1","99999,9",,,,,,"10290,1,99999,9",,,,"MET060METAR ZSPD 070630Z 03005MPS 360V060 CAVOK 10/01 Q1029 NOSIG="
"58321199999","2022-01-07T07:00:00","4","31.143378","121.805214","3.96","PUDONG, CH","FM-15","99999","V020","040,1,N,0060,1","99999,9,9,Y","009900,5,9,9","+0100,1","+0020,1","99999,9",,,,,,"10280,1,99999,9",,,,"MET052METAR ZSPD 070700Z 04006MPS CAVOK 10/02 Q1028 NOSIG="
"58321199999","2022-01-07T07:30:00","4","31.143378","121.805214","3.96","PUDONG, CH","FM-15","99999","V020","030,1,N,0060,1","99999,9,9,Y","009900,5,9,9","+0090,1","+0010,1","99999,9",,,,,,"10280,1,99999,9",,,,"MET052METAR ZSPD 070730Z 03006MPS CAVOK 09/01 Q1028 NOSIG="
"58321199999","2022-01-07T08:00:00","4","31.143378","121.805214","3.96","PUDONG, CH","FM-15","99999","V020","040,1,N,0060,1","99999,9,9,Y","009900,5,9,9","+0090,1","+0020,1","99999,9",,,,,,"10280,1,99999,9",,,,"MET052METAR ZSPD 070800Z 04006MPS CAVOK 09/02 Q1028 NOSIG="
"58321199999","2022-01-07T08:30:00","4","31.143378","121.805214","3.96","PUDONG, CH","FM-15","99999","V020","030,1,V,0060,1","99999,9,9,Y","009900,5,9,9","+0080,1","+0020,1","99999,9",,,,,,"10280,1,99999,9",,,,"MET060METAR ZSPD 070830Z 03006MPS 010V070 CAVOK 08/02 Q1028 NOSIG="
"58321199999","2022-01-07T09:00:00","4","31.143378","121.805214","3.96","PUDONG, CH","FM-15","99999","V020","030,1,N,0050,1","99999,9,9,N","009999,1,9,9","+0080,1","+0020,1","99999,9",,"04,1,+01311,1,99,9",,"9,AGL   ,+99999,+99999","99,99,9,04,1,99,9,01311,1,99,9,99,9","10290,1,99999,9",,,,"MET058METAR ZSPD 070900Z 03005MPS 9999 SCT043 08/02 Q1029 NOSIG="
"58321199999","2022-01-07T09:30:00","4","31.143378","121.805214","3.96","PUDONG, CH","FM-15","99999","V020","030,1,N,0070,1","01311,1,C,N","009999,1,9,9","+0080,1","+0020,1","99999,9",,"07,1,+01311,1,99,9",,"9,AGL   ,+99999,+99999","99,99,9,07,1,99,9,01311,1,99,9,99,9","10290,1,99999,9",,,,"MET058METAR ZSPD 070930Z 03007MPS 9999 BKN043 08/02 Q1029 NOSIG="
"58321199999","2022-01-07T10:00:00","4","31.143378","121.805214","3.96","PUDONG, CH","FM-15","99999","V020","030,1,N,0060,1","01311,1,C,N","009999,1,9,9","+0080,1","+0030,1","99999,9",,"07,1,+01311,1,99,9",,"9,AGL   ,+99999,+99999","99,99,9,07,1,99,9,01311,1,99,9,99,9","10290,1,99999,9",,,,"MET058METAR ZSPD 071000Z 03006MPS 9999 BKN043 08/03 Q1029 NOSIG="
"58321199999","2022-01-07T10:30:00","4","31.143378","121.805214","3.96","PUDONG, CH","FM-15","99999","V020","030,1,N,0060,1","99999,9,9,Y","009900,5,9,9","+0080,1","+0020,1","99999,9",,,,,,"10290,1,99999,9",,,,"MET052METAR ZSPD 071030Z 03006MPS CAVOK 08/02 Q1029 NOSIG="
"58321199999","2022-01-07T11:00:00","4","31.143378","121.805214","3.96","PUDONG, CH","FM-15","99999","V020","020,1,N,0050,1","99999,9,9,Y","009900,5,9,9","+0080,1","+0030,1","99999,9",,,,,,"10290,1,99999,9",,,,"MET052METAR ZSPD 071100Z 02005MPS CAVOK 08/03 Q1029 NOSIG="
"58321199999","2022-01-07T11:30:00","4","31.143378","121.805214","3.96","PUDONG, CH","FM-15","99999","V020","030,1,N,0050,1","99999,9,9,Y","009900,5,9,9","+0080,1","+0020,1","99999,9",,,,,,"10290,1,99999,9",,,,"MET052METAR ZSPD 071130Z 03005MPS CAVOK 08/02 Q1029 NOSIG="
"58321199999","2022-01-07T12:00:00","4","31.143378","121.805214","3.96","PUDONG, CH","FM-15","99999","V020","030,1,N,0050,1","99999,9,9,Y","009900,5,9,9","+0070,1","+0020,1","99999,9",,,,,,"10290,1,99999,9",,,,"MET052METAR ZSPD 071200Z 03005MPS CAVOK 07/02 Q1029 NOSIG="
"58321199999","2022-01-07T12:30:00","4","31.143378","121.805214","3.96","PUDONG, CH","FM-15","99999","V020","030,1,N,0050,1","99999,9,9,Y","009900,5,9,9","+0070,1","+0020,1","99999,9",,,,,,"10300,1,99999,9",,,,"MET052METAR ZSPD 071230Z 03005MPS CAVOK 07/02 Q1030 NOSIG="
"58321199999","2022-01-07T13:00:00","4","31.143378","121.805214","3.96","PUDONG, CH","FM-15","99999","V020","030,1,N,0040,1","99999,9,9,Y","009900,5,9,9","+0070,1","+0020,1","99999,9",,,,,,"10290,1,99999,9",,,,"MET052METAR ZSPD 071300Z 03004MPS CAVOK 07/02 Q1029 NOSIG="
"58321199999","2022-01-07T13:30:00","4","31.143378","121.805214","3.96","PUDONG, CH","FM-15","99999","V020","030,1,N,0040,1","99999,9,9,Y","009900,5,9,9","+0070,1","+0030,1","99999,9",,,,,,"10290,1,99999,9",,,,"MET052METAR ZSPD 071330Z 03004MPS CAVOK 07/03 Q1029 NOSIG="
"58321199999","2022-01-07T14:00:00","4","31.143378","121.805214","3.96","PUDONG, CH","FM-15","99999","V020","030,1,N,0040,1","99999,9,9,Y","009900,5,9,9","+0070,1","+0030,1","99999,9",,,,,,"10290,1,99999,9",,,,"MET052METAR ZSPD 071400Z 03004MPS CAVOK 07/03 Q1029 NOSIG="
"58321199999","2022-01-07T14:30:00","4","31.143378","121.805214","3.96","PUDONG, CH","FM-15","99999","V020","030,1,N,0050,1","99999,9,9,Y","009900,5,9,9","+0070,1","+0030,1","99999,9",,,,,,"10290,1,99999,9",,,,"MET052METAR ZSPD 071430Z 03005MPS CAVOK 07/03 Q1029 NOSIG="
"58321199999","2022-01-07T15:00:00","4","31.143378","121.805214","3.96","PUDONG, CH","FM-15","99999","V020","030,1,N,0050,1","99999,9,9,Y","009900,5,9,9","+0070,1","+0030,1","99999,9",,,,,,"10290,1,99999,9",,,,"MET052METAR ZSPD 071500Z 03005MPS CAVOK 07/03 Q1029 NOSIG="
"58321199999","2022-01-07T15:30:00","4","31.143378","121.805214","3.96","PUDONG, CH","FM-15","99999","V020","020,1,N,0050,1","99999,9,9,Y","009900,5,9,9","+0070,1","+0030,1","99999,9",,,,,,"10280,1,99999,9",,,,"MET052METAR ZSPD 071530Z 02005MPS CAVOK 07/03 Q1028 NOSIG="
"58321199999","2022-01-07T16:00:00","4","31.143378","121.805214","3.96","PUDONG, CH","FM-15","99999","V020","020,1,N,0040,1","99999,9,9,Y","009900,5,9,9","+0070,1","+0030,1","99999,9",,,,,,"10280,1,99999,9",,,,"MET052METAR ZSPD 071600Z 02004MPS CAVOK 07/03 Q1028 NOSIG="
"58321199999","2022-01-07T16:30:00","4","31.143378","121.805214","3.96","PUDONG, CH","FM-15","99999","V020","020,1,N,0040,1","99999,9,9,Y","009900,5,9,9","+0070,1","+0020,1","99999,9",,,,,,"10280,1,99999,9",,,,"MET052METAR ZSPD 071630Z 02004MPS CAVOK 07/02 Q1028 NOSIG="
"58321199999","2022-01-07T17:00:00","4","31.143378","121.805214","3.96","PUDONG, CH","FM-15","99999","V020","020,1,N,0040,1","99999,9,9,Y","009900,5,9,9","+0070,1","+0020,1","99999,9",,,,,,"10280,1,99999,9",,,,"MET052METAR ZSPD 071700Z 02004MPS CAVOK 07/02 Q1028 NOSIG="
"58321199999","2022-01-07T17:30:00","4","31.143378","121.805214","3.96","PUDONG, CH","FM-15","99999","V020","020,1,N,0030,1","99999,9,9,Y","009900,5,9,9","+0060,1","+0020,1","99999,9",,,,,,"10280,1,99999,9",,,,"MET052METAR ZSPD 071730Z 02003MPS CAVOK 06/02 Q1028 NOSIG="
"58321199999","2022-01-07T18:00:00","4","31.143378","121.805214","3.96","PUDONG, CH","FM-15","99999","V020","320,1,N,0030,1","99999,9,9,Y","009900,5,9,9","+0050,1","+0020,1","99999,9",,,,,,"10280,1,99999,9",,,,"MET052METAR ZSPD 071800Z 32003MPS CAVOK 05/02 Q1028 NOSIG="
"58321199999","2022-01-07T18:30:00","4","31.143378","121.805214","3.96","PUDONG, CH","FM-15","99999","V020","320,1,N,0020,1","99999,9,9,Y","009900,5,9,9","+0040,1","+0020,1","99999,9",,,,,,"10280,1,99999,9",,,,"MET052METAR ZSPD 071830Z 32002MPS CAVOK 04/02 Q1028 NOSIG="
"58321199999","2022-01-07T19:00:00","4","31.143378","121.805214","3.96","PUDONG, CH","FM-15","99999","V020","300,1,N,0020,1","99999,9,9,Y","009900,5,9,9","+0040,1","+0020,1","99999,9",,,,,,"10280,1,99999,9",,,,"MET052METAR ZSPD 071900Z 30002MPS CAVOK 04/02 Q1028 NOSIG="
"58321199999","2022-01-07T19:30:00","4","31.143378","121.805214","3.96","PUDONG, CH","FM-15","99999","V020","330,1,N,0030,1","99999,9,9,Y","009900,5,9,9","+0030,1","+0010,1","99999,9",,,,,,"10280,1,99999,9",,,,"MET052METAR ZSPD 071930Z 33003MPS CAVOK 03/01 Q1028 NOSIG="
"58321199999","2022-01-07T20:00:00","4","31.143378","121.805214","3.96","PUDONG, CH","FM-15","99999","V020","340,1,N,0030,1","99999,9,9,Y","009900,5,9,9","+0050,1","+0030,1","99999,9",,,,,,"10280,1,99999,9",,,,"MET052METAR ZSPD 072000Z 34003MPS CAVOK 05/03 Q1028 NOSIG="
"58321199999","2022-01-07T20:30:00","4","31.143378","121.805214","3.96","PUDONG, CH","FM-15","99999","V020","360,1,N,0040,1","01402,1,C,N","009999,1,9,9","+0060,1","+0030,1","99999,9",,"07,1,+01402,1,99,9",,"9,AGL   ,+99999,+99999","99,99,9,07,1,99,9,01402,1,99,9,99,9","10280,1,99999,9",,,,"MET058METAR ZSPD 072030Z 36004MPS 9999 BKN046 06/03 Q1028 NOSIG="
"58321199999","2022-01-07T21:00:00","4","31.143378","121.805214","3.96","PUDONG, CH","FM-15","99999","V020","010,1,N,0040,1","01402,1,C,N","009999,1,9,9","+0070,1","+0020,1","99999,9",,"07,1,+01402,1,99,9",,"9,AGL   ,+99999,+99999","99,99,9,07,1,99,9,01402,1,99,9,99,9","10280,1,99999,9",,,,"MET058METAR ZSPD 072100Z 01004MPS 9999 BKN046 07/02 Q1028 NOSIG="
"58321199999","2022-01-07T21:30:00","4","31.143378","121.805214","3.96","PUDONG, CH","FM-15","99999","V020","020,1,N,0050,1","01402,1,C,N","009999,1,9,9","+0070,1","+0020,1","99999,9",,"07,1,+01402,1,99,9",,"9,AGL   ,+99999,+99999","99,99,9,07,1,99,9,01402,1,99,9,99,9","10280,1,99999,9",,,,"MET058METAR ZSPD 072130Z 02005MPS 9999 BKN046 07/02 Q1028 NOSIG="
"58321199999","2022-01-07T22:00:00","4","31.143378","121.805214","3.96","PUDONG, CH","FM-15","99999","V020","010,1,N,0040,1","99999,9,9,Y","009900,5,9,9","+0070,1","+0030,1","99999,9",,,,,,"10280,1,99999,9",,,,"MET052METAR ZSPD 072200Z 01004MPS CAVOK 07/03 Q1028 NOSIG="
"58321199999","2022-01-07T22:30:00","4","31.143378","121.805214","3.96","PUDONG, CH","FM-15","99999","V020","010,1,N,0040,1","99999,9,9,Y","009900,5,9,9","+0070,1","+0030,1","99999,9",,,,,,"10280,1,99999,9",,,,"MET052METAR ZSPD 072230Z 01004MPS CAVOK 07/03 Q1028 NOSIG="
"58321199999","2022-01-07T23:00:00","4","31.143378","121.805214","3.96","PUDONG, CH","FM-15","99999","V020","010,1,N,0040,1","99999,9,9,Y","009900,5,9,9","+0070,1","+0020,1","99999,9",,,,,,"10280,1,99999,9",,,,"MET052METAR ZSPD 072300Z 01004MPS CAVOK 07/02 Q1028 NOSIG="
"58321199999","2022-01-07T23:30:00","4","31.143378","121.805214","3.96","PUDONG, CH","FM-15","99999","V020","020,1,N,0040,1","99999,9,9,Y","009900,5,9,9","+0070,1","+0020,1","99999,9",,,,,,"10280,1,99999,9",,,,"MET052METAR ZSPD 072330Z 02004MPS CAVOK 07/02 Q1028 NOSIG="
"58321199999","2022-01-08T00:00:00","4","31.143378","121.805214","3.96","PUDONG, CH","FM-15","99999","V020","020,1,N,0040,1","01402,1,C,N","009999,1,9,9","+0070,1","+0030,1","99999,9",,"07,1,+01402,1,99,9",,"9,AGL   ,+99999,+99999","99,99,9,07,1,99,9,01402,1,99,9,99,9","10280,1,99999,9",,,,"MET058METAR ZSPD 080000Z 02004MPS 9999 BKN046 07/03 Q1028 NOSIG="
"58321199999","2022-01-08T00:30:00","4","31.143378","121.805214","3.96","PUDONG, CH","FM-15","99999","V020","020,1,N,0050,1","01402,1,C,N","009999,1,9,9","+0070,1","+0020,1","99999,9",,"07,1,+01402,1,99,9",,"9,AGL   ,+99999,+99999","99,99,9,07,1,99,9,01402,1,99,9,99,9","10280,1,99999,9",,,,"MET058METAR ZSPD 080030Z 02005MPS 9999 BKN046 07/02 Q1028 NOSIG="
"58321199999","2022-01-08T01:00:00","4","31.143378","121.805214","3.96","PUDONG, CH","FM-15","99999","V020","020,1,N,0050,1","99999,9,9,Y","009900,5,9,9","+0080,1","+0020,1","99999,9",,,,,,"10280,1,99999,9",,,,"MET052METAR ZSPD 080100Z 02005MPS CAVOK 08/02 Q1028 NOSIG="
"58321199999","2022-01-08T01:30:00","4","31.143378","121.805214","3.96","PUDONG, CH","FM-15","99999","V020","020,1,N,0050,1","99999,9,9,Y","009900,5,9,9","+0080,1","+0010,1","99999,9",,,,,,"10280,1,99999,9",,,,"MET052METAR ZSPD 080130Z 02005MPS CAVOK 08/01 Q1028 NOSIG="
"58321199999","2022-01-08T02:00:00","4","31.143378","121.805214","3.96","PUDONG, CH","FM-15","99999","V020","010,1,N,0040,1","99999,9,9,Y","009900,5,9,9","+0080,1","+0000,1","99999,9",,,,,,"10280,1,99999,9",,,,"MET053METAR ZSPD 080200Z 01004MPS CAVOK 08/M00 Q1028 NOSIG="
"58321199999","2022-01-08T02:30:00","4","31.143378","121.805214","3.96","PUDONG, CH","FM-15","99999","V020","010,1,N,0040,1","99999,9,9,Y","009900,5,9,9","+0090,1","+0000,1","99999,9",,,,,,"10280,1,99999,9",,,,"MET052METAR ZSPD 080230Z 01004MPS CAVOK 09/00 Q1028 NOSIG="
"58321199999","2022-01-08T03:00:00","4","31.143378","121.805214","3.96","PUDONG, CH","FM-15","99999","V020","360,1,N,0050,1","99999,9,9,Y","009900,5,9,9","+0090,1","+0000,1","99999,9",,,,,,"10280,1,99999,9",,,,"MET053METAR ZSPD 080300Z 36005MPS CAVOK 09/M00 Q1028 NOSIG="
"58321199999","2022-01-08T03:30:00","4","31.143378","121.805214","3.96","PUDONG, CH","FM-15","99999","V020","360,1,V,0050,1","99999,9,9,Y","009900,5,9,9","+0090,1","+0000,1","99999,9",,,,,,"10270,1,99999,9",,,,"MET060METAR ZSPD 080330Z 36005MPS 330V030 CAVOK 09/00 Q1027 NOSIG="
"58321199999","2022-01-08T04:00:00","4","31.143378","121.805214","3.96","PUDONG, CH","FM-15","99999","V020","360,1,N,0040,1","99999,9,9,Y","009900,5,9,9","+0090,1","+0000,1","99999,9",,,,,,"10270,1,99999,9",,,,"MET052METAR ZSPD 080400Z 36004MPS CAVOK 09/00 Q1027 NOSIG="
"58321199999","2022-01-08T04:30:00","4","31.143378","121.805214","3.96","PUDONG, CH","FM-15","99999","V020","360,1,V,0040,1","99999,9,9,Y","009900,5,9,9","+0090,1","+0010,1","99999,9",,,,,,"10260,1,99999,9",,,,"MET060METAR ZSPD 080430Z 36004MPS 340V040 CAVOK 09/01 Q1026 NOSIG="
"58321199999","2022-01-08T05:00:00","4","31.143378","121.805214","3.96","PUDONG, CH","FM-15","99999","V020","010,1,V,0030,1","99999,9,9,Y","009900,5,9,9","+0080,1","+0010,1","99999,9",,,,,,"10260,1,99999,9",,,,"MET060METAR ZSPD 080500Z 01003MPS 330V060 CAVOK 08/01 Q1026 NOSIG="
"58321199999","2022-01-08T05:30:00","4","31.143378","121.805214","3.96","PUDONG, CH","FM-15","99999","V020","360,1,V,0040,1","99999,9,9,Y","009900,5,9,9","+0090,1","+0010,1","99999,9",,,,,,"10260,1,99999,9",,,,"MET060METAR ZSPD 080530Z 36004MPS 330V030 CAVOK 09/01 Q1026 NOSIG="
"58321199999","2022-01-08T06:00:00","4","31.143378","121.805214","3.96","PUDONG, CH","FM-15","99999","V020","010,1,V,0030,1","99999,9,9,Y","009900,5,9,9","+0080,1","+0010,1","99999,9",,,,,,"10250,1,99999,9",,,,"MET060METAR ZSPD 080600Z 01003MPS 320V060 CAVOK 08/01 Q1025 NOSIG="
"58321199999","2022-01-08T06:30:00","4","31.143378","121.805214","3.96","PUDONG, CH","FM-15","99999","V020","350,1,V,0040,1","99999,9,9,Y","009900,5,9,9","+0080,1","+0010,1","99999,9",,,,,,"10250,1,99999,9",,,,"MET060METAR ZSPD 080630Z 35004MPS 310V040 CAVOK 08/01 Q1025 NOSIG="
"58321199999","2022-01-08T07:00:00","4","31.143378","121.805214","3.96","PUDONG, CH","FM-15","99999","V020","010,1,N,0040,1","99999,9,9,Y","009900,5,9,9","+0090,1","+0020,1","99999,9",,,,,,"10250,1,99999,9",,,,"MET052METAR ZSPD 080700Z 01004MPS CAVOK 09/02 Q1025 NOSIG="
"58321199999","2022-01-08T07:30:00","4","31.143378","121.805214","3.96","PUDONG, CH","FM-15","99999","V020","010,1,V,0030,1","99999,9,9,Y","009900,5,9,9","+0080,1","+0020,1","99999,9",,,,,,"10250,1,99999,9",,,,"MET060METAR ZSPD 080730Z 01003MPS 330V060 CAVOK 08/02 Q1025 NOSIG="
"58321199999","2022-01-08T08:00:00","4","31.143378","121.805214","3.96","PUDONG, CH","FM-15","99999","V020","070,1,V,0030,1","99999,9,9,Y","009900,5,9,9","+0080,1","+0020,1","99999,9",,,,,,"10250,1,99999,9",,,,"MET060METAR ZSPD 080800Z 07003MPS 350V100 CAVOK 08/02 Q1025 NOSIG="
"58321199999","2022-01-08T08:30:00","4","31.143378","121.805214","3.96","PUDONG, CH","FM-15","99999","V020","040,1,V,0040,1","99999,9,9,Y","009900,5,9,9","+0080,1","+0020,1","99999,9",,,,,,"10250,1,99999,9",,,,"MET060METAR ZSPD 080830Z 04004MPS 020V080 CAVOK 08/02 Q1025 NOSIG="
"58321199999","2022-01-08T09:00:00","4","31.143378","121.805214","3.96","PUDONG, CH","FM-15","99999","V020","030,1,N,0040,1","99999,9,9,N","009999,1,9,9","+0070,1","+0020,1","99999,9",,"02,1,+00792,1,99,9",,"9,AGL   ,+99999,+99999","99,99,9,02,1,99,9,00792,1,99,9,99,9","10250,1,99999,9",,,,"MET058METAR ZSPD 080900Z 03004MPS 9999 FEW026 07/02 Q1025 NOSIG="
"58321199999","2022-01-08T09:30:00","4","31.143378","121.805214","3.96","PUDONG, CH","FM-15","99999","V020","030,1,N,0050,1","99999,9,9,N","009999,1,9,9","+0070,1","+0010,1","99999,9",,"02,1,+00792,1,99,9",,"9,AGL   ,+99999,+99999","99,99,9,02,1,99,9,00792,1,99,9,99,9","10260,1,99999,9",,,,"MET058METAR ZSPD 080930Z 03005MPS 9999 FEW026 07/01 Q1026 NOSIG="
"58321199999","2022-01-08T10:00:00","4","31.143378","121.805214","3.96","PUDONG, CH","FM-15","99999","V020","040,1,V,0040,1","99999,9,9,N","009999,1,9,9","+0070,1","+0010,1","99999,9",,"02,1,+00792,1,99,9",,"9,AGL   ,+99999,+99999","99,99,9,02,1,99,9,00792,1,99,9,99,9","10260,1,99999,9",,,,"MET066METAR ZSPD 081000Z 04004MPS 010V070 9999 FEW026 07/01 Q1026 NOSIG="
"58321199999","2022-01-08T10:30:00","4","31.143378","121.805214","3.96","PUDONG, CH","FM-15","99999","V020","050,1,N,0050,1","99999,9,9,Y","009900,5,9,9","+0070,1","+0010,1","99999,9",,,,,,"10260,1,99999,9",,,,"MET052METAR ZSPD 081030Z 05005MPS CAVOK 07/01 Q1026 NOSIG="
"58321199999","2022-01-08T11:00:00","4","31.143378","121.805214","3.96","PUDONG, CH","FM-15","99999","V020","040,1,V,0040,1","99999,9,9,Y","009900,5,9,9","+0070,1","+0010,1","99999,9",,,,,,"10260,1,99999,9",,,,"MET060METAR ZSPD 081100Z 04004MPS 360V060 CAVOK 07/01 Q1026 NOSIG="
"58321199999","2022-01-08T11:30:00","4","31.143378","121.805214","3.96","PUDONG, CH","FM-15","99999","V020","030,1,V,0040,1","99999,9,9,Y","009900,5,9,9","+0070,1","+0010,1","99999,9",,,,,,"10260,1,99999,9",,,,"MET060METAR ZSPD 081130Z 03004MPS 360V060 CAVOK 07/01 Q1026 NOSIG="
"58321199999","2022-01-08T12:00:00","4","31.143378","121.805214","3.96","PUDONG, CH","FM-15","99999","V020","030,1,N,0040,1","99999,9,9,Y","009900,5,9,9","+0070,1","+0010,1","99999,9",,,,,,"10270,1,99999,9",,,,"MET052METAR ZSPD 081200Z 03004MPS CAVOK 07/01 Q1027 NOSIG="
"58321199999","2022-01-08T12:30:00","4","31.143378","121.805214","3.96","PUDONG, CH","FM-15","99999","V020","030,1,N,0040,1","99999,9,9,Y","009900,5,9,9","+0070,1","+0010,1","99999,9",,,,,,"10260,1,99999,9",,,,"MET052METAR ZSPD 081230Z 03004MPS CAVOK 07/01 Q1026 NOSIG="
"58321199999","2022-01-08T13:00:00","4","31.143378","121.805214","3.96","PUDONG, CH","FM-15","99999","V020","040,1,N,0040,1","99999,9,9,Y","009900,5,9,9","+0060,1","+0010,1","99999,9",,,,,,"10260,1,99999,9",,,,"MET052METAR ZSPD 081300Z 04004MPS CAVOK 06/01 Q1026 NOSIG="
"58321199999","2022-01-08T13:30:00","4","31.143378","121.805214","3.96","PUDONG, CH","FM-15","99999","V020","030,1,N,0030,1","99999,9,9,Y","009900,5,9,9","+0060,1","+0010,1","99999,9",,,,,,"10260,1,99999,9",,,,"MET052METAR ZSPD 081330Z 03003MPS CAVOK 06/01 Q1026 NOSIG="
"58321199999","2022-01-08T14:00:00","4","31.143378","121.805214","3.96","PUDONG, CH","FM-15","99999","V020","030,1,N,0030,1","99999,9,9,Y","009900,5,9,9","+0060,1","+0010,1","99999,9",,,,,,"10260,1,99999,9",,,,"MET052METAR ZSPD 081400Z 03003MPS CAVOK 06/01 Q1026 NOSIG="
"58321199999","2022-01-08T14:30:00","4","31.143378","121.805214","3.96","PUDONG, CH","FM-15","99999","V020","030,1,N,0040,1","99999,9,9,Y","009900,5,9,9","+0060,1","+0010,1","99999,9",,,,,,"10260,1,99999,9",,,,"MET052METAR ZSPD 081430Z 03004MPS CAVOK 06/01 Q1026 NOSIG="
"58321199999","2022-01-08T15:00:00","4","31.143378","121.805214","3.96","PUDONG, CH","FM-15","99999","V020","040,1,N,0030,1","99999,9,9,Y","009900,5,9,9","+0060,1","+0010,1","99999,9",,,,,,"10260,1,99999,9",,,,"MET052METAR ZSPD 081500Z 04003MPS CAVOK 06/01 Q1026 NOSIG="
"58321199999","2022-01-08T15:30:00","4","31.143378","121.805214","3.96","PUDONG, CH","FM-15","99999","V020","040,1,N,0030,1","99999,9,9,Y","009900,5,9,9","+0060,1","+0010,1","99999,9",,,,,,"10260,1,99999,9",,,,"MET052METAR ZSPD 081530Z 04003MPS CAVOK 06/01 Q1026 NOSIG="
"58321199999","2022-01-08T16:00:00","4","31.143378","121.805214","3.96","PUDONG, CH","FM-15","99999","V020","040,1,N,0030,1","99999,9,9,Y","009900,5,9,9","+0060,1","+0010,1","99999,9",,,,,,"10250,1,99999,9",,,,"MET052METAR ZSPD 081600Z 04003MPS CAVOK 06/01 Q1025 NOSIG="
"58321199999","2022-01-08T16:30:00","4","31.143378","121.805214","3.96","PUDONG, CH","FM-15","99999","V020","020,1,N,0040,1","99999,9,9,Y","009900,5,9,9","+0060,1","+0010,1","99999,9",,,,,,"10250,1,99999,9",,,,"MET052METAR ZSPD 081630Z 02004MPS CAVOK 06/01 Q1025 NOSIG="
"58321199999","2022-01-08T17:00:00","4","31.143378","121.805214","3.96","PUDONG, CH","FM-15","99999","V020","040,1,N,0030,1","99999,9,9,Y","009900,5,9,9","+0070,1","+0010,1","99999,9",,,,,,"10250,1,99999,9",,,,"MET052METAR ZSPD 081700Z 04003MPS CAVOK 07/01 Q1025 NOSIG="
"58321199999","2022-01-08T17:30:00","4","31.143378","121.805214","3.96","PUDONG, CH","FM-15","99999","V020","050,1,V,0030,1","99999,9,9,Y","009900,5,9,9","+0070,1","+0010,1","99999,9",,,,,,"10250,1,99999,9",,,,"MET060METAR ZSPD 081730Z 05003MPS 020V080 CAVOK 07/01 Q1025 NOSIG="
"58321199999","2022-01-08T18:00:00","4","31.143378","121.805214","3.96","PUDONG, CH","FM-15","99999","V020","050,1,N,0030,1","99999,9,9,Y","009900,5,9,9","+0060,1","+0010,1","99999,9",,,,,,"10250,1,99999,9",,,,"MET052METAR ZSPD 081800Z 05003MPS CAVOK 06/01 Q1025 NOSIG="
"58321199999","2022-01-08T18:30:00","4","31.143378","121.805214","3.96","PUDONG, CH","FM-15","99999","V020","040,1,N,0030,1","99999,9,9,Y","009900,5,9,9","+0060,1","+0010,1","99999,9",,,,,,"10240,1,99999,9",,,,"MET052METAR ZSPD 081830Z 04003MPS CAVOK 06/01 Q1024 NOSIG="
"58321199999","2022-01-08T19:00:00","4","31.143378","121.805214","3.96","PUDONG, CH","FM-15","99999","V020","030,1,N,0030,1","99999,9,9,Y","009900,5,9,9","+0060,1","+0010,1","99999,9",,,,,,"10240,1,99999,9",,,,"MET052METAR ZSPD 081900Z 03003MPS CAVOK 06/01 Q1024 NOSIG="
"58321199999","2022-01-08T19:30:00","4","31.143378","121.805214","3.96","PUDONG, CH","FM-15","99999","V020","040,1,N,0040,1","99999,9,9,Y","009900,5,9,9","+0060,1","+0010,1","99999,9",,,,,,"10240,1,99999,9",,,,"MET052METAR ZSPD 081930Z 04004MPS CAVOK 06/01 Q1024 NOSIG="
"58321199999","2022-01-08T20:00:00","4","31.143378","121.805214","3.96","PUDONG, CH","FM-15","99999","V020","360,1,N,0020,1","99999,9,9,Y","009900,5,9,9","+0060,1","+0010,1","99999,9",,,,,,"10240,1,99999,9",,,,"MET052METAR ZSPD 082000Z 36002MPS CAVOK 06/01 Q1024 NOSIG="
"58321199999","2022-01-08T20:30:00","4","31.143378","121.805214","3.96","PUDONG, CH","FM-15","99999","V020","350,1,N,0030,1","99999,9,9,Y","009900,5,9,9","+0060,1","+0010,1","99999,9",,,,,,"10240,1,99999,9",,,,"MET052METAR ZSPD 082030Z 35003MPS CAVOK 06/01 Q1024 NOSIG="
"58321199999","2022-01-08T21:00:00","4","31.143378","121.805214","3.96","PUDONG, CH","FM-15","99999","V020","360,1,N,0030,1","99999,9,9,Y","009900,5,9,9","+0060,1","+0010,1","99999,9",,,,,,"10240,1,99999,9",,,,"MET052METAR ZSPD 082100Z 36003MPS CAVOK 06/01 Q1024 NOSIG="
"58321199999","2022-01-08T21:30:00","4","31.143378","121.805214","3.96","PUDONG, CH","FM-15","99999","V020","020,1,N,0030,1","99999,9,9,Y","009900,5,9,9","+0060,1","+0010,1","99999,9",,,,,,"10240,1,99999,9",,,,"MET052METAR ZSPD 082130Z 02003MPS CAVOK 06/01 Q1024 NOSIG="
"58321199999","2022-01-08T22:00:00","4","31.143378","121.805214","3.96","PUDONG, CH","FM-15","99999","V020","040,1,N,0030,1","99999,9,9,Y","009900,5,9,9","+0070,1","+0010,1","99999,9",,,,,,"10240,1,99999,9",,,,"MET052METAR ZSPD 082200Z 04003MPS CAVOK 07/01 Q1024 NOSIG="
"58321199999","2022-01-08T22:30:00","4","31.143378","121.805214","3.96","PUDONG, CH","FM-15","99999","V020","040,1,N,0020,1","99999,9,9,Y","009900,5,9,9","+0070,1","+0010,1","99999,9",,,,,,"10240,1,99999,9",,,,"MET052METAR ZSPD 082230Z 04002MPS CAVOK 07/01 Q1024 NOSIG="
"58321199999","2022-01-08T23:00:00","4","31.143378","121.805214","3.96","PUDONG, CH","FM-15","99999","V020","030,1,N,0010,1","99999,9,9,Y","009900,5,9,9","+0070,1","+0010,1","99999,9",,,,,,"10240,1,99999,9",,,,"MET052METAR ZSPD 082300Z 03001MPS CAVOK 07/01 Q1024 NOSIG="
"58321199999","2022-01-08T23:30:00","4","31.143378","121.805214","3.96","PUDONG, CH","FM-15","99999","V020","350,1,N,0030,1","99999,9,9,Y","009900,5,9,9","+0060,1","+0010,1","99999,9",,,,,,"10240,1,99999,9",,,,"MET052METAR ZSPD 082330Z 35003MPS CAVOK 06/01 Q1024 NOSIG="
"58321199999","2022-01-09T00:00:00","4","31.143378","121.805214","3.96","PUDONG, CH","FM-15","99999","V020","350,1,N,0040,1","99999,9,9,Y","009900,5,9,9","+0070,1","+0010,1","99999,9",,,,,,"10250,1,99999,9",,,,"MET052METAR ZSPD 090000Z 35004MPS CAVOK 07/01 Q1025 NOSIG="
"58321199999","2022-01-09T00:30:00","4","31.143378","121.805214","3.96","PUDONG, CH","FM-15","99999","V020","340,1,N,0030,1","99999,9,9,Y","009900,5,9,9","+0070,1","+0010,1","99999,9",,,,,,"10250,1,99999,9",,,,"MET052METAR ZSPD 090030Z 34003MPS CAVOK 07/01 Q1025 NOSIG="
"58321199999","2022-01-09T01:00:00","4","31.143378","121.805214","3.96","PUDONG, CH","FM-15","99999","V020","340,1,N,0040,1","99999,9,9,Y","009900,5,9,9","+0070,1","+0010,1","99999,9",,,,,,"10250,1,99999,9",,,,"MET052METAR ZSPD 090100Z 34004MPS CAVOK 07/01 Q1025 NOSIG="
"58321199999","2022-01-09T01:30:00","4","31.143378","121.805214","3.96","PUDONG, CH","FM-15","99999","V020","350,1,N,0050,1","99999,9,9,Y","009900,5,9,9","+0080,1","+0010,1","99999,9",,,,,,"10250,1,99999,9",,,,"MET052METAR ZSPD 090130Z 35005MPS CAVOK 08/01 Q1025 NOSIG="
"58321199999","2022-01-09T02:00:00","4","31.143378","121.805214","3.96","PUDONG, CH","FM-15","99999","V020","350,1,N,0050,1","99999,9,9,Y","009900,5,9,9","+0070,1","+0010,1","99999,9",,,,,,"10250,1,99999,9",,,,"MET052METAR ZSPD 090200Z 35005MPS CAVOK 07/01 Q1025 NOSIG="
"58321199999","2022-01-09T02:30:00","4","31.143378","121.805214","3.96","PUDONG, CH","FM-15","99999","V020","360,1,N,0050,1","99999,9,9,Y","009900,5,9,9","+0080,1","+0010,1","99999,9",,,,,,"10250,1,99999,9",,,,"MET052METAR ZSPD 090230Z 36005MPS CAVOK 08/01 Q1025 NOSIG="
"58321199999","2022-01-09T03:00:00","4","31.143378","121.805214","3.96","PUDONG, CH","FM-15","99999","V020","350,1,N,0050,1","99999,9,9,Y","009900,5,9,9","+0080,1","+0010,1","99999,9",,,,,,"10240,1,99999,9",,,,"MET052METAR ZSPD 090300Z 35005MPS CAVOK 08/01 Q1024 NOSIG="
"58321199999","2022-01-09T03:30:00","4","31.143378","121.805214","3.96","PUDONG, CH","FM-15","99999","V020","330,1,N,0050,1","22000,1,9,N","008000,1,9,9","+0080,1","+0010,1","99999,9",,,,,"00,99,1,99,9,99,9,99999,9,99,9,99,9","10240,1,99999,9",,,,"MET055METAR ZSPD 090330Z 33005MPS 8000 NSC 08/01 Q1024 NOSIG="
"58321199999","2022-01-09T04:00:00","4","31.143378","121.805214","3.96","PUDONG, CH","FM-15","99999","V020","010,1,N,0040,1","22000,1,9,N","008000,1,9,9","+0080,1","+0000,1","99999,9",,,,,"00,99,1,99,9,99,9,99999,9,99,9,99,9","10230,1,99999,9",,,,"MET055METAR ZSPD 090400Z 01004MPS 8000 NSC 08/00 Q1023 NOSIG="
"58321199999","2022-01-09T04:30:00","4","31.143378","121.805214","3.96","PUDONG, CH","FM-15","99999","V020","350,1,N,0030,1","22000,1,9,N","008000,1,9,9","+0080,1","+0010,1","99999,9",,,,,"00,99,1,99,9,99,9,99999,9,99,9,99,9","10230,1,99999,9",,,,"MET055METAR ZSPD 090430Z 35003MPS 8000 NSC 08/01 Q1023 NOSIG="
"58321199999","2022-01-09T05:00:00","4","31.143378","121.805214","3.96","PUDONG, CH","FM-15","99999","V020","340,1,V,0030,1","22000,1,9,N","008000,1,9,9","+0080,1","+0010,1","99999,9",,,,,"00,99,1,99,9,99,9,99999,9,99,9,99,9","10230,1,99999,9",,,,"MET063METAR ZSPD 090500Z 34003MPS 300V010 8000 NSC 08/01 Q1023 NOSIG="
"58321199999","2022-01-09T05:30:00","4","31.143378","121.805214","3.96","PUDONG, CH","FM-15","99999","V020","350,1,V,0040,1","22000,1,9,N","008000,1,9,9","+0080,1","+0000,1","99999,9",,,,,"00,99,1,99,9,99,9,99999,9,99,9,99,9","10220,1,99999,9",,,,"MET063METAR ZSPD 090530Z 35004MPS 320V020 8000 NSC 08/00 Q1022 NOSIG="
"58321199999","2022-01-09T06:00:00","4","31.143378","121.805214","3.96","PUDONG, CH","FM-15","99999","V020","340,1,N,0040,1","22000,1,9,N","008000,1,9,9","+0080,1","+0000,1","99999,9",,,,,"00,99,1,99,9,99,9,99999,9,99,9,99,9","10220,1,99999,9",,,,"MET056METAR ZSPD 090600Z 34004MPS 8000 NSC 08/M00 Q1022 NOSIG="
"58321199999","2022-01-09T06:30:00","4","31.143378","121.805214","3.96","PUDONG, CH","FM-15","99999","V020","350,1,N,0050,1","22000,1,9,N","008000,1,9,9","+0070,1","+0000,1","99999,9",,,,,"00,99,1,99,9,99,9,99999,9,99,9,99,9","10220,1,99999,9",,,,"MET056METAR ZSPD 090630Z 35005MPS 8000 NSC 07/M00 Q1022 NOSIG="
"58321199999","2022-01-09T07:00:00","4","31.143378","121.805214","3.96","PUDONG, CH","FM-15","99999","V020","360,1,N,0040,1","99999,9,9,Y","009900,5,9,9","+0070,1","+0000,1","99999,9",,,,,,"10220,1,99999,9",,,,"MET053METAR ZSPD 090700Z 36004MPS CAVOK 07/M00 Q1022 NOSIG="
"58321199999","2022-01-09T07:30:00","4","31.143378","121.805214","3.96","PUDONG, CH","FM-15","99999","V020","340,1,N,0030,1","99999,9,9,Y","009900,5,9,9","+0080,1","+0010,1","99999,9",,,,,,"10220,1,99999,9",,,,"MET052METAR ZSPD 090730Z 34003MPS CAVOK 08/01 Q1022 NOSIG="
"58321199999","2022-01-09T08:00:00","4","31.143378","121.805214","3.96","PUDONG, CH","FM-15","99999","V020","340,1,N,0040,1","22000,1,9,N","007000,1,9,9","+0080,1","+0010,1","99999,9",,,,,"00,99,1,99,9,99,9,99999,9,99,9,99,9","10230,1,99999,9",,,,"MET055METAR ZSPD 090800Z 34004MPS 7000 NSC 08/01 Q1023 NOSIG="
"58321199999","2022-01-09T08:30:00","4","31.143378","121.805214","3.96","PUDONG, CH","FM-15","99999","V020","350,1,N,0040,1","22000,1,9,N","007000,1,9,9","+0080,1","+0010,1","99999,9",,,,,"00,99,1,99,9,99,9,99999,9,99,9,99,9","10230,1,99999,9",,,,"MET055METAR ZSPD 090830Z 35004MPS 7000 NSC 08/01 Q1023 NOSIG="
"58321199999","2022-01-09T09:00:00","4","31.143378","121.805214","3.96","PUDONG, CH","FM-15","99999","V020","340,1,N,0040,1","22000,1,9,N","007000,1,9,9","+0070,1","+0010,1","99999,9",,,,,"00,99,1,99,9,99,9,99999,9,99,9,99,9","10230,1,99999,9",,,,"MET055METAR ZSPD 090900Z 34004MPS 7000 NSC 07/01 Q1023 NOSIG="
"58321199999","2022-01-09T09:30:00","4","31.143378","121.805214","3.96","PUDONG, CH","FM-15","99999","V020","330,1,N,0030,1","22000,1,9,N","007000,1,9,9","+0070,1","+0020,1","99999,9",,,,,"00,99,1,99,9,99,9,99999,9,99,9,99,9","10230,1,99999,9",,,,"MET055METAR ZSPD 090930Z 33003MPS 7000 NSC 07/02 Q1023 NOSIG="
"58321199999","2022-01-09T10:00:00","4","31.143378","121.805214","3.96","PUDONG, CH","FM-15","99999","V020","330,1,N,0030,1","22000,1,9,N","007000,1,9,9","+0070,1","+0020,1","99999,9",,,,,"00,99,1,99,9,99,9,99999,9,99,9,99,9","10230,1,99999,9",,,,"MET055METAR ZSPD 091000Z 33003MPS 7000 NSC 07/02 Q1023 NOSIG="
"58321199999","2022-01-09T10:30:00","4","31.143378","121.805214","3.96","PUDONG, CH","FM-15","99999","V020","300,1,V,0020,1","99999,9,9,N","007000,1,9,9","+0070,1","+0020,1","99999,9",,"04,1,+00914,1,99,9",,"9,AGL   ,+99999,+99999","99,99,9,04,1,99,9,00914,1,99,9,99,9","10240,1,99999,9",,,,"MET066METAR ZSPD 091030Z 30002MPS 280V340 7000 SCT030 07/02 Q1024 NOSIG="
"58321199999","2022-01-09T11:00:00","4","31.143378","121.805214","3.96","PUDONG, CH","FM-15","99999","V020","320,1,N,0020,1","00914,1,C,N","006000,1,9,9","+0070,1","+0020,1","99999,9",,"07,1,+00914,1,99,9",,"9,AGL   ,+99999,+99999","99,99,9,07,1,99,9,00914,1,99,9,99,9","10240,1,99999,9",,,,"MET058METAR ZSPD 091100Z 32002MPS 6000 BKN030 07/02 Q1024 NOSIG="
"58321199999","2022-01-09T11:30:00","4","31.143378","121.805214","3.96","PUDONG, CH","FM-15","99999","V020","360,1,V,0020,1","99999,9,9,N","006000,1,9,9","+0070,1","+0030,1","99999,9",,"04,1,+00701,1,99,9",,"9,AGL   ,+99999,+99999","99,99,9,04,1,99,9,00701,1,99,9,99,9","10240,1,99999,9",,,,"MET066METAR ZSPD 091130Z 36002MPS 330V050 6000 SCT023 07/03 Q1024 NOSIG="
"58321199999","2022-01-09T12:00:00","4","31.143378","121.805214","3.96","PUDONG, CH","FM-15","99999","V020","010,1,N,0030,1","99999,9,9,N","006000,1,9,9","+0070,1","+0030,1","99999,9",,"02,1,+00701,1,99,9",,"9,AGL   ,+99999,+99999","99,99,9,02,1,99,9,00701,1,99,9,99,9","10240,1,99999,9",,,,"MET058METAR ZSPD 091200Z 01003MPS 6000 FEW023 07/03 Q1024 NOSIG="
"58321199999","2022-01-09T12:30:00","4","31.143378","121.805214","3.96","PUDONG, CH","FM-15","99999","V020","020,1,N,0030,1","99999,9,9,N","006000,1,9,9","+0070,1","+0030,1","99999,9",,"02,1,+00701,1,99,9",,"9,AGL   ,+99999,+99999","99,99,9,02,1,99,9,00701,1,99,9,99,9","10240,1,99999,9",,,,"MET058METAR ZSPD 091230Z 02003MPS 6000 FEW023 07/03 Q1024 NOSIG="
"58321199999","2022-01-09T13:00:00","4","31.143378","121.805214","3.96","PUDONG, CH","FM-15","99999","V020","010,1,N,0030,1","99999,9,9,N","006000,1,9,9","+0070,1","+0030,1","99999,9",,"02,1,+00701,1,99,9",,"9,AGL   ,+99999,+99999","99,99,9,02,1,99,9,00701,1,99,9,99,9","10240,1,99999,9",,,,"MET058METAR ZSPD 091300Z 01003MPS 6000 FEW023 07/03 Q1024 NOSIG="
"58321199999","2022-01-09T13:30:00","4","31.143378","121.805214","3.96","PUDONG, CH","FM-15","99999","V020","360,1,N,0030,1","99999,9,9,N","006000,1,9,9","+0070,1","+0030,1","99999,9",,"02,1,+00701,1,99,9",,"9,AGL   ,+99999,+99999","99,99,9,02,1,99,9,00701,1,99,9,99,9","10240,1,99999,9",,,,"MET058METAR ZSPD 091330Z 36003MPS 6000 FEW023 07/03 Q1024 NOSIG="
"58321199999","2022-01-09T14:00:00","4","31.143378","121.805214","3.96","PUDONG, CH","FM-15","99999","V020","010,1,N,0030,1","00792,1,C,N","006000,1,9,9","+0070,1","+0030,1","99999,9",,"07,1,+00792,1,99,9",,"9,AGL   ,+99999,+99999","99,99,9,07,1,99,9,00792,1,99,9,99,9","10240,1,99999,9",,,,"MET058METAR ZSPD 091400Z 01003MPS 6000 BKN026 07/03 Q1024 NOSIG="
"58321199999","2022-01-09T14:30:00","4","31.143378","121.805214","3.96","PUDONG, CH","FM-15","99999","V020","020,1,N,0040,1","00792,1,C,N","005000,1,9,9","+0070,1","+0020,1","99999,9",,"07,1,+00792,1,99,9",,"9,AGL   ,+99999,+99999","99,99,9,07,1,99,9,00792,1,99,9,99,9","10240,1,99999,9","10,1",,,"MET061METAR ZSPD 091430Z 02004MPS 5000 BR BKN026 07/02 Q1024 NOSIG="
"58321199999","2022-01-09T15:00:00","4","31.143378","121.805214","3.96","PUDONG, CH","FM-15","99999","V020","360,1,N,0030,1","00792,1,C,N","005000,1,9,9","+0070,1","+0030,1","99999,9",,"07,1,+00792,1,99,9",,"9,AGL   ,+99999,+99999","99,99,9,07,1,99,9,00792,1,99,9,99,9","10240,1,99999,9","10,1",,,"MET061METAR ZSPD 091500Z 36003MPS 5000 BR BKN026 07/03 Q1024 NOSIG="
"58321199999","2022-01-09T15:30:00","4","31.143378","121.805214","3.96","PUDONG, CH","FM-15","99999","V020","360,1,V,0030,1","99999,9,9,N","005000,1,9,9","+0070,1","+0020,1","99999,9",,"04,1,+00792,1,99,9",,"9,AGL   ,+99999,+99999","99,99,9,04,1,99,9,00792,1,99,9,99,9","10240,1,99999,9","10,1",,,"MET069METAR ZSPD 091530Z 36003MPS 320V030 5000 BR SCT026 07/02 Q1024 NOSIG="
"58321199999","2022-01-09T16:00:00","4","31.143378","121.805214","3.96","PUDONG, CH","FM-15","99999","V020","340,1,N,0030,1","99999,9,9,N","005000,1,9,9","+0070,1","+0030,1","99999,9",,"02,1,+00792,1,99,9",,"9,AGL   ,+99999,+99999","99,99,9,02,1,99,9,00792,1,99,9,99,9","10230,1,99999,9","10,1",,,"MET061METAR ZSPD 091600Z 34003MPS 5000 BR FEW026 07/03 Q1023 NOSIG="
"58321199999","2022-01-09T16:30:00","4","31.143378","121.805214","3.96","PUDONG, CH","FM-15","99999","V020","330,1,N,0030,1","99999,9,9,N","005000,1,9,9","+0070,1","+0030,1","99999,9",,"02,1,+00792,1,99,9",,"9,AGL   ,+99999,+99999","99,99,9,02,1,99,9,00792,1,99,9,99,9","10240,1,99999,9","10,1",,,"MET061METAR ZSPD 091630Z 33003MPS 5000 BR FEW026 07/03 Q1024 NOSIG="
"58321199999","2022-01-09T17:00:00","4","31.143378","121.805214","3.96","PUDONG, CH","FM-15","99999","V020","340,1,N,0040,1","99999,9,9,N","005000,1,9,9","+0070,1","+0020,1","99999,9",,"02,1,+00792,1,99,9",,"9,AGL   ,+99999,+99999","99,99,9,02,1,99,9,00792,1,99,9,99,9","10240,1,99999,9","10,1",,,"MET061METAR ZSPD 091700Z 34004MPS 5000 BR FEW026 07/02 Q1024 NOSIG="
"58321199999","2022-01-09T17:30:00","4","31.143378","121.805214","3.96","PUDONG, CH","FM-15","99999","V020","340,1,N,0020,1","99999,9,9,N","005000,1,9,9","+0060,1","+0020,1","99999,9",,"02,1,+00792,1,99,9",,"9,AGL   ,+99999,+99999","99,99,9,02,1,99,9,00792,1,99,9,99,9","10230,1,99999,9","10,1",,,"MET061METAR ZSPD 091730Z 34002MPS 5000 BR FEW026 06/02 Q1023 NOSIG="
"58321199999","2022-01-09T18:00:00","4","31.143378","121.805214","3.96","PUDONG, CH","FM-15","99999","V020","340,1,N,0020,1","22000,1,9,N","005000,1,9,9","+0060,1","+0020,1","99999,9",,,,,"00,99,1,99,9,99,9,99999,9,99,9,99,9","10230,1,99999,9","10,1",,,"MET058METAR ZSPD 091800Z 34002MPS 5000 BR NSC 06/02 Q1023 NOSIG="
"58321199999","2022-01-09T18:30:00","4","31.143378","121.805214","3.96","PUDONG, CH","FM-15","99999","V020","330,1,N,0020,1","22000,1,9,N","005000,1,9,9","+0060,1","+0020,1","99999,9",,,,,"00,99,1,99,9,99,9,99999,9,99,9,99,9","10230,1,99999,9","10,1",,,"MET058METAR ZSPD 091830Z 33002MPS 5000 BR NSC 06/02 Q1023 NOSIG="
"58321199999","2022-01-09T19:00:00","4","31.143378","121.805214","3.96","PUDONG, CH","FM-15","99999","V020","300,1,N,0020,1","22000,1,9,N","005000,1,9,9","+0050,1","+0020,1","99999,9",,,,,"00,99,1,99,9,99,9,99999,9,99,9,99,9","10230,1,99999,9","10,1",,,"MET058METAR ZSPD 091900Z 30002MPS 5000 BR NSC 05/02 Q1023 NOSIG="
"58321199999","2022-01-09T19:30:00","4","31.143378","121.805214","3.96","PUDONG, CH","FM-15","99999","V020","270,1,N,0020,1","22000,1,9,N","005000,1,9,9","+0050,1","+0020,1","99999,9",,,,,"00,99,1,99,9,99,9,99999,9,99,9,99,9","10230,1,99999,9","10,1",,,"MET058METAR ZSPD 091930Z 27002MPS 5000 BR NSC 05/02 Q1023 NOSIG="
"58321199999","2022-01-09T20:00:00","4","31.143378","121.805214","3.96","PUDONG, CH","FM-15","99999","V020","270,1,N,0010,1","22000,1,9,N","005000,1,9,9","+0050,1","+0020,1","99999,9",,,,,"00,99,1,99,9,99,9,99999,9,99,9,99,9","10220,1,99999,9","10,1",,,"MET058METAR ZSPD 092000Z 27001MPS 5000 BR NSC 05/02 Q1022 NOSIG="
"58321199999","2022-01-09T20:30:00","4","31.143378","121.805214","3.96","PUDONG, CH","FM-15","99999","V020","999,9,V,0010,1","22000,1,9,N","005000,1,9,9","+0050,1","+0020,1","99999,9",,,,,"00,99,1,99,9,99,9,99999,9,99,9,99,9","10220,1,99999,9","10,1",,,"MET058METAR ZSPD 092030Z VRB01MPS 5000 BR NSC 05/02 Q1022 NOSIG="
"58321199999","2022-01-09T21:00:00","4","31.143378","121.805214","3.96","PUDONG, CH","FM-15","99999","V020","270,1,N,0010,1","22000,1,9,N","004500,1,9,9","+0040,1","+0020,1","99999,9",,,,,"00,99,1,99,9,99,9,99999,9,99,9,99,9","10220,1,99999,9","10,1",,,"MET070METAR ZSPD 092100Z 27001MPS 4500 BR NSC 04/02 Q1022 BECMG TL2250 2800="
"58321199999","2022-01-09T21:30:00","4","31.143378","121.805214","3.96","PUDONG, CH","FM-15","99999","V020","290,1,N,0010,1","22000,1,9,N","004500,1,9,9","+0030,1","+0020,1","99999,9",,,,,"00,99,1,99,9,99,9,99999,9,99,9,99,9","10220,1,99999,9","10,1",,,"MET058METAR ZSPD 092130Z 29001MPS 4500 BR NSC 03/02 Q1022 NOSIG="
"58321199999","2022-01-09T22:00:00","4","31.143378","121.805214","3.96","PUDONG, CH","FM-15","99999","V020","320,1,N,0010,1","22000,1,9,N","004500,1,9,9","+0030,1","+0010,1","99999,9",,,,,"00,99,1,99,9,99,9,99999,9,99,9,99,9","10220,1,99999,9","10,1",,,"MET070METAR ZSPD 092200Z 32001MPS 4500 BR NSC 03/01 Q1022 BECMG TL2310 2500="
"58321199999","2022-01-09T22:30:00","4","31.143378","121.805214","3.96","PUDONG, CH","FM-15","99999","V020","340,1,N,0020,1","22000,1,9,N","004500,1,9,9","+0030,1","+0010,1","99999,9",,,,,"00,99,1,99,9,99,9,99999,9,99,9,99,9","10220,1,99999,9","10,1",,,"MET058METAR ZSPD 092230Z 34002MPS 4500 BR NSC 03/01 Q1022 NOSIG="
"58321199999","2022-01-09T23:00:00","4","31.143378","121.805214","3.96","PUDONG, CH","FM-15","99999","V020","310,1,N,0020,1","22000,1,9,N","002500,1,9,9","+0030,1","+0010,1","99999,9",,,,,"00,99,1,99,9,99,9,99999,9,99,9,99,9","10220,1,99999,9","10,1",,,"MET070METAR ZSPD 092300Z 31002MPS 2500 BR NSC 03/01 Q1022 BECMG TL0050 5000="
"58321199999","2022-01-09T23:30:00","4","31.143378","121.805214","3.96","PUDONG, CH","FM-15","99999","V020","310,1,N,0020,1","22000,1,9,N","002500,1,9,9","+0040,1","+0030,1","99999,9",,,,,"00,99,1,99,9,99,9,99999,9,99,9,99,9","10230,1,99999,9","10,1",,,"MET058METAR ZSPD 092330Z 31002MPS 2500 BR NSC 04/03 Q1023 NOSIG="
"58321199999","2022-01-10T00:00:00","4","31.143378","121.805214","3.96","PUDONG, CH","FM-15","99999","V020","330,1,N,0030,1","22000,1,9,N","003000,1,9,9","+0050,1","+0030,1","99999,9",,,,,"00,99,1,99,9,99,9,99999,9,99,9,99,9","10230,1,99999,9","10,1",,,"MET058METAR ZSPD 100000Z 33003MPS 3000 BR NSC 05/03 Q1023 NOSIG="
"58321199999","2022-01-10T00:30:00","4","31.143378","121.805214","3.96","PUDONG, CH","FM-15","99999","V020","350,1,V,0030,1","22000,1,9,N","003000,1,9,9","+0070,1","+0040,1","99999,9",,,,,"00,99,1,99,9,99,9,99999,9,99,9,99,9","10230,1,99999,9","10,1",,,"MET066METAR ZSPD 100030Z 35003MPS 320V020 3000 BR NSC 07/04 Q1023 NOSIG="
"58321199999","2022-01-10T01:00:00","4","31.143378","121.805214","3.96","PUDONG, CH","FM-15","99999","V020","360,1,N,0040,1","22000,1,9,N","004000,1,9,9","+0080,1","+0040,1","99999,9",,,,,"00,99,1,99,9,99,9,99999,9,99,9,99,9","10230,1,99999,9","10,1",,,"MET058METAR ZSPD 100100Z 36004MPS 4000 BR NSC 08/04 Q1023 NOSIG="
"58321199999","2022-01-10T01:30:00","4","31.143378","121.805214","3.96","PUDONG, CH","FM-15","99999","V020","360,1,N,0040,1","22000,1,9,N","004000,1,9,9","+0080,1","+0040,1","99999,9",,,,,"00,99,1,99,9,99,9,99999,9,99,9,99,9","10230,1,99999,9","10,1",,,"MET058METAR ZSPD 100130Z 36004MPS 4000 BR NSC 08/04 Q1023 NOSIG="
"58321199999","2022-01-10T02:00:00","4","31.143378","121.805214","3.96","PUDONG, CH","FM-15","99999","V020","350,1,V,0030,1","22000,1,9,N","004500,1,9,9","+0090,1","+0040,1","99999,9",,,,,"00,99,1,99,9,99,9,99999,9,99,9,99,9","10230,1,99999,9","05,1",,,"MET066METAR ZSPD 100200Z 35003MPS 310V020 4500 HZ NSC 09/04 Q1023 NOSIG="
"58321199999","2022-01-10T02:30:00","4","31.143378","121.805214","3.96","PUDONG, CH","FM-15","99999","V020","350,1,V,0030,1","99999,9,9,N","004500,1,9,9","+0090,1","+0040,1","99999,9",,"02,1,+00610,1,99,9",,"9,AGL   ,+99999,+99999","99,99,9,02,1,99,9,00610,1,99,9,99,9","10230,1,99999,9","05,1",,,"MET069METAR ZSPD 100230Z 35003MPS 310V020 4500 HZ FEW020 09/04 Q1023 NOSIG="
"58321199999","2022-01-10T03:00:00","4","31.143378","121.805214","3.96","PUDONG, CH","FM-15","99999","V020","330,1,V,0020,1","99999,9,9,N","004500,1,9,9","+0090,1","+0040,1","99999,9",,"04,1,+00610,1,99,9",,"9,AGL   ,+99999,+99999","99,99,9,04,1,99,9,00610,1,99,9,99,9","10230,1,99999,9","05,1",,,"MET069METAR ZSPD 100300Z 33002MPS 280V020 4500 HZ SCT020 09/04 Q1023 NOSIG="
"58321199999","2022-01-10T03:30:00","4","31.143378","121.805214","3.96","PUDONG, CH","FM-15","99999","V020","310,1,V,0030,1","99999,9,9,N","004500,1,9,9","+0090,1","+0030,1","99999,9",,"04,1,+00610,1,99,9",,"9,AGL   ,+99999,+99999","99,99,9,04,1,99,9,00610,1,99,9,99,9","10230,1,99999,9","05,1",,,"MET069METAR ZSPD 100330Z 31003MPS 280V340 4500 HZ SCT020 09/03 Q1023 NOSIG="
"58321199999","2022-01-10T04:00:00","4","31.143378","121.805214","3.96","PUDONG, CH","FM-15","99999","V020","310,1,N,0030,1","99999,9,9,N","004500,1,9,9","+0090,1","+0030,1","99999,9",,"04,1,+00610,1,99,9",,"9,AGL   ,+99999,+99999","99,99,9,04,1,99,9,00610,1,99,9,99,9","10220,1,99999,9","05,1",,,"MET061METAR ZSPD 100400Z 31003MPS 4500 HZ SCT020 09/03 Q1022 NOSIG="
"58321199999","2022-01-10T04:30:00","4","31.143378","121.805214","3.96","PUDONG, CH","FM-15","99999","V020","310,1,N,0030,1","99999,9,9,N","004500,1,9,9","+0090,1","+0020,1","99999,9",,"02,1,+00610,1,99,9",,"9,AGL   ,+99999,+99999","99,99,9,02,1,99,9,00610,1,99,9,99,9","10220,1,99999,9","05,1",,,"MET061METAR ZSPD 100430Z 31003MPS 4500 HZ FEW020 09/02 Q1022 NOSIG="
"58321199999","2022-01-10T05:00:00","4","31.143378","121.805214","3.96","PUDONG, CH","FM-15","99999","V020","290,1,N,0040,1","99999,9,9,N","004500,1,9,9","+0090,1","+0030,1","99999,9",,"02,1,+00610,1,99,9",,"9,AGL   ,+99999,+99999","99,99,9,02,1,99,9,00610,1,99,9,99,9","10220,1,99999,9","05,1",,,"MET061METAR ZSPD 100500Z 29004MPS 4500 HZ FEW020 09/03 Q1022 NOSIG="
"58321199999","2022-01-10T05:30:00","4","31.143378","121.805214","3.96","PUDONG, CH","FM-15","99999","V020","340,1,V,0030,1","22000,1,9,N","004500,1,9,9","+0090,1","+0020,1","99999,9",,,,,"00,99,1,99,9,99,9,99999,9,99,9,99,9","10210,1,99999,9","05,1",,,"MET066METAR ZSPD 100530Z 34003MPS 310V010 4500 HZ NSC 09/02 Q1021 NOSIG="
"58321199999","2022-01-10T06:00:00","4","31.143378","121.805214","3.96","PUDONG, CH","FM-15","99999","V020","350,1,N,0030,1","22000,1,9,N","004500,1,9,9","+0090,1","+0020,1","99999,9",,,,,"00,99,1,99,9,99,9,99999,9,99,9,99,9","10200,1,99999,9","05,1",,,"MET058METAR ZSPD 100600Z 35003MPS 4500 HZ NSC 09/02 Q1020 NOSIG="
"58321199999","2022-01-10T06:30:00","4","31.143378","121.805214","3.96","PUDONG, CH","FM-15","99999","V020","340,1,N,0050,1","22000,1,9,N","004500,1,9,9","+0080,1","+0030,1","99999,9",,,,,"00,99,1,99,9,99,9,99999,9,99,9,99,9","10200,1,99999,9","05,1",,,"MET058METAR ZSPD 100630Z 34005MPS 4500 HZ NSC 08/03 Q1020 NOSIG="
"58321199999","2022-01-10T07:00:00","4","31.143378","121.805214","3.96","PUDONG, CH","FM-15","99999","V020","350,1,N,0050,1","22000,1,9,N","004000,1,9,9","+0080,1","+0020,1","99999,9",,,,,"00,99,1,99,9,99,9,99999,9,99,9,99,9","10200,1,99999,9","05,1",,,"MET070METAR ZSPD 100700Z 35005MPS 4000 HZ NSC 08/02 Q1020 BECMG TL0830 2500="
"58321199999","2022-01-10T07:30:00","4","31.143378","121.805214","3.96","PUDONG, CH","FM-15","99999","V020","340,1,N,0050,1","22000,1,9,N","004000,1,9,9","+0080,1","+0020,1","99999,9",,,,,"00,99,1,99,9,99,9,99999,9,99,9,99,9","10200,1,99999,9","05,1",,,"MET058METAR ZSPD 100730Z 34005MPS 4000 HZ NSC 08/02 Q1020 NOSIG="
"58321199999","2022-01-10T08:00:00","4","31.143378","121.805214","3.96","PUDONG, CH","FM-15","99999","V020","330,1,N,0050,1","22000,1,9,N","004500,1,9,9","+0080,1","+0020,1","99999,9",,,,,"00,99,1,99,9,99,9,99999,9,99,9,99,9","10200,1,99999,9","05,1",,,"MET058METAR ZSPD 100800Z 33005MPS 4500 HZ NSC 08/02 Q1020 NOSIG="
"58321199999","2022-01-10T08:30:00","4","31.143378","121.805214","3.96","PUDONG, CH","FM-15","99999","V020","320,1,N,0050,1","22000,1,9,N","004500,1,9,9","+0080,1","+0010,1","99999,9",,,,,"00,99,1,99,9,99,9,99999,9,99,9,99,9","10210,1,99999,9","05,1",,,"MET058METAR ZSPD 100830Z 32005MPS 4500 HZ NSC 08/01 Q1021 NOSIG="
"58321199999","2022-01-10T09:00:00","4","31.143378","121.805214","3.96","PUDONG, CH","FM-15","99999","V020","330,1,N,0050,1","22000,1,9,N","004500,1,9,9","+0080,1","+0010,1","99999,9",,,,,"00,99,1,99,9,99,9,99999,9,99,9,99,9","10210,1,99999,9","05,1",,,"MET058METAR ZSPD 100900Z 33005MPS 4500 HZ NSC 08/01 Q1021 NOSIG="
"58321199999","2022-01-10T09:30:00","4","31.143378","121.805214","3.96","PUDONG, CH","FM-15","99999","V020","340,1,N,0040,1","22000,1,9,N","005000,1,9,9","+0070,1","+0020,1","99999,9",,,,,"00,99,1,99,9,99,9,99999,9,99,9,99,9","10210,1,99999,9","05,1",,,"MET058METAR ZSPD 100930Z 34004MPS 5000 HZ NSC 07/02 Q1021 NOSIG="
"58321199999","2022-01-10T10:00:00","4","31.143378","121.805214","3.96","PUDONG, CH","FM-15","99999","V020","330,1,N,0050,1","22000,1,9,N","005000,1,9,9","+0070,1","+0020,1","99999,9",,,,,"00,99,1,99,9,99,9,99999,9,99,9,99,9","10220,1,99999,9","05,1",,,"MET058METAR ZSPD 101000Z 33005MPS 5000 HZ NSC 07/02 Q1022 NOSIG="
"58321199999","2022-01-10T10:30:00","4","31.143378","121.805214","3.96","PUDONG, CH","FM-15","99999","V020","320,1,N,0050,1","22000,1,9,N","005000,1,9,9","+0080,1","+0020,1","99999,9",,,,,"00,99,1,99,9,99,9,99999,9,99,9,99,9","10220,1,99999,9","05,1",,,"MET058METAR ZSPD 101030Z 32005MPS 5000 HZ NSC 08/02 Q1022 NOSIG="
"58321199999","2022-01-10T11:00:00","4","31.143378","121.805214","3.96","PUDONG, CH","FM-15","99999","V020","330,1,N,0050,1","22000,1,9,N","005000,1,9,9","+0080,1","+0010,1","99999,9",,,,,"00,99,1,99,9,99,9,99999,9,99,9,99,9","10220,1,99999,9","05,1",,,"MET058METAR ZSPD 101100Z 33005MPS 5000 HZ NSC 08/01 Q1022 NOSIG="
"58321199999","2022-01-10T11:30:00","4","31.143378","121.805214","3.96","PUDONG, CH","FM-15","99999","V020","340,1,N,0050,1","01311,1,C,N","005000,1,9,9","+0070,1","+0020,1","99999,9",,"07,1,+01311,1,99,9",,"9,AGL   ,+99999,+99999","99,99,9,07,1,99,9,01311,1,99,9,99,9","10220,1,99999,9","05,1","61,1",,"MET065METAR ZSPD 101130Z 34005MPS 5000 -RA HZ BKN043 07/02 Q1022 NOSIG="
"58321199999","2022-01-10T12:00:00","4","31.143378","121.805214","3.96","PUDONG, CH","FM-15","99999","V020","300,1,N,0040,1","00914,1,C,N","005000,1,9,9","+0070,1","+0030,1","99999,9",,"07,1,+00914,1,99,9",,"9,AGL   ,+99999,+99999","99,99,9,07,1,99,9,00914,1,99,9,99,9","10220,1,99999,9","05,1","61,1",,"MET065METAR ZSPD 101200Z 30004MPS 5000 -RA HZ BKN030 07/03 Q1022 NOSIG="
"58321199999","2022-01-10T12:30:00","4","31.143378","121.805214","3.96","PUDONG, CH","FM-15","99999","V020","310,1,N,0050,1","00914,1,C,N","004500,1,9,9","+0070,1","+0030,1","99999,9",,"07,1,+00914,1,99,9",,"9,AGL   ,+99999,+99999","99,99,9,07,1,99,9,00914,1,99,9,99,9","10220,1,99999,9","10,1","61,1",,"MET065METAR ZSPD 101230Z 31005MPS 4500 -RA BR BKN030 07/03 Q1022 NOSIG="
"58321199999","2022-01-10T13:00:00","4","31.143378","121.805214","3.96","PUDONG, CH","FM-15","99999","V020","300,1,N,0040,1","00914,1,C,N","004000,1,9,9","+0070,1","+0040,1","99999,9",,"07,1,+00914,1,99,9",,"9,AGL   ,+99999,+99999","99,99,9,07,1,99,9,00914,1,99,9,99,9","10230,1,99999,9","10,1","61,1",,"MET065METAR ZSPD 101300Z 30004MPS 4000 -RA BR BKN030 07/04 Q1023 NOSIG="
"58321199999","2022-01-10T13:30:00","4","31.143378","121.805214","3.96","PUDONG, CH","FM-15","99999","V020","310,1,N,0050,1","00792,1,C,N","004000,1,9,9","+0070,1","+0030,1","99999,9",,"07,1,+00792,1,99,9",,"9,AGL   ,+99999,+99999","99,99,9,07,1,99,9,00792,1,99,9,99,9","10230,1,99999,9","10,1","61,1",,"MET065METAR ZSPD 101330Z 31005MPS 4000 -RA BR BKN026 07/03 Q1023 NOSIG="
"58321199999","2022-01-10T14:00:00","4","31.143378","121.805214","3.96","PUDONG, CH","FM-15","99999","V020","310,1,N,0070,1","00792,1,C,N","004000,1,9,9","+0060,1","+0030,1","99999,9",,"07,1,+00792,1,99,9",,"9,AGL   ,+99999,+99999","99,99,9,07,1,99,9,00792,1,99,9,99,9","10230,1,99999,9","10,1","61,1",,"MET065METAR ZSPD 101400Z 31007MPS 4000 -RA BR BKN026 06/03 Q1023 NOSIG="
"58321199999","2022-01-10T14:30:00","4","31.143378","121.805214","3.96","PUDONG, CH","FM-15","99999","V020","320,1,N,0060,1","00610,1,C,N","004000,1,9,9","+0060,1","+0030,1","99999,9",,"07,1,+00610,1,99,9",,"9,AGL   ,+99999,+99999","99,99,9,07,1,99,9,00610,1,99,9,99,9","10230,1,99999,9","10,1","61,1",,"MET065METAR ZSPD 101430Z 32006MPS 4000 -RA BR BKN020 06/03 Q1023 NOSIG="
"58321199999","2022-01-10T15:00:00","4","31.143378","121.805214","3.96","PUDONG, CH","FM-15","99999","V020","330,1,N,0070,1","00610,1,C,N","003500,1,9,9","+0060,1","+0030,1","99999,9",,"07,1,+00610,1,99,9",,"9,AGL   ,+99999,+99999","99,99,9,07,1,99,9,00610,1,99,9,99,9","10230,1,99999,9","10,1","61,1",,"MET065METAR ZSPD 101500Z 33007MPS 3500 -RA BR BKN020 06/03 Q1023 NOSIG="
"58321199999","2022-01-10T15:30:00","4","31.143378","121.805214","3.96","PUDONG, CH","FM-15","99999","V020","320,1,N,0050,1","00610,1,C,N","003500,1,9,9","+0060,1","+0040,1","99999,9",,"07,1,+00610,1,99,9",,"9,AGL   ,+99999,+99999","99,99,9,07,1,99,9,00610,1,99,9,99,9","10230,1,99999,9","10,1","61,1",,"MET065METAR ZSPD 101530Z 32005MPS 3500 -RA BR BKN020 06/04 Q1023 NOSIG="
"58321199999","2022-01-10T16:00:00","4","31.143378","121.805214","3.96","PUDONG, CH","FM-15","99999","V020","330,1,N,0080,1","00610,1,C,N","003500,1,9,9","+0050,1","+0030,1","99999,9",,"07,1,+00610,1,99,9",,"9,AGL   ,+99999,+99999","99,99,9,07,1,99,9,00610,1,99,9,99,9","10240,1,99999,9","10,1",,,"MET061METAR ZSPD 101600Z 33008MPS 3500 BR BKN020 05/03 Q1024 NOSIG="
"58321199999","2022-01-10T16:30:00","4","31.143378","121.805214","3.96","PUDONG, CH","FM-15","99999","V020","320,1,N,0070,1","99999,9,9,N","004000,1,9,9","+0060,1","+0030,1","99999,9",,"02,1,+00610,1,99,9",,"9,AGL   ,+99999,+99999","99,99,9,02,1,99,9,00610,1,99,9,99,9","10240,1,99999,9","10,1",,,"MET061METAR ZSPD 101630Z 32007MPS 4000 BR FEW020 06/03 Q1024 NOSIG="
"58321199999","2022-01-10T17:00:00","4","31.143378","121.805214","3.96","PUDONG, CH","FM-15","99999","V020","320,1,N,0060,1","99999,9,9,N","004000,1,9,9","+0050,1","+0030,1","99999,9",,"04,1,+00914,1,99,9",,"9,AGL   ,+99999,+99999","99,99,9,04,1,99,9,00914,1,99,9,99,9","10240,1,99999,9","10,1",,,"MET061METAR ZSPD 101700Z 32006MPS 4000 BR SCT030 05/03 Q1024 NOSIG="
"58321199999","2022-01-10T17:30:00","4","31.143378","121.805214","3.96","PUDONG, CH","FM-15","99999","V020","320,1,N,0060,1","00914,1,C,N","004000,1,9,9","+0060,1","+0030,1","99999,9",,"07,1,+00914,1,99,9",,"9,AGL   ,+99999,+99999","99,99,9,07,1,99,9,00914,1,99,9,99,9","10240,1,99999,9","10,1",,,"MET061METAR ZSPD 101730Z 32006MPS 4000 BR BKN030 06/03 Q1024 NOSIG="
"58321199999","2022-01-10T18:00:00","4","31.143378","121.805214","3.96","PUDONG, CH","FM-15","99999","V020","330,1,N,0090,1","00914,1,C,N","004000,1,9,9","+0060,1","+0020,1","99999,9",,"07,1,+00914,1,99,9",,"9,AGL   ,+99999,+99999","99,99,9,07,1,99,9,00914,1,99,9,99,9","10240,1,99999,9","10,1",,,"MET061METAR ZSPD 101800Z 33009MPS 4000 BR BKN030 06/02 Q1024 NOSIG="
"58321199999","2022-01-10T18:30:00","4","31.143378","121.805214","3.96","PUDONG, CH","FM-15","99999","V020","320,1,N,0080,1","00610,1,C,N","004000,1,9,9","+0050,1","+0020,1","99999,9",,"07,1,+00610,1,99,9",,"9,AGL   ,+99999,+99999","99,99,9,07,1,99,9,00610,1,99,9,99,9","10240,1,99999,9","10,1",,,"MET061METAR ZSPD 101830Z 32008MPS 4000 BR BKN020 05/02 Q1024 NOSIG="
"58321199999","2022-01-10T19:00:00","4","31.143378","121.805214","3.96","PUDONG, CH","FM-15","99999","V020","330,1,N,0080,1","00610,1,C,N","004000,1,9,9","+0050,1","+0020,1","99999,9",,"07,1,+00610,1,99,9",,"9,AGL   ,+99999,+99999","99,99,9,07,1,99,9,00610,1,99,9,99,9","10240,1,99999,9","10,1",,,"MET061METAR ZSPD 101900Z 33008MPS 4000 BR BKN020 05/02 Q1024 NOSIG="
"58321199999","2022-01-10T19:30:00","4","31.143378","121.805214","3.96","PUDONG, CH","FM-15","99999","V020","320,1,N,0090,1","00610,1,C,N","004500,1,9,9","+0060,1","+0020,1","99999,9",,"07,1,+00610,1,99,9",,"9,AGL   ,+99999,+99999","99,99,9,07,1,99,9,00610,1,99,9,99,9","10250,1,99999,9","10,1",,,"MET061METAR ZSPD 101930Z 32009MPS 4500 BR BKN020 06/02 Q1025 NOSIG="
"58321199999","2022-01-10T20:00:00","4","31.143378","121.805214","3.96","PUDONG, CH","FM-15","99999","V020","330,1,N,0080,1","00610,1,C,N","004500,1,9,9","+0050,1","+0020,1","99999,9",,"07,1,+00610,1,99,9",,"9,AGL   ,+99999,+99999","99,99,9,07,1,99,9,00610,1,99,9,99,9","10250,1,99999,9","10,1",,,"MET061METAR ZSPD 102000Z 33008MPS 4500 BR BKN020 05/02 Q1025 NOSIG="
"58321199999","2022-01-10T20:30:00","4","31.143378","121.805214","3.96","PUDONG, CH","FM-15","99999","V020","330,1,N,0090,1","00610,1,C,N","005000,1,9,9","+0050,1","+0020,1","99999,9",,"07,1,+00610,1,99,9",,"9,AGL   ,+99999,+99999","99,99,9,07,1,99,9,00610,1,99,9,99,9","10250,1,99999,9","10,1",,,"MET061METAR ZSPD 102030Z 33009MPS 5000 BR BKN020 05/02 Q1025 NOSIG="
"58321199999","2022-01-10T21:00:00","4","31.143378","121.805214","3.96","PUDONG, CH","FM-15","99999","V020","330,1,N,0070,1","00610,1,C,N","005000,1,9,9","+0050,1","+0020,1","99999,9",,"07,1,+00610,1,99,9",,"9,AGL   ,+99999,+99999","99,99,9,07,1,99,9,00610,1,99,9,99,9","10250,1,99999,9","10,1",,,"MET061METAR ZSPD 102100Z 33007MPS 5000 BR BKN020 05/02 Q1025 NOSIG="
"58321199999","2022-01-10T21:30:00","4","31.143378","121.805214","3.96","PUDONG, CH","FM-15","99999","V020","330,1,N,0070,1","00610,1,C,N","005000,1,9,9","+0050,1","+0010,1","99999,9",,"07,1,+00610,1,99,9",,"9,AGL   ,+99999,+99999","99,99,9,07,1,99,9,00610,1,99,9,99,9","10250,1,99999,9","10,1",,,"MET061METAR ZSPD 102130Z 33007MPS 5000 BR BKN020 05/01 Q1025 NOSIG="
"58321199999","2022-01-10T22:00:00","4","31.143378","121.805214","3.96","PUDONG, CH","FM-15","99999","V020","330,1,N,0080,1","99999,9,9,N","005000,1,9,9","+0040,1","+0010,1","99999,9",,"04,1,+00610,1,99,9",,"9,AGL   ,+99999,+99999","99,99,9,04,1,99,9,00610,1,99,9,99,9","10260,1,99999,9","10,1",,,"MET061METAR ZSPD 102200Z 33008MPS 5000 BR SCT020 04/01 Q1026 NOSIG="
"58321199999","2022-01-10T22:30:00","4","31.143378","121.805214","3.96","PUDONG, CH","FM-15","99999","V020","330,1,N,0070,1","99999,9,9,N","005000,1,9,9","+0040,1","+0010,1","99999,9",,"04,1,+00610,1,99,9",,"9,AGL   ,+99999,+99999","99,99,9,04,1,99,9,00610,1,99,9,99,9","10260,1,99999,9","10,1",,,"MET061METAR ZSPD 102230Z 33007MPS 5000 BR SCT020 04/01 Q1026 NOSIG="
"58321199999","2022-01-10T23:00:00","4","31.143378","121.805214","3.96","PUDONG, CH","FM-15","99999","V020","330,1,N,0080,1","99999,9,9,N","005000,1,9,9","+0040,1","+0000,1","99999,9",,"04,1,+00610,1,99,9",,"9,AGL   ,+99999,+99999","99,99,9,04,1,99,9,00610,1,99,9,99,9","10270,1,99999,9","10,1",,,"MET062METAR ZSPD 102300Z 33008MPS 5000 BR SCT020 04/M00 Q1027 NOSIG="
"58321199999","2022-01-10T23:30:00","4","31.143378","121.805214","3.96","PUDONG, CH","FM-15","99999","V020","330,1,N,0080,1","99999,9,9,N","005000,1,9,9","+0040,1","+0000,1","99999,9",,"04,1,+00610,1,99,9",,"9,AGL   ,+99999,+99999","99,99,9,04,1,99,9,00610,1,99,9,99,9","10270,1,99999,9","10,1",,,"MET062METAR ZSPD 102330Z 33008MPS 5000 BR SCT020 04/M00 Q1027 NOSIG="
"58321199999","2022-01-11T00:00:00","4","31.143378","121.805214","3.96","PUDONG, CH","FM-15","99999","V020","330,1,N,0080,1","99999,9,9,N","006000,1,9,9","+0040,1","+0000,1","99999,9",,"02,1,+00610,1,99,9",,"9,AGL   ,+99999,+99999","99,99,9,02,1,99,9,00610,1,99,9,99,9","10270,1,99999,9",,,,"MET059METAR ZSPD 110000Z 33008MPS 6000 FEW020 04/M00 Q1027 NOSIG="
"58321199999","2022-01-11T00:30:00","4","31.143378","121.805214","3.96","PUDONG, CH","FM-15","99999","V020","340,1,N,0090,1","99999,9,9,N","009000,1,9,9","+0040,1","-0010,1","99999,9",,"02,1,+00610,1,99,9",,"9,AGL   ,+99999,+99999","99,99,9,02,1,99,9,00610,1,99,9,99,9","10280,1,99999,9",,,,"MET059METAR ZSPD 110030Z 34009MPS 9000 FEW020 04/M01 Q1028 NOSIG="
"58321199999","2022-01-11T01:00:00","4","31.143378","121.805214","3.96","PUDONG, CH","FM-15","99999","V020","330,1,N,0080,1","99999,9,9,N","009999,1,9,9","+0050,1","-0020,1","99999,9",,"02,1,+00610,1,99,9",,"9,AGL   ,+99999,+99999","99,99,9,02,1,99,9,00610,1,99,9,99,9","10280,1,99999,9",,,,"MET059METAR ZSPD 110100Z 33008MPS 9999 FEW020 05/M02 Q1028 NOSIG="
"58321199999","2022-01-11T01:30:00","4","31.143378","121.805214","3.96","PUDONG, CH","FM-15","99999","V020","330,1,N,0080,1","99999,9,9,N","009999,1,9,9","+0060,1","-0020,1","99999,9",,"02,1,+00610,1,99,9",,"9,AGL   ,+99999,+99999","99,99,9,02,1,99,9,00610,1,99,9,99,9","10290,1,99999,9",,,,"MET059METAR ZSPD 110130Z 33008MPS 9999 FEW020 06/M02 Q1029 NOSIG="
"58321199999","2022-01-11T02:00:00","4","31.143378","121.805214","3.96","PUDONG, CH","FM-15","99999","V020","340,1,N,0090,1","99999,9,9,N","009999,1,9,9","+0060,1","-0030,1","99999,9",,"04,1,+01006,1,99,9",,"9,AGL   ,+99999,+99999","99,99,9,04,1,99,9,01006,1,99,9,99,9","10290,1,99999,9",,,,"MET059METAR ZSPD 110200Z 34009MPS 9999 SCT033 06/M03 Q1029 NOSIG="
"58321199999","2022-01-11T02:30:00","4","31.143378","121.805214","3.96","PUDONG, CH","FM-15","99999","V020","340,1,N,0090,1","99999,9,9,N","009999,1,9,9","+0060,1","-0040,1","99999,9",,"04,1,+01006,1,99,9",,"9,AGL   ,+99999,+99999","99,99,9,04,1,99,9,01006,1,99,9,99,9","10280,1,99999,9",,,,"MET059METAR ZSPD 110230Z 34009MPS 9999 SCT033 06/M04 Q1028 NOSIG="
"58321199999","2022-01-11T03:00:00","4","31.143378","121.805214","3.96","PUDONG, CH","FM-15","99999","V020","330,1,N,0080,1","99999,9,9,N","009999,1,9,9","+0060,1","-0030,1","99999,9",,"04,1,+01006,1,99,9",,"9,AGL   ,+99999,+99999","99,99,9,04,1,99,9,01006,1,99,9,99,9","10280,1,99999,9",,,,"MET059METAR ZSPD 110300Z 33008MPS 9999 SCT033 06/M03 Q1028 NOSIG="
"58321199999","2022-01-11T03:30:00","4","31.143378","121.805214","3.96","PUDONG, CH","FM-15","99999","V020","340,1,N,0100,1","99999,9,9,N","009999,1,9,9","+0060,1","-0040,1","99999,9",,"04,1,+01006,1,99,9",,"9,AGL   ,+99999,+99999","99,99,9,04,1,99,9,01006,1,99,9,99,9","10280,1,99999,9",,,,"MET059METAR ZSPD 110330Z 34010MPS 9999 SCT033 06/M04 Q1028 NOSIG="
"58321199999","2022-01-11T04:00:00","4","31.143378","121.805214","3.96","PUDONG, CH","FM-15","99999","V020","340,1,V,0090,1","99999,9,9,N","009999,1,9,9","+0060,1","-0040,1","99999,9",,"02,1,+01006,1,99,9",,"9,AGL   ,+99999,+99999","99,99,9,02,1,99,9,01006,1,99,9,99,9","10280,1,99999,9",,,,"MET067METAR ZSPD 110400Z 34009MPS 300V010 9999 FEW033 06/M04 Q1028 NOSIG="
"58321199999","2022-01-11T04:30:00","4","31.143378","121.805214","3.96","PUDONG, CH","FM-15","99999","V020","340,1,N,0090,1","99999,9,9,N","009999,1,9,9","+0060,1","-0050,1","99999,9",,"02,1,+01006,1,99,9",,"9,AGL   ,+99999,+99999","99,99,9,02,1,99,9,01006,1,99,9,99,9","10270,1,99999,9",,,"0140,1","MET062METAR ZSPD 110430Z 34009G14MPS 9999 FEW033 06/M05 Q1027 NOSIG="
"58321199999","2022-01-11T05:00:00","4","31.143378","121.805214","3.96","PUDONG, CH","FM-15","99999","V020","340,1,N,0090,1","99999,9,9,N","009999,1,9,9","+0060,1","-0040,1","99999,9",,"02,1,+01006,1,99,9",,"9,AGL   ,+99999,+99999","99,99,9,02,1,99,9,01006,1,99,9,99,9","10270,1,99999,9",,,,"MET059METAR ZSPD 110500Z 34009MPS 9999 FEW033 06/M04 Q1027 NOSIG="
"58321199999","2022-01-11T05:30:00","4","31.143378","121.805214","3.96","PUDONG, CH","FM-15","99999","V020","340,1,N,0090,1","99999,9,9,N","009999,1,9,9","+0070,1","-0050,1","99999,9",,"02,1,+01006,1,99,9",,"9,AGL   ,+99999,+99999","99,99,9,02,1,99,9,01006,1,99,9,99,9","10270,1,99999,9",,,,"MET059METAR ZSPD 110530Z 34009MPS 9999 FEW033 07/M05 Q1027 NOSIG="
"58321199999","2022-01-11T06:00:00","4","31.143378","121.805214","3.96","PUDONG, CH","FM-15","99999","V020","350,1,N,0090,1","99999,9,9,N","009999,1,9,9","+0060,1","-0050,1","99999,9",,"02,1,+01219,1,99,9",,"9,AGL   ,+99999,+99999","99,99,9,02,1,99,9,01219,1,99,9,99,9","10270,1,99999,9",,,,"MET059METAR ZSPD 110600Z 35009MPS 9999 FEW040 06/M05 Q1027 NOSIG="
"58321199999","2022-01-11T06:30:00","4","31.143378","121.805214","3.96","PUDONG, CH","FM-15","99999","V020","340,1,N,0080,1","99999,9,9,N","009999,1,9,9","+0060,1","-0040,1","99999,9",,"02,1,+01219,1,99,9",,"9,AGL   ,+99999,+99999","99,99,9,02,1,99,9,01219,1,99,9,99,9","10270,1,99999,9",,,,"MET059METAR ZSPD 110630Z 34008MPS 9999 FEW040 06/M04 Q1027 NOSIG="
"58321199999","2022-01-11T07:00:00","4","31.143378","121.805214","3.96","PUDONG, CH","FM-15","99999","V020","340,1,V,0080,1","99999,9,9,N","009999,1,9,9","+0060,1","-0050,1","99999,9",,"02,1,+01219,1,99,9",,"9,AGL   ,+99999,+99999","99,99,9,02,1,99,9,01219,1,99,9,99,9","10270,1,99999,9",,,,"MET067METAR ZSPD 110700Z 34008MPS 310V010 9999 FEW040 06/M05 Q1027 NOSIG="
"58321199999","2022-01-11T07:30:00","4","31.143378","121.805214","3.96","PUDONG, CH","FM-15","99999","V020","340,1,V,0070,1","99999,9,9,N","009999,1,9,9","+0060,1","-0050,1","99999,9",,"02,1,+01219,1,99,9",,"9,AGL   ,+99999,+99999","99,99,9,02,1,99,9,01219,1,99,9,99,9","10270,1,99999,9",,,,"MET067METAR ZSPD 110730Z 34007MPS 310V010 9999 FEW040 06/M05 Q1027 NOSIG="
"58321199999","2022-01-11T08:00:00","4","31.143378","121.805214","3.96","PUDONG, CH","FM-15","99999","V020","340,1,N,0080,1","99999,9,9,N","009999,1,9,9","+0050,1","-0050,1","99999,9",,"02,1,+01219,1,99,9",,"9,AGL   ,+99999,+99999","99,99,9,02,1,99,9,01219,1,99,9,99,9","10270,1,99999,9",,,,"MET059METAR ZSPD 110800Z 34008MPS 9999 FEW040 05/M05 Q1027 NOSIG="
"58321199999","2022-01-11T08:30:00","4","31.143378","121.805214","3.96","PUDONG, CH","FM-15","99999","V020","340,1,N,0070,1","99999,9,9,N","009999,1,9,9","+0050,1","-0050,1","99999,9",,"02,1,+01219,1,99,9",,"9,AGL   ,+99999,+99999","99,99,9,02,1,99,9,01219,1,99,9,99,9","10270,1,99999,9",,,,"MET059METAR ZSPD 110830Z 34007MPS 9999 FEW040 05/M05 Q1027 NOSIG="
"58321199999","2022-01-11T09:00:00","4","31.143378","121.805214","3.96","PUDONG, CH","FM-15","99999","V020","350,1,N,0060,1","99999,9,9,N","009999,1,9,9","+0040,1","-0040,1","99999,9",,"02,1,+01219,1,99,9",,"9,AGL   ,+99999,+99999","99,99,9,02,1,99,9,01219,1,99,9,99,9","10280,1,99999,9",,,,"MET059METAR ZSPD 110900Z 35006MPS 9999 FEW040 04/M04 Q1028 NOSIG="
"58321199999","2022-01-11T09:30:00","4","31.143378","121.805214","3.96","PUDONG, CH","FM-15","99999","V020","350,1,N,0070,1","99999,9,9,N","009999,1,9,9","+0040,1","-0050,1","99999,9",,"02,1,+01219,1,99,9",,"9,AGL   ,+99999,+99999","99,99,9,02,1,99,9,01219,1,99,9,99,9","10280,1,99999,9",,,,"MET059METAR ZSPD 110930Z 35007MPS 9999 FEW040 04/M05 Q1028 NOSIG="
"58321199999","2022-01-11T10:00:00","4","31.143378","121.805214","3.96","PUDONG, CH","FM-15","99999","V020","360,1,N,0070,1","99999,9,9,N","009999,1,9,9","+0030,1","-0050,1","99999,9",,"02,1,+01219,1,99,9",,"9,AGL   ,+99999,+99999","99,99,9,02,1,99,9,01219,1,99,9,99,9","10280,1,99999,9",,,,"MET059METAR ZSPD 111000Z 36007MPS 9999 FEW040 03/M05 Q1028 NOSIG="
"58321199999","2022-01-11T10:30:00","4","31.143378","121.805214","3.96","PUDONG, CH","FM-15","99999","V020","360,1,N,0060,1","99999,9,9,N","009999,1,9,9","+0030,1","-0040,1","99999,9",,"02,1,+01219,1,99,9",,"9,AGL   ,+99999,+99999","99,99,9,02,1,99,9,01219,1,99,9,99,9","10280,1,99999,9",,,,"MET059METAR ZSPD 111030Z 36006MPS 9999 FEW040 03/M04 Q1028 NOSIG="
"58321199999","2022-01-11T11:00:00","4","31.143378","121.805214","3.96","PUDONG, CH","FM-15","99999","V020","360,1,N,0060,1","99999,9,9,N","009999,1,9,9","+0030,1","-0040,1","99999,9",,"02,1,+01219,1,99,9",,"9,AGL   ,+99999,+99999","99,99,9,02,1,99,9,01219,1,99,9,99,9","10290,1,99999,9",,,,"MET059METAR ZSPD 111100Z 36006MPS 9999 FEW040 03/M04 Q1029 NOSIG="
"58321199999","2022-01-11T11:30:00","4","31.143378","121.805214","3.96","PUDONG, CH","FM-15","99999","V020","350,1,N,0050,1","99999,9,9,Y","009900,5,9,9","+0020,1","-0050,1","99999,9",,,,,,"10290,1,99999,9",,,,"MET053METAR ZSPD 111130Z 35005MPS CAVOK 02/M05 Q1029 NOSIG="
"58321199999","2022-01-11T12:00:00","4","31.143378","121.805214","3.96","PUDONG, CH","FM-15","99999","V020","340,1,N,0050,1","99999,9,9,Y","009900,5,9,9","+0020,1","-0050,1","99999,9",,,,,,"10290,1,99999,9",,,,"MET053METAR ZSPD 111200Z 34005MPS CAVOK 02/M05 Q1029 NOSIG="
"58321199999","2022-01-11T12:30:00","4","31.143378","121.805214","3.96","PUDONG, CH","FM-15","99999","V020","350,1,N,0060,1","99999,9,9,Y","009900,5,9,9","+0020,1","-0050,1","99999,9",,,,,,"10290,1,99999,9",,,,"MET053METAR ZSPD 111230Z 35006MPS CAVOK 02/M05 Q1029 NOSIG="
"58321199999","2022-01-11T13:00:00","4","31.143378","121.805214","3.96","PUDONG, CH","FM-15","99999","V020","330,1,N,0040,1","99999,9,9,Y","009900,5,9,9","+0010,1","-0050,1","99999,9",,,,,,"10290,1,99999,9",,,,"MET053METAR ZSPD 111300Z 33004MPS CAVOK 01/M05 Q1029 NOSIG="
"58321199999","2022-01-11T13:30:00","4","31.143378","121.805214","3.96","PUDONG, CH","FM-15","99999","V020","330,1,N,0040,1","99999,9,9,Y","009900,5,9,9","+0000,1","-0050,1","99999,9",,,,,,"10290,1,99999,9",,,,"MET053METAR ZSPD 111330Z 33004MPS CAVOK 00/M05 Q1029 NOSIG="
"58321199999","2022-01-11T14:00:00","4","31.143378","121.805214","3.96","PUDONG, CH","FM-15","99999","V020","340,1,N,0040,1","99999,9,9,Y","009900,5,9,9","+0000,1","-0040,1","99999,9",,,,,,"10280,1,99999,9",,,,"MET053METAR ZSPD 111400Z 34004MPS CAVOK 00/M04 Q1028 NOSIG="
"58321199999","2022-01-11T14:30:00","4","31.143378","121.805214","3.96","PUDONG, CH","FM-15","99999","V020","340,1,N,0040,1","99999,9,9,Y","009900,5,9,9","+0010,1","-0050,1","99999,9",,,,,,"10280,1,99999,9",,,,"MET053METAR ZSPD 111430Z 34004MPS CAVOK 01/M05 Q1028 NOSIG="
"58321199999","2022-01-11T15:00:00","4","31.143378","121.805214","3.96","PUDONG, CH","FM-15","99999","V020","340,1,N,0040,1","99999,9,9,Y","009900,5,9,9","+0000,1","-0040,1","99999,9",,,,,,"10280,1,99999,9",,,,"MET054METAR ZSPD 111500Z 34004MPS CAVOK M00/M04 Q1028 NOSIG="
"58321199999","2022-01-11T15:30:00","4","31.143378","121.805214","3.96","PUDONG, CH","FM-15","99999","V020","330,1,N,0040,1","99999,9,9,Y","009900,5,9,9","+0010,1","-0040,1","99999,9",,,,,,"10280,1,99999,9",,,,"MET053METAR ZSPD 111530Z 33004MPS CAVOK 01/M04 Q1028 NOSIG="
"58321199999","2022-01-11T16:00:00","4","31.143378","121.805214","3.96","PUDONG, CH","FM-15","99999","V020","330,1,N,0040,1","99999,9,9,Y","009900,5,9,9","+0000,1","-0040,1","99999,9",,,,,,"10280,1,99999,9",,,,"MET053METAR ZSPD 111600Z 33004MPS CAVOK 00/M04 Q1028 NOSIG="
"58321199999","2022-01-11T16:30:00","4","31.143378","121.805214","3.96","PUDONG, CH","FM-15","99999","V020","320,1,N,0030,1","99999,9,9,Y","009900,5,9,9","+0000,1","-0040,1","99999,9",,,,,,"10280,1,99999,9",,,,"MET053METAR ZSPD 111630Z 32003MPS CAVOK 00/M04 Q1028 NOSIG="
"58321199999","2022-01-11T17:00:00","4","31.143378","121.805214","3.96","PUDONG, CH","FM-15","99999","V020","310,1,N,0030,1","99999,9,9,Y","009900,5,9,9","+0000,1","-0040,1","99999,9",,,,,,"10270,1,99999,9",,,,"MET053METAR ZSPD 111700Z 31003MPS CAVOK 00/M04 Q1027 NOSIG="
"58321199999","2022-01-11T17:30:00","4","31.143378","121.805214","3.96","PUDONG, CH","FM-15","99999","V020","300,1,N,0030,1","99999,9,9,Y","009900,5,9,9","+0010,1","-0040,1","99999,9",,,,,,"10280,1,99999,9",,,,"MET053METAR ZSPD 111730Z 30003MPS CAVOK 01/M04 Q1028 NOSIG="
"58321199999","2022-01-11T18:00:00","4","31.143378","121.805214","3.96","PUDONG, CH","FM-15","99999","V020","300,1,N,0030,1","99999,9,9,Y","009900,5,9,9","+0010,1","-0040,1","99999,9",,,,,,"10270,1,99999,9",,,,"MET053METAR ZSPD 111800Z 30003MPS CAVOK 01/M04 Q1027 NOSIG="
"58321199999","2022-01-11T18:30:00","4","31.143378","121.805214","3.96","PUDONG, CH","FM-15","99999","V020","290,1,N,0030,1","99999,9,9,Y","009900,5,9,9","+0000,1","-0040,1","99999,9",,,,,,"10270,1,99999,9",,,,"MET053METAR ZSPD 111830Z 29003MPS CAVOK 00/M04 Q1027 NOSIG="
"58321199999","2022-01-11T19:00:00","4","31.143378","121.805214","3.96","PUDONG, CH","FM-15","99999","V020","300,1,N,0030,1","99999,9,9,Y","009900,5,9,9","+0000,1","-0040,1","99999,9",,,,,,"10270,1,99999,9",,,,"MET053METAR ZSPD 111900Z 30003MPS CAVOK 00/M04 Q1027 NOSIG="
"58321199999","2022-01-11T19:30:00","4","31.143378","121.805214","3.96","PUDONG, CH","FM-15","99999","V020","290,1,N,0020,1","99999,9,9,Y","009900,5,9,9","-0010,1","-0040,1","99999,9",,,,,,"10270,1,99999,9",,,,"MET054METAR ZSPD 111930Z 29002MPS CAVOK M01/M04 Q1027 NOSIG="
"58321199999","2022-01-11T20:00:00","4","31.143378","121.805214","3.96","PUDONG, CH","FM-15","99999","V020","290,1,N,0030,1","99999,9,9,Y","009900,5,9,9","+0000,1","-0040,1","99999,9",,,,,,"10270,1,99999,9",,,,"MET053METAR ZSPD 112000Z 29003MPS CAVOK 00/M04 Q1027 NOSIG="
"58321199999","2022-01-11T20:30:00","4","31.143378","121.805214","3.96","PUDONG, CH","FM-15","99999","V020","270,1,N,0030,1","99999,9,9,Y","009900,5,9,9","+0000,1","-0040,1","99999,9",,,,,,"10270,1,99999,9",,,,"MET054METAR ZSPD 112030Z 27003MPS CAVOK M00/M04 Q1027 NOSIG="
"58321199999","2022-01-11T21:00:00","4","31.143378","121.805214","3.96","PUDONG, CH","FM-15","99999","V020","280,1,N,0020,1","99999,9,9,Y","009900,5,9,9","+0000,1","-0040,1","99999,9",,,,,,"10260,1,99999,9",,,,"MET054METAR ZSPD 112100Z 28002MPS CAVOK M00/M04 Q1026 NOSIG="
"58321199999","2022-01-11T21:30:00","4","31.143378","121.805214","3.96","PUDONG, CH","FM-15","99999","V020","270,1,N,0030,1","99999,9,9,Y","009900,5,9,9","+0000,1","-0040,1","99999,9",,,,,,"10270,1,99999,9",,,,"MET054METAR ZSPD 112130Z 27003MPS CAVOK M00/M04 Q1027 NOSIG="
"58321199999","2022-01-11T22:00:00","4","31.143378","121.805214","3.96","PUDONG, CH","FM-15","99999","V020","280,1,N,0030,1","99999,9,9,Y","009900,5,9,9","+0000,1","-0040,1","99999,9",,,,,,"10270,1,99999,9",,,,"MET054METAR ZSPD 112200Z 28003MPS CAVOK M00/M04 Q1027 NOSIG="
"58321199999","2022-01-11T22:30:00","4","31.143378","121.805214","3.96","PUDONG, CH","FM-15","99999","V020","290,1,V,0020,1","99999,9,9,Y","009900,5,9,9","+0000,1","-0040,1","99999,9",,,,,,"10270,1,99999,9",,,,"MET062METAR ZSPD 112230Z 29002MPS 260V330 CAVOK M00/M04 Q1027 NOSIG="
"58321199999","2022-01-11T23:00:00","4","31.143378","121.805214","3.96","PUDONG, CH","FM-15","99999","V020","270,1,N,0030,1","99999,9,9,Y","009900,5,9,9","+0000,1","-0040,1","99999,9",,,,,,"10270,1,99999,9",,,,"MET053METAR ZSPD 112300Z 27003MPS CAVOK 00/M04 Q1027 NOSIG="
"58321199999","2022-01-11T23:30:00","4","31.143378","121.805214","3.96","PUDONG, CH","FM-15","99999","V020","270,1,N,0030,1","99999,9,9,Y","009900,5,9,9","+0000,1","-0040,1","99999,9",,,,,,"10270,1,99999,9",,,,"MET053METAR ZSPD 112330Z 27003MPS CAVOK 00/M04 Q1027 NOSIG="
"58321199999","2022-01-12T00:00:00","4","31.143378","121.805214","3.96","PUDONG, CH","FM-15","99999","V020","270,1,V,0030,1","99999,9,9,Y","009900,5,9,9","+0020,1","-0030,1","99999,9",,,,,,"10270,1,99999,9",,,,"MET061METAR ZSPD 120000Z 27003MPS 210V310 CAVOK 02/M03 Q1027 NOSIG="
"58321199999","2022-01-12T00:30:00","4","31.143378","121.805214","3.96","PUDONG, CH","FM-15","99999","V020","280,1,N,0030,1","99999,9,9,Y","009900,5,9,9","+0030,1","-0030,1","99999,9",,,,,,"10270,1,99999,9",,,,"MET053METAR ZSPD 120030Z 28003MPS CAVOK 03/M03 Q1027 NOSIG="
"58321199999","2022-01-12T01:00:00","4","31.143378","121.805214","3.96","PUDONG, CH","FM-15","99999","V020","300,1,N,0020,1","99999,9,9,Y","009900,5,9,9","+0040,1","-0030,1","99999,9",,,,,,"10270,1,99999,9",,,,"MET053METAR ZSPD 120100Z 30002MPS CAVOK 04/M03 Q1027 NOSIG="
"58321199999","2022-01-12T01:30:00","4","31.143378","121.805214","3.96","PUDONG, CH","FM-15","99999","V020","320,1,V,0020,1","99999,9,9,Y","009900,5,9,9","+0050,1","-0030,1","99999,9",,,,,,"10280,1,99999,9",,,,"MET061METAR ZSPD 120130Z 32002MPS 270V030 CAVOK 05/M03 Q1028 NOSIG="
"58321199999","2022-01-12T02:00:00","4","31.143378","121.805214","3.96","PUDONG, CH","FM-15","99999","V020","030,1,V,0020,1","99999,9,9,Y","009900,5,9,9","+0060,1","-0030,1","99999,9",,,,,,"10270,1,99999,9",,,,"MET061METAR ZSPD 120200Z 03002MPS 300V090 CAVOK 06/M03 Q1027 NOSIG="
"58321199999","2022-01-12T02:30:00","4","31.143378","121.805214","3.96","PUDONG, CH","FM-15","99999","V020","090,1,V,0020,1","99999,9,9,Y","009900,5,9,9","+0070,1","-0030,1","99999,9",,,,,,"10270,1,99999,9",,,,"MET061METAR ZSPD 120230Z 09002MPS 020V160 CAVOK 07/M03 Q1027 NOSIG="
"58321199999","2022-01-12T03:00:00","4","31.143378","121.805214","3.96","PUDONG, CH","FM-15","99999","V020","100,1,V,0020,1","99999,9,9,Y","009900,5,9,9","+0070,1","-0040,1","99999,9",,,,,,"10260,1,99999,9",,,,"MET061METAR ZSPD 120300Z 10002MPS 050V180 CAVOK 07/M04 Q1026 NOSIG="
"58321199999","2022-01-12T03:30:00","4","31.143378","121.805214","3.96","PUDONG, CH","FM-15","99999","V020","360,1,V,0020,1","99999,9,9,Y","009900,5,9,9","+0070,1","-0040,1","99999,9",,,,,,"10260,1,99999,9",,,,"MET061METAR ZSPD 120330Z 36002MPS 250V040 CAVOK 07/M04 Q1026 NOSIG="
"58321199999","2022-01-12T04:00:00","4","31.143378","121.805214","3.96","PUDONG, CH","FM-15","99999","V020","999,9,V,0020,1","99999,9,9,Y","009900,5,9,9","+0070,1","-0040,1","99999,9",,,,,,"10250,1,99999,9",,,,"MET053METAR ZSPD 120400Z VRB02MPS CAVOK 07/M04 Q1025 NOSIG="
"58321199999","2022-01-12T04:30:00","4","31.143378","121.805214","3.96","PUDONG, CH","FM-15","99999","V020","999,9,V,0020,1","99999,9,9,Y","009900,5,9,9","+0080,1","-0040,1","99999,9",,,,,,"10250,1,99999,9",,,,"MET053METAR ZSPD 120430Z VRB02MPS CAVOK 08/M04 Q1025 NOSIG="
"58321199999","2022-01-12T05:00:00","4","31.143378","121.805214","3.96","PUDONG, CH","FM-15","99999","V020","290,1,V,0020,1","99999,9,9,Y","009900,5,9,9","+0070,1","-0050,1","99999,9",,,,,,"10240,1,99999,9",,,,"MET061METAR ZSPD 120500Z 29002MPS 260V360 CAVOK 07/M05 Q1024 NOSIG="
"58321199999","2022-01-12T05:30:00","4","31.143378","121.805214","3.96","PUDONG, CH","FM-15","99999","V020","060,1,V,0020,1","99999,9,9,Y","009900,5,9,9","+0080,1","-0040,1","99999,9",,,,,,"10240,1,99999,9",,,,"MET061METAR ZSPD 120530Z 06002MPS 030V110 CAVOK 08/M04 Q1024 NOSIG="
"58321199999","2022-01-12T06:00:00","4","31.143378","121.805214","3.96","PUDONG, CH","FM-15","99999","V020","090,1,V,0030,1","99999,9,9,Y","009900,5,9,9","+0080,1","-0050,1","99999,9",,,,,,"10240,1,99999,9",,,,"MET061METAR ZSPD 120600Z 09003MPS 060V160 CAVOK 08/M05 Q1024 NOSIG="
"58321199999","2022-01-12T06:30:00","4","31.143378","121.805214","3.96","PUDONG, CH","FM-15","99999","V020","200,1,V,0020,1","99999,9,9,Y","009900,5,9,9","+0080,1","-0040,1","99999,9",,,,,,"10230,1,99999,9",,,,"MET061METAR ZSPD 120630Z 20002MPS 120V280 CAVOK 08/M04 Q1023 NOSIG="
"58321199999","2022-01-12T07:00:00","4","31.143378","121.805214","3.96","PUDONG, CH","FM-15","99999","V020","160,1,V,0040,1","99999,9,9,Y","009900,5,9,9","+0080,1","-0050,1","99999,9",,,,,,"10230,1,99999,9",,,,"MET061METAR ZSPD 120700Z 16004MPS 130V190 CAVOK 08/M05 Q1023 NOSIG="
"58321199999","2022-01-12T07:30:00","4","31.143378","121.805214","3.96","PUDONG, CH","FM-15","99999","V020","120,1,V,0040,1","99999,9,9,Y","009900,5,9,9","+0080,1","-0040,1","99999,9",,,,,,"10230,1,99999,9",,,,"MET061METAR ZSPD 120730Z 12004MPS 090V160 CAVOK 08/M04 Q1023 NOSIG="
"58321199999","2022-01-12T08:00:00","4","31.143378","121.805214","3.96","PUDONG, CH","FM-15","99999","V020","110,1,N,0040,1","99999,9,9,Y","009900,5,9,9","+0070,1","-0010,1","99999,9",,,,,,"10230,1,99999,9",,,,"MET053METAR ZSPD 120800Z 11004MPS CAVOK 07/M01 Q1023 NOSIG="
"58321199999","2022-01-12T08:30:00","4","31.143378","121.805214","3.96","PUDONG, CH","FM-15","99999","V020","110,1,N,0040,1","99999,9,9,Y","009900,5,9,9","+0070,1","-0010,1","99999,9",,,,,,"10230,1,99999,9",,,,"MET053METAR ZSPD 120830Z 11004MPS CAVOK 07/M01 Q1023 NOSIG="
"58321199999","2022-01-12T09:00:00","4","31.143378","121.805214","3.96","PUDONG, CH","FM-15","99999","V020","110,1,V,0020,1","99999,9,9,Y","009900,5,9,9","+0060,1","-0010,1","99999,9",,,,,,"10230,1,99999,9",,,,"MET061METAR ZSPD 120900Z 11002MPS 090V150 CAVOK 06/M01 Q1023 NOSIG="
"58321199999","2022-01-12T09:30:00","4","31.143378","121.805214","3.96","PUDONG, CH","FM-15","99999","V020","160,1,N,0030,1","99999,9,9,Y","009900,5,9,9","+0030,1","-0020,1","99999,9",,,,,,"10230,1,99999,9",,,,"MET053METAR ZSPD 120930Z 16003MPS CAVOK 03/M02 Q1023 NOSIG="
"58321199999","2022-01-12T10:00:00","4","31.143378","121.805214","3.96","PUDONG, CH","FM-15","99999","V020","150,1,V,0030,1","99999,9,9,Y","009900,5,9,9","+0040,1","-0020,1","99999,9",,,,,,"10240,1,99999,9",,,,"MET061METAR ZSPD 121000Z 15003MPS 090V170 CAVOK 04/M02 Q1024 NOSIG="
"58321199999","2022-01-12T10:30:00","4","31.143378","121.805214","3.96","PUDONG, CH","FM-15","99999","V020","150,1,N,0020,1","99999,9,9,Y","009900,5,9,9","+0040,1","-0020,1","99999,9",,,,,,"10240,1,99999,9",,,,"MET053METAR ZSPD 121030Z 15002MPS CAVOK 04/M02 Q1024 NOSIG="
"58321199999","2022-01-12T11:00:00","4","31.143378","121.805214","3.96","PUDONG, CH","FM-15","99999","V020","160,1,N,0020,1","99999,9,9,Y","009900,5,9,9","+0040,1","-0020,1","99999,9",,,,,,"10240,1,99999,9",,,,"MET053METAR ZSPD 121100Z 16002MPS CAVOK 04/M02 Q1024 NOSIG="
"58321199999","2022-01-12T11:30:00","4","31.143378","121.805214","3.96","PUDONG, CH","FM-15","99999","V020","180,1,N,0030,1","99999,9,9,Y","009900,5,9,9","+0000,1","-0030,1","99999,9",,,,,,"10240,1,99999,9",,,,"MET053METAR ZSPD 121130Z 18003MPS CAVOK 00/M03 Q1024 NOSIG="
"58321199999","2022-01-12T12:00:00","4","31.143378","121.805214","3.96","PUDONG, CH","FM-15","99999","V020","190,1,N,0040,1","99999,9,9,Y","009900,5,9,9","+0020,1","-0010,1","99999,9",,,,,,"10240,1,99999,9",,,,"MET053METAR ZSPD 121200Z 19004MPS CAVOK 02/M01 Q1024 NOSIG="
"58321199999","2022-01-12T12:30:00","4","31.143378","121.805214","3.96","PUDONG, CH","FM-15","99999","V020","200,1,N,0020,1","99999,9,9,Y","009900,5,9,9","+0020,1","-0020,1","99999,9",,,,,,"10240,1,99999,9",,,,"MET053METAR ZSPD 121230Z 20002MPS CAVOK 02/M02 Q1024 NOSIG="
"58321199999","2022-01-12T13:00:00","4","31.143378","121.805214","3.96","PUDONG, CH","FM-15","99999","V020","180,1,N,0010,1","99999,9,9,Y","009900,5,9,9","+0030,1","-0020,1","99999,9",,,,,,"10240,1,99999,9",,,,"MET053METAR ZSPD 121300Z 18001MPS CAVOK 03/M02 Q1024 NOSIG="
"58321199999","2022-01-12T13:30:00","4","31.143378","121.805214","3.96","PUDONG, CH","FM-15","99999","V020","999,9,C,0000,1","99999,9,9,Y","009900,5,9,9","+0010,1","-0030,1","99999,9",,,,,,"10240,1,99999,9",,,,"MET053METAR ZSPD 121330Z 00000MPS CAVOK 01/M03 Q1024 NOSIG="
"58321199999","2022-01-12T14:00:00","4","31.143378","121.805214","3.96","PUDONG, CH","FM-15","99999","V020","999,9,V,0010,1","99999,9,9,Y","009900,5,9,9","+0010,1","-0030,1","99999,9",,,,,,"10240,1,99999,9",,,,"MET053METAR ZSPD 121400Z VRB01MPS CAVOK 01/M03 Q1024 NOSIG="
"58321199999","2022-01-12T14:30:00","4","31.143378","121.805214","3.96","PUDONG, CH","FM-15","99999","V020","190,1,N,0010,1","99999,9,9,Y","009900,5,9,9","+0000,1","-0020,1","99999,9",,,,,,"10240,1,99999,9",,,,"MET053METAR ZSPD 121430Z 19001MPS CAVOK 00/M02 Q1024 NOSIG="
"58321199999","2022-01-12T15:00:00","4","31.143378","121.805214","3.96","PUDONG, CH","FM-15","99999","V020","290,1,N,0020,1","99999,9,9,Y","009900,5,9,9","+0000,1","-0030,1","99999,9",,,,,,"10240,1,99999,9",,,,"MET053METAR ZSPD 121500Z 29002MPS CAVOK 00/M03 Q1024 NOSIG="
"58321199999","2022-01-12T15:30:00","4","31.143378","121.805214","3.96","PUDONG, CH","FM-15","99999","V020","230,1,N,0020,1","99999,9,9,Y","009900,5,9,9","+0010,1","-0030,1","99999,9",,,,,,"10240,1,99999,9",,,,"MET053METAR ZSPD 121530Z 23002MPS CAVOK 01/M03 Q1024 NOSIG="
"58321199999","2022-01-12T16:00:00","4","31.143378","121.805214","3.96","PUDONG, CH","FM-15","99999","V020","260,1,N,0010,1","99999,9,9,Y","009900,5,9,9","+0000,1","-0020,1","99999,9",,,,,,"10240,1,99999,9",,,,"MET053METAR ZSPD 121600Z 26001MPS CAVOK 00/M02 Q1024 NOSIG="
"58321199999","2022-01-12T16:30:00","4","31.143378","121.805214","3.96","PUDONG, CH","FM-15","99999","V020","250,1,N,0020,1","99999,9,9,Y","009900,5,9,9","+0000,1","-0030,1","99999,9",,,,,,"10240,1,99999,9",,,,"MET054METAR ZSPD 121630Z 25002MPS CAVOK M00/M03 Q1024 NOSIG="
"58321199999","2022-01-12T17:00:00","4","31.143378","121.805214","3.96","PUDONG, CH","FM-15","99999","V020","250,1,N,0020,1","99999,9,9,Y","009900,5,9,9","+0020,1","-0020,1","99999,9",,,,,,"10240,1,99999,9",,,,"MET053METAR ZSPD 121700Z 25002MPS CAVOK 02/M02 Q1024 NOSIG="
"58321199999","2022-01-12T17:30:00","4","31.143378","121.805214","3.96","PUDONG, CH","FM-15","99999","V020","260,1,N,0030,1","99999,9,9,Y","009900,5,9,9","+0020,1","-0020,1","99999,9",,,,,,"10240,1,99999,9",,,,"MET053METAR ZSPD 121730Z 26003MPS CAVOK 02/M02 Q1024 NOSIG="
"58321199999","2022-01-12T18:00:00","4","31.143378","121.805214","3.96","PUDONG, CH","FM-15","99999","V020","260,1,N,0030,1","99999,9,9,Y","009900,5,9,9","+0030,1","-0030,1","99999,9",,,,,,"10240,1,99999,9",,,,"MET053METAR ZSPD 121800Z 26003MPS CAVOK 03/M03 Q1024 NOSIG="
"58321199999","2022-01-12T18:30:00","4","31.143378","121.805214","3.96","PUDONG, CH","FM-15","99999","V020","280,1,N,0030,1","99999,9,9,Y","009900,5,9,9","+0020,1","-0030,1","99999,9",,,,,,"10240,1,99999,9",,,,"MET053METAR ZSPD 121830Z 28003MPS CAVOK 02/M03 Q1024 NOSIG="
"58321199999","2022-01-12T19:00:00","4","31.143378","121.805214","3.96","PUDONG, CH","FM-15","99999","V020","270,1,N,0030,1","99999,9,9,Y","009900,5,9,9","+0020,1","-0030,1","99999,9",,,,,,"10230,1,99999,9",,,,"MET053METAR ZSPD 121900Z 27003MPS CAVOK 02/M03 Q1023 NOSIG="
"58321199999","2022-01-12T19:30:00","4","31.143378","121.805214","3.96","PUDONG, CH","FM-15","99999","V020","260,1,N,0040,1","99999,9,9,Y","009900,5,9,9","+0030,1","-0030,1","99999,9",,,,,,"10240,1,99999,9",,,,"MET053METAR ZSPD 121930Z 26004MPS CAVOK 03/M03 Q1024 NOSIG="
"58321199999","2022-01-12T20:00:00","4","31.143378","121.805214","3.96","PUDONG, CH","FM-15","99999","V020","260,1,N,0040,1","99999,9,9,Y","009900,5,9,9","+0030,1","-0030,1","99999,9",,,,,,"10230,1,99999,9",,,,"MET053METAR ZSPD 122000Z 26004MPS CAVOK 03/M03 Q1023 NOSIG="
"58321199999","2022-01-12T20:30:00","4","31.143378","121.805214","3.96","PUDONG, CH","FM-15","99999","V020","260,1,N,0040,1","99999,9,9,Y","009900,5,9,9","+0030,1","-0030,1","99999,9",,,,,,"10240,1,99999,9",,,,"MET053METAR ZSPD 122030Z 26004MPS CAVOK 03/M03 Q1024 NOSIG="
"58321199999","2022-01-12T21:00:00","4","31.143378","121.805214","3.96","PUDONG, CH","FM-15","99999","V020","270,1,N,0040,1","99999,9,9,N","009999,1,9,9","+0030,1","-0030,1","99999,9",,"02,1,+01219,1,99,9",,"9,AGL   ,+99999,+99999","99,99,9,02,1,99,9,01219,1,99,9,99,9","10240,1,99999,9",,,,"MET059METAR ZSPD 122100Z 27004MPS 9999 FEW040 03/M03 Q1024 NOSIG="
"58321199999","2022-01-12T21:30:00","4","31.143378","121.805214","3.96","PUDONG, CH","FM-15","99999","V020","260,1,N,0040,1","99999,9,9,N","009999,1,9,9","+0030,1","-0030,1","99999,9",,"04,1,+01219,1,99,9",,"9,AGL   ,+99999,+99999","99,99,9,04,1,99,9,01219,1,99,9,99,9","10240,1,99999,9",,,,"MET059METAR ZSPD 122130Z 26004MPS 9999 SCT040 03/M03 Q1024 NOSIG="
"58321199999","2022-01-12T22:00:00","4","31.143378","121.805214","3.96","PUDONG, CH","FM-15","99999","V020","270,1,V,0040,1","99999,9,9,N","009999,1,9,9","+0030,1","-0020,1","99999,9",,"04,1,+01219,1,99,9",,"9,AGL   ,+99999,+99999","99,99,9,04,1,99,9,01219,1,99,9,99,9","10250,1,99999,9",,,,"MET067METAR ZSPD 122200Z 27004MPS 220V290 9999 SCT040 03/M02 Q1025 NOSIG="
"58321199999","2022-01-12T22:30:00","4","31.143378","121.805214","3.96","PUDONG, CH","FM-15","99999","V020","300,1,N,0040,1","99999,9,9,N","006000,1,9,9","+0040,1","-0010,1","99999,9",,"04,1,+01219,1,99,9",,"9,AGL   ,+99999,+99999","99,99,9,04,1,99,9,01219,1,99,9,99,9","10250,1,99999,9",,,,"MET059METAR ZSPD 122230Z 30004MPS 6000 SCT040 04/M01 Q1025 NOSIG="
"58321199999","2022-01-12T23:00:00","4","31.143378","121.805214","3.96","PUDONG, CH","FM-15","99999","V020","340,1,N,0060,1","99999,9,9,N","004000,1,9,9","+0030,1","-0010,1","99999,9",,"04,1,+01006,1,99,9",,"9,AGL   ,+99999,+99999","99,99,9,04,1,99,9,01006,1,99,9,99,9","10260,1,99999,9","10,1",,,"MET062METAR ZSPD 122300Z 34006MPS 4000 BR SCT033 03/M01 Q1026 NOSIG="
"58321199999","2022-01-12T23:30:00","4","31.143378","121.805214","3.96","PUDONG, CH","FM-15","99999","V020","340,1,N,0060,1","00610,1,C,N","002800,1,9,9","+0040,1","+0010,1","99999,9",,"07,1,+00610,1,99,9",,"9,AGL   ,+99999,+99999","99,99,9,07,1,99,9,00610,1,99,9,99,9","10260,1,99999,9","10,1",,,"MET061METAR ZSPD 122330Z 34006MPS 2800 BR BKN020 04/01 Q1026 NOSIG="
"58321199999","2022-01-13T00:00:00","4","31.143378","121.805214","3.96","PUDONG, CH","FM-15","99999","V020","340,1,N,0090,1","00610,1,C,N","002800,1,9,9","+0050,1","+0010,1","99999,9",,"07,1,+00610,1,99,9",,"9,AGL   ,+99999,+99999","99,99,9,07,1,99,9,00610,1,99,9,99,9","10270,1,99999,9","10,1",,,"MET061METAR ZSPD 130000Z 34009MPS 2800 BR BKN020 05/01 Q1027 NOSIG="
"58321199999","2022-01-13T00:30:00","4","31.143378","121.805214","3.96","PUDONG, CH","FM-15","99999","V020","330,1,N,0090,1","00610,1,C,N","003000,1,9,9","+0050,1","+0000,1","99999,9",,"07,1,+00610,1,99,9",,"9,AGL   ,+99999,+99999","99,99,9,07,1,99,9,00610,1,99,9,99,9","10270,1,99999,9","10,1",,,"MET061METAR ZSPD 130030Z 33009MPS 3000 BR BKN020 05/00 Q1027 NOSIG="
"58321199999","2022-01-13T01:00:00","4","31.143378","121.805214","3.96","PUDONG, CH","FM-15","99999","V020","340,1,N,0100,1","00610,1,C,N","003500,1,9,9","+0050,1","+0000,1","99999,9",,"07,1,+00610,1,99,9",,"9,AGL   ,+99999,+99999","99,99,9,07,1,99,9,00610,1,99,9,99,9","10280,1,99999,9","10,1",,,"MET062METAR ZSPD 130100Z 34010MPS 3500 BR BKN020 05/M00 Q1028 NOSIG="
"58321199999","2022-01-13T01:30:00","4","31.143378","121.805214","3.96","PUDONG, CH","FM-15","99999","V020","340,1,N,0090,1","00792,1,C,N","004000,1,9,9","+0050,1","+0000,1","99999,9",,"07,1,+00792,1,99,9",,"9,AGL   ,+99999,+99999","99,99,9,07,1,99,9,00792,1,99,9,99,9","10280,1,99999,9","05,1",,,"MET062METAR ZSPD 130130Z 34009MPS 4000 HZ BKN026 05/M00 Q1028 NOSIG="
"58321199999","2022-01-13T02:00:00","4","31.143378","121.805214","3.96","PUDONG, CH","FM-15","99999","V020","340,1,N,0100,1","00792,1,C,N","004000,1,9,9","+0050,1","-0010,1","99999,9",,"07,1,+00792,1,99,9",,"9,AGL   ,+99999,+99999","99,99,9,07,1,99,9,00792,1,99,9,99,9","10280,1,99999,9","05,1",,,"MET062METAR ZSPD 130200Z 34010MPS 4000 HZ BKN026 05/M01 Q1028 NOSIG="
"58321199999","2022-01-13T02:30:00","4","31.143378","121.805214","3.96","PUDONG, CH","FM-15","99999","V020","340,1,N,0090,1","00792,1,C,N","004500,1,9,9","+0060,1","-0010,1","99999,9",,"07,1,+00792,1,99,9",,"9,AGL   ,+99999,+99999","99,99,9,07,1,99,9,00792,1,99,9,99,9","10290,1,99999,9","05,1",,,"MET062METAR ZSPD 130230Z 34009MPS 4500 HZ BKN026 06/M01 Q1029 NOSIG="
"58321199999","2022-01-13T03:00:00","4","31.143378","121.805214","3.96","PUDONG, CH","FM-15","99999","V020","330,1,N,0090,1","99999,9,9,N","005000,1,9,9","+0060,1","-0010,1","99999,9",,"04,1,+01219,1,99,9",,"9,AGL   ,+99999,+99999","99,99,9,04,1,99,9,01219,1,99,9,99,9","10290,1,99999,9","05,1",,,"MET062METAR ZSPD 130300Z 33009MPS 5000 HZ SCT040 06/M01 Q1029 NOSIG="
"58321199999","2022-01-13T03:30:00","4","31.143378","121.805214","3.96","PUDONG, CH","FM-15","99999","V020","340,1,N,0090,1","99999,9,9,N","007000,1,9,9","+0060,1","-0020,1","99999,9",,"04,1,+01219,1,99,9",,"9,AGL   ,+99999,+99999","99,99,9,04,1,99,9,01219,1,99,9,99,9","10280,1,99999,9",,,,"MET059METAR ZSPD 130330Z 34009MPS 7000 SCT040 06/M02 Q1028 NOSIG="
"58321199999","2022-01-13T04:00:00","4","31.143378","121.805214","3.96","PUDONG, CH","FM-15","99999","V020","340,1,V,0080,1","99999,9,9,N","008000,1,9,9","+0060,1","-0020,1","99999,9",,"04,1,+01006,1,99,9",,"9,AGL   ,+99999,+99999","99,99,9,04,1,99,9,01006,1,99,9,99,9","10280,1,99999,9",,,,"MET067METAR ZSPD 130400Z 34008MPS 300V360 8000 SCT033 06/M02 Q1028 NOSIG="
"58321199999","2022-01-13T04:30:00","4","31.143378","121.805214","3.96","PUDONG, CH","FM-15","99999","V020","340,1,N,0090,1","99999,9,9,N","009999,1,9,9","+0060,1","-0030,1","99999,9",,"04,1,+01006,1,99,9",,"9,AGL   ,+99999,+99999","99,99,9,04,1,99,9,01006,1,99,9,99,9","10280,1,99999,9",,,,"MET059METAR ZSPD 130430Z 34009MPS 9999 SCT033 06/M03 Q1028 NOSIG="
"58321199999","2022-01-13T05:00:00","4","31.143378","121.805214","3.96","PUDONG, CH","FM-15","99999","V020","330,1,N,0080,1","99999,9,9,N","009999,1,9,9","+0070,1","-0030,1","99999,9",,"04,1,+01219,1,99,9",,"9,AGL   ,+99999,+99999","99,99,9,04,1,99,9,01219,1,99,9,99,9","10280,1,99999,9",,,,"MET059METAR ZSPD 130500Z 33008MPS 9999 SCT040 07/M03 Q1028 NOSIG="
"58321199999","2022-01-13T05:30:00","4","31.143378","121.805214","3.96","PUDONG, CH","FM-15","99999","V020","340,1,N,0080,1","99999,9,9,N","009999,1,9,9","+0060,1","-0040,1","99999,9",,"04,1,+01219,1,99,9",,"9,AGL   ,+99999,+99999","99,99,9,04,1,99,9,01219,1,99,9,99,9","10280,1,99999,9",,,,"MET059METAR ZSPD 130530Z 34008MPS 9999 SCT040 06/M04 Q1028 NOSIG="
"58321199999","2022-01-13T06:00:00","4","31.143378","121.805214","3.96","PUDONG, CH","FM-15","99999","V020","330,1,V,0080,1","99999,9,9,N","009999,1,9,9","+0070,1","-0040,1","99999,9",,"04,1,+01219,1,99,9",,"9,AGL   ,+99999,+99999","99,99,9,04,1,99,9,01219,1,99,9,99,9","10280,1,99999,9",,,"0130,1","MET070METAR ZSPD 130600Z 33008G13MPS 300V360 9999 SCT040 07/M04 Q1028 NOSIG="
"58321199999","2022-01-13T06:30:00","4","31.143378","121.805214","3.96","PUDONG, CH","FM-15","99999","V020","330,1,N,0080,1","99999,9,9,N","009999,1,9,9","+0060,1","-0040,1","99999,9",,"04,1,+01219,1,99,9",,"9,AGL   ,+99999,+99999","99,99,9,04,1,99,9,01219,1,99,9,99,9","10280,1,99999,9",,,,"MET059METAR ZSPD 130630Z 33008MPS 9999 SCT040 06/M04 Q1028 NOSIG="
"58321199999","2022-01-13T07:00:00","4","31.143378","121.805214","3.96","PUDONG, CH","FM-15","99999","V020","320,1,N,0080,1","99999,9,9,N","009999,1,9,9","+0060,1","-0040,1","99999,9",,"04,1,+01219,1,99,9",,"9,AGL   ,+99999,+99999","99,99,9,04,1,99,9,01219,1,99,9,99,9","10280,1,99999,9",,,,"MET059METAR ZSPD 130700Z 32008MPS 9999 SCT040 06/M04 Q1028 NOSIG="
"58321199999","2022-01-13T07:30:00","4","31.143378","121.805214","3.96","PUDONG, CH","FM-15","99999","V020","350,1,N,0080,1","99999,9,9,N","009999,1,9,9","+0050,1","-0040,1","99999,9",,"04,1,+01219,1,99,9",,"9,AGL   ,+99999,+99999","99,99,9,04,1,99,9,01219,1,99,9,99,9","10270,1,99999,9",,,,"MET059METAR ZSPD 130730Z 35008MPS 9999 SCT040 05/M04 Q1027 NOSIG="
"58321199999","2022-01-13T08:00:00","4","31.143378","121.805214","3.96","PUDONG, CH","FM-15","99999","V020","340,1,N,0070,1","99999,9,9,N","009999,1,9,9","+0050,1","-0040,1","99999,9",,"04,1,+01219,1,99,9",,"9,AGL   ,+99999,+99999","99,99,9,04,1,99,9,01219,1,99,9,99,9","10280,1,99999,9",,,,"MET059METAR ZSPD 130800Z 34007MPS 9999 SCT040 05/M04 Q1028 NOSIG="
"58321199999","2022-01-13T08:30:00","4","31.143378","121.805214","3.96","PUDONG, CH","FM-15","99999","V020","350,1,N,0070,1","99999,9,9,N","009999,1,9,9","+0040,1","-0050,1","99999,9",,"04,1,+01219,1,99,9",,"9,AGL   ,+99999,+99999","99,99,9,04,1,99,9,01219,1,99,9,99,9","10280,1,99999,9",,,,"MET059METAR ZSPD 130830Z 35007MPS 9999 SCT040 04/M05 Q1028 NOSIG="
"58321199999","2022-01-13T09:00:00","4","31.143378","121.805214","3.96","PUDONG, CH","FM-15","99999","V020","350,1,N,0060,1","99999,9,9,N","009999,1,9,9","+0040,1","-0040,1","99999,9",,"04,1,+01219,1,99,9",,"9,AGL   ,+99999,+99999","99,99,9,04,1,99,9,01219,1,99,9,99,9","10280,1,99999,9",,,,"MET059METAR ZSPD 130900Z 35006MPS 9999 SCT040 04/M04 Q1028 NOSIG="
"58321199999","2022-01-13T09:30:00","4","31.143378","121.805214","3.96","PUDONG, CH","FM-15","99999","V020","350,1,N,0060,1","99999,9,9,N","009999,1,9,9","+0040,1","-0040,1","99999,9",,"04,1,+01219,1,99,9",,"9,AGL   ,+99999,+99999","99,99,9,04,1,99,9,01219,1,99,9,99,9","10280,1,99999,9",,,,"MET059METAR ZSPD 130930Z 35006MPS 9999 SCT040 04/M04 Q1028 NOSIG="
"58321199999","2022-01-13T10:00:00","4","31.143378","121.805214","3.96","PUDONG, CH","FM-15","99999","V020","360,1,N,0050,1","01219,1,C,N","009999,1,9,9","+0040,1","-0040,1","99999,9",,"07,1,+01219,1,99,9",,"9,AGL   ,+99999,+99999","99,99,9,07,1,99,9,01219,1,99,9,99,9","10290,1,99999,9",,,,"MET059METAR ZSPD 131000Z 36005MPS 9999 BKN040 04/M04 Q1029 NOSIG="
"58321199999","2022-01-13T10:30:00","4","31.143378","121.805214","3.96","PUDONG, CH","FM-15","99999","V020","360,1,N,0060,1","01219,1,C,N","009999,1,9,9","+0030,1","-0040,1","99999,9",,"07,1,+01219,1,99,9",,"9,AGL   ,+99999,+99999","99,99,9,07,1,99,9,01219,1,99,9,99,9","10290,1,99999,9",,,,"MET059METAR ZSPD 131030Z 36006MPS 9999 BKN040 03/M04 Q1029 NOSIG="
"58321199999","2022-01-13T11:00:00","4","31.143378","121.805214","3.96","PUDONG, CH","FM-15","99999","V020","360,1,N,0060,1","01219,1,C,N","009999,1,9,9","+0030,1","-0050,1","99999,9",,"07,1,+01219,1,99,9",,"9,AGL   ,+99999,+99999","99,99,9,07,1,99,9,01219,1,99,9,99,9","10290,1,99999,9",,,,"MET059METAR ZSPD 131100Z 36006MPS 9999 BKN040 03/M05 Q1029 NOSIG="
"58321199999","2022-01-13T11:30:00","4","31.143378","121.805214","3.96","PUDONG, CH","FM-15","99999","V020","350,1,N,0060,1","99999,9,9,N","009999,1,9,9","+0030,1","-0040,1","99999,9",,"04,1,+01219,1,99,9",,"9,AGL   ,+99999,+99999","99,99,9,04,1,99,9,01219,1,99,9,99,9","10290,1,99999,9",,,,"MET059METAR ZSPD 131130Z 35006MPS 9999 SCT040 03/M04 Q1029 NOSIG="
"58321199999","2022-01-13T12:00:00","4","31.143378","121.805214","3.96","PUDONG, CH","FM-15","99999","V020","350,1,N,0050,1","99999,9,9,Y","009900,5,9,9","+0020,1","-0050,1","99999,9",,,,,,"10300,1,99999,9",,,,"MET053METAR ZSPD 131200Z 35005MPS CAVOK 02/M05 Q1030 NOSIG="
"58321199999","2022-01-13T12:30:00","4","31.143378","121.805214","3.96","PUDONG, CH","FM-15","99999","V020","350,1,N,0060,1","99999,9,9,Y","009900,5,9,9","+0020,1","-0050,1","99999,9",,,,,,"10300,1,99999,9",,,,"MET053METAR ZSPD 131230Z 35006MPS CAVOK 02/M05 Q1030 NOSIG="
"58321199999","2022-01-13T13:00:00","4","31.143378","121.805214","3.96","PUDONG, CH","FM-15","99999","V020","350,1,N,0050,1","99999,9,9,Y","009900,5,9,9","+0020,1","-0050,1","99999,9",,,,,,"10300,1,99999,9",,,,"MET053METAR ZSPD 131300Z 35005MPS CAVOK 02/M05 Q1030 NOSIG="
"58321199999","2022-01-13T13:30:00","4","31.143378","121.805214","3.96","PUDONG, CH","FM-15","99999","V020","350,1,N,0040,1","99999,9,9,Y","009900,5,9,9","+0010,1","-0050,1","99999,9",,,,,,"10300,1,99999,9",,,,"MET053METAR ZSPD 131330Z 35004MPS CAVOK 01/M05 Q1030 NOSIG="
"58321199999","2022-01-13T14:00:00","4","31.143378","121.805214","3.96","PUDONG, CH","FM-15","99999","V020","340,1,N,0040,1","99999,9,9,Y","009900,5,9,9","+0000,1","-0050,1","99999,9",,,,,,"10300,1,99999,9",,,,"MET053METAR ZSPD 131400Z 34004MPS CAVOK 00/M05 Q1030 NOSIG="
"58321199999","2022-01-13T14:30:00","4","31.143378","121.805214","3.96","PUDONG, CH","FM-15","99999","V020","330,1,N,0040,1","99999,9,9,Y","009900,5,9,9","+0000,1","-0040,1","99999,9",,,,,,"10300,1,99999,9",,,,"MET054METAR ZSPD 131430Z 33004MPS CAVOK M00/M04 Q1030 NOSIG="
"58321199999","2022-01-13T15:00:00","4","31.143378","121.805214","3.96","PUDONG, CH","FM-15","99999","V020","330,1,N,0040,1","99999,9,9,Y","009900,5,9,9","+0000,1","-0040,1","99999,9",,,,,,"10300,1,99999,9",,,,"MET054METAR ZSPD 131500Z 33004MPS CAVOK M00/M04 Q1030 NOSIG="
"58321199999","2022-01-13T15:30:00","4","31.143378","121.805214","3.96","PUDONG, CH","FM-15","99999","V020","310,1,N,0030,1","99999,9,9,Y","009900,5,9,9","+0000,1","-0050,1","99999,9",,,,,,"10300,1,99999,9",,,,"MET053METAR ZSPD 131530Z 31003MPS CAVOK 00/M05 Q1030 NOSIG="
"58321199999","2022-01-13T16:00:00","4","31.143378","121.805214","3.96","PUDONG, CH","FM-15","99999","V020","310,1,N,0030,1","99999,9,9,Y","009900,5,9,9","+0010,1","-0050,1","99999,9",,,,,,"10300,1,99999,9",,,,"MET053METAR ZSPD 131600Z 31003MPS CAVOK 01/M05 Q1030 NOSIG="
"58321199999","2022-01-13T16:30:00","4","31.143378","121.805214","3.96","PUDONG, CH","FM-15","99999","V020","330,1,N,0030,1","99999,9,9,Y","009900,5,9,9","-0010,1","-0050,1","99999,9",,,,,,"10300,1,99999,9",,,,"MET054METAR ZSPD 131630Z 33003MPS CAVOK M01/M05 Q1030 NOSIG="
"58321199999","2022-01-13T17:00:00","4","31.143378","121.805214","3.96","PUDONG, CH","FM-15","99999","V020","330,1,N,0030,1","99999,9,9,Y","009900,5,9,9","-0010,1","-0050,1","99999,9",,,,,,"10300,1,99999,9",,,,"MET054METAR ZSPD 131700Z 33003MPS CAVOK M01/M05 Q1030 NOSIG="
"58321199999","2022-01-13T17:30:00","4","31.143378","121.805214","3.96","PUDONG, CH","FM-15","99999","V020","340,1,N,0040,1","99999,9,9,Y","009900,5,9,9","-0020,1","-0050,1","99999,9",,,,,,"10300,1,99999,9",,,,"MET054METAR ZSPD 131730Z 34004MPS CAVOK M02/M05 Q1030 NOSIG="
"58321199999","2022-01-13T18:00:00","4","31.143378","121.805214","3.96","PUDONG, CH","FM-15","99999","V020","340,1,N,0040,1","99999,9,9,Y","009900,5,9,9","-0010,1","-0040,1","99999,9",,,,,,"10300,1,99999,9",,,,"MET054METAR ZSPD 131800Z 34004MPS CAVOK M01/M04 Q1030 NOSIG="
"58321199999","2022-01-13T18:30:00","4","31.143378","121.805214","3.96","PUDONG, CH","FM-15","99999","V020","340,1,N,0040,1","99999,9,9,Y","009900,5,9,9","-0010,1","-0050,1","99999,9",,,,,,"10290,1,99999,9",,,,"MET054METAR ZSPD 131830Z 34004MPS CAVOK M01/M05 Q1029 NOSIG="
"58321199999","2022-01-13T19:00:00","4","31.143378","121.805214","3.96","PUDONG, CH","FM-15","99999","V020","350,1,N,0040,1","99999,9,9,Y","009900,5,9,9","-0010,1","-0050,1","99999,9",,,,,,"10290,1,99999,9",,,,"MET054METAR ZSPD 131900Z 35004MPS CAVOK M01/M05 Q1029 NOSIG="
"58321199999","2022-01-13T19:30:00","4","31.143378","121.805214","3.96","PUDONG, CH","FM-15","99999","V020","010,1,N,0040,1","99999,9,9,Y","009900,5,9,9","+0000,1","-0050,1","99999,9",,,,,,"10290,1,99999,9",,,,"MET054METAR ZSPD 131930Z 01004MPS CAVOK M00/M05 Q1029 NOSIG="
"58321199999","2022-01-13T20:00:00","4","31.143378","121.805214","3.96","PUDONG, CH","FM-15","99999","V020","020,1,N,0040,1","99999,9,9,Y","009900,5,9,9","+0010,1","-0060,1","99999,9",,,,,,"10290,1,99999,9",,,,"MET053METAR ZSPD 132000Z 02004MPS CAVOK 01/M06 Q1029 NOSIG="
"58321199999","2022-01-13T20:30:00","4","31.143378","121.805214","3.96","PUDONG, CH","FM-15","99999","V020","010,1,N,0040,1","99999,9,9,Y","009900,5,9,9","+0010,1","-0050,1","99999,9",,,,,,"10280,1,99999,9",,,,"MET053METAR ZSPD 132030Z 01004MPS CAVOK 01/M05 Q1028 NOSIG="
"58321199999","2022-01-13T21:00:00","4","31.143378","121.805214","3.96","PUDONG, CH","FM-15","99999","V020","020,1,N,0040,1","99999,9,9,Y","009900,5,9,9","+0010,1","-0040,1","99999,9",,,,,,"10280,1,99999,9",,,,"MET053METAR ZSPD 132100Z 02004MPS CAVOK 01/M04 Q1028 NOSIG="
"58321199999","2022-01-13T21:30:00","4","31.143378","121.805214","3.96","PUDONG, CH","FM-15","99999","V020","020,1,N,0050,1","99999,9,9,Y","009900,5,9,9","+0010,1","-0040,1","99999,9",,,,,,"10280,1,99999,9",,,,"MET053METAR ZSPD 132130Z 02005MPS CAVOK 01/M04 Q1028 NOSIG="
