"STATION","DATE","SOURCE","LATITUDE","LONGITUDE","ELEVATION","NAME","REPORT_TYPE","CALL_SIGN","QUALITY_CONTROL","WND","CIG","VIS","TMP","DEW","SLP","ED1","GA1","GA2","GE1","GF1","MA1","MW1","MW2","OC1","REM"
"58367099999","2022-01-01T00:00:00","4","31.197875","121.336319","3.04","HONGQIAO INTERNATIONAL, CH","FM-15","99999","V020","110,1,V,0030,1","99999,9,9,Y","009900,5,9,9","+0080,1","+0010,1","99999,9",,,,,,"10300,1,99999,9",,,,"MET060METAR ZSSS 010000Z 11003MPS 070V130 CAVOK 08/01 Q1030 NOSIG="
"58367099999","2022-01-01T00:30:00","4","31.197875","121.336319","3.04","HONGQIAO INTERNATIONAL, CH","FM-15","99999","V020","120,1,V,0020,1","99999,9,9,Y","009900,5,9,9","+0080,1","+0010,1","99999,9",,,,,,"10300,1,99999,9",,,,"MET060METAR ZSSS 010030Z 12002MPS 080V150 CAVOK 08/01 Q1030 NOSIG="
"58367099999","2022-01-01T01:00:00","4","31.197875","121.336319","3.04","HONGQIAO INTERNATIONAL, CH","FM-15","99999","V020","110,1,V,0030,1","99999,9,9,Y","009900,5,9,9","+0090,1","+0010,1","99999,9",,,,,,"10300,1,99999,9",,,,"MET060METAR ZSSS 010100Z 11003MPS 070V150 CAVOK 09/01 Q1030 NOSIG="
"58367099999","2022-01-01T01:30:00","4","31.197875","121.336319","3.04","HONGQIAO INTERNATIONAL, CH","FM-15","99999","V020","130,1,V,0030,1","99999,9,9,Y","009900,5,9,9","+0090,1","+0010,1","99999,9",,,,,,"10300,1,99999,9",,,,"MET060METAR ZSSS 010130Z 13003MPS 100V160 CAVOK 09/01 Q1030 NOSIG="
"58367099999","2022-01-01T02:00:00","4","31.197875","121.336319","3.04","HONGQIAO INTERNATIONAL, CH","FM-15","99999","V020","140,1,N,0040,1","99999,9,9,Y","009900,5,9,9","+0100,1","+0020,1","99999,9",,,,,,"10300,1,99999,9",,,,"MET052METAR ZSSS 010200Z 14004MPS CAVOK 10/02 Q1030 NOSIG="
"58367099999","2022-01-01T02:30:00","4","31.197875","121.336319","3.04","HONGQIAO INTERNATIONAL, CH","FM-15","99999","V020","130,1,N,0050,1","99999,9,9,Y","009900,5,9,9","+0110,1","+0020,1","99999,9",,,,,,"10300,1,99999,9",,,,"MET052METAR ZSSS 010230Z 13005MPS CAVOK 11/02 Q1030 NOSIG="
"58367099999","2022-01-01T03:00:00","4","31.197875","121.336319","3.04","HONGQIAO INTERNATIONAL, CH","FM-15","99999","V020","150,1,N,0040,1","99999,9,9,Y","009900,5,9,9","+0100,1","+0020,1","99999,9",,,,,,"10290,1,99999,9",,,,"MET052METAR ZSSS 010300Z 15004MPS CAVOK 10/02 Q1029 NOSIG="
"58367099999","2022-01-01T03:30:00","4","31.197875","121.336319","3.04","HONGQIAO INTERNATIONAL, CH","FM-15","99999","V020","150,1,N,0050,1","99999,9,9,Y","009900,5,9,9","+0100,1","+0020,1","99999,9",,,,,,"10290,1,99999,9",,,,"MET052METAR ZSSS 010330Z 15005MPS CAVOK 10/02 Q1029 NOSIG="
"58367099999","2022-01-01T04:00:00","4","31.197875","121.336319","3.04","HONGQIAO INTERNATIONAL, CH","FM-15","99999","V020","180,1,N,0040,1","99999,9,9,Y","009900,5,9,9","+0100,1","+0020,1","99999,9",,,,,,"10280,1,99999,9",,,,"MET052METAR ZSSS 010400Z 18004MPS CAVOK 10/02 Q1028 NOSIG="
"58367099999","2022-01-01T04:30:00","4","31.197875","121.336319","3.04","HONGQIAO INTERNATIONAL, CH","FM-15","99999","V020","160,1,N,0040,1","99999,9,9,Y","009900,5,9,9","+0100,1","+0020,1","99999,9",,,,,,"10280,1,99999,9",,,,"MET052METAR ZSSS 010430Z 16004MPS CAVOK 10/02 Q1028 NOSIG="
"58367099999","2022-01-01T05:00:00","4","31.197875","121.336319","3.04","HONGQIAO INTERNATIONAL, CH","FM-15","99999","V020","160,1,N,0040,1","99999,9,9,Y","009900,5,9,9","+0100,1","+0020,1","99999,9",,,,,,"10270,1,99999,9",,,,"MET052METAR ZSSS 010500Z 16004MPS CAVOK 10/02 Q1027 NOSIG="
"58367099999","2022-01-01T05:30:00","4","31.197875","121.336319","3.04","HONGQIAO INTERNATIONAL, CH","FM-15","99999","V020","170,1,N,0040,1","99999,9,9,Y","009900,5,9,9","+0100,1","+0020,1","99999,9",,,,,,"10270,1,99999,9",,,,"MET052METAR ZSSS 010530Z 17004MPS CAVOK 10/02 Q1027 NOSIG="
"58367099999","2022-01-01T06:00:00","4","31.197875","121.336319","3.04","HONGQIAO INTERNATIONAL, CH","FM-15","99999","V020","170,1,N,0040,1","99999,9,9,Y","009900,5,9,9","+0100,1","+0030,1","99999,9",,,,,,"10270,1,99999,9",,,,"MET052METAR ZSSS 010600Z 17004MPS CAVOK 10/03 Q1027 NOSIG="
"58367099999","2022-01-01T06:30:00","4","31.197875","121.336319","3.04","HONGQIAO INTERNATIONAL, CH","FM-15","99999","V020","160,1,N,0040,1","99999,9,9,Y","009900,5,9,9","+0100,1","+0030,1","99999,9",,,,,,"10270,1,99999,9",,,,"MET052METAR ZSSS 010630Z 16004MPS CAVOK 10/03 Q1027 NOSIG="
"58367099999","2022-01-01T07:00:00","4","31.197875","121.336319","3.04","HONGQIAO INTERNATIONAL, CH","FM-15","99999","V020","160,1,N,0030,1","99999,9,9,Y","009900,5,9,9","+0100,1","+0030,1","99999,9",,,,,,"10270,1,99999,9",,,,"MET052METAR ZSSS 010700Z 16003MPS CAVOK 10/03 Q1027 NOSIG="
"58367099999","2022-01-01T07:30:00","4","31.197875","121.336319","3.04","HONGQIAO INTERNATIONAL, CH","FM-15","99999","V020","170,1,N,0040,1","99999,9,9,Y","009900,5,9,9","+0100,1","+0040,1","99999,9",,,,,,"10270,1,99999,9",,,,"MET052METAR ZSSS 010730Z 17004MPS CAVOK 10/04 Q1027 NOSIG="
"58367099999","2022-01-01T08:00:00","4","31.197875","121.336319","3.04","HONGQIAO INTERNATIONAL, CH","FM-15","99999","V020","180,1,N,0030,1","99999,9,9,Y","009900,5,9,9","+0100,1","+0040,1","99999,9",,,,,,"10270,1,99999,9",,,,"MET052METAR ZSSS 010800Z 18003MPS CAVOK 10/04 Q1027 NOSIG="
"58367099999","2022-01-01T08:30:00","4","31.197875","121.336319","3.04","HONGQIAO INTERNATIONAL, CH","FM-15","99999","V020","180,1,N,0030,1","99999,9,9,Y","009900,5,9,9","+0100,1","+0040,1","99999,9",,,,,,"10270,1,99999,9",,,,"MET052METAR ZSSS 010830Z 18003MPS CAVOK 10/04 Q1027 NOSIG="
"58367099999","2022-01-01T09:00:00","4","31.197875","121.336319","3.04","HONGQIAO INTERNATIONAL, CH","FM-15","99999","V020","190,1,N,0020,1","99999,9,9,Y","009900,5,9,9","+0090,1","+0040,1","99999,9",,,,,,"10270,1,99999,9",,,,"MET052METAR ZSSS 010900Z 19002MPS CAVOK 09/04 Q1027 NOSIG="
"58367099999","2022-01-01T09:30:00","4","31.197875","121.336319","3.04","HONGQIAO INTERNATIONAL, CH","FM-15","99999","V020","190,1,N,0030,1","99999,9,9,Y","009900,5,9,9","+0090,1","+0040,1","99999,9",,,,,,"10270,1,99999,9",,,,"MET052METAR ZSSS 010930Z 19003MPS CAVOK 09/04 Q1027 NOSIG="
"58367099999","2022-01-01T10:00:00","4","31.197875","121.336319","3.04","HONGQIAO INTERNATIONAL, CH","FM-15","99999","V020","190,1,N,0030,1","99999,9,9,Y","009900,5,9,9","+0090,1","+0040,1","99999,9",,,,,,"10270,1,99999,9",,,,"MET052METAR ZSSS 011000Z 19003MPS CAVOK 09/04 Q1027 NOSIG="
"58367099999","2022-01-01T10:30:00","4","31.197875","121.336319","3.04","HONGQIAO INTERNATIONAL, CH","FM-15","99999","V020","190,1,N,0030,1","99999,9,9,Y","009900,5,9,9","+0090,1","+0040,1","99999,9",,,,,,"10270,1,99999,9",,,,"MET052METAR ZSSS 011030Z 19003MPS CAVOK 09/04 Q1027 NOSIG="
"58367099999","2022-01-01T11:00:00","4","31.197875","121.336319","3.04","HONGQIAO INTERNATIONAL, CH","FM-15","99999","V020","190,1,N,0030,1","99999,9,9,Y","009900,5,9,9","+0090,1","+0040,1","99999,9",,,,,,"10270,1,99999,9",,,,"MET052METAR ZSSS 011100Z 19003MPS CAVOK 09/04 Q1027 NOSIG="
"58367099999","2022-01-01T11:30:00","4","31.197875","121.336319","3.04","HONGQIAO INTERNATIONAL, CH","FM-15","99999","V020","200,1,N,0030,1","99999,9,9,Y","009900,5,9,9","+0090,1","+0040,1","99999,9",,,,,,"10270,1,99999,9",,,,"MET052METAR ZSSS 011130Z 20003MPS CAVOK 09/04 Q1027 NOSIG="
"58367099999","2022-01-01T12:00:00","4","31.197875","121.336319","3.04","HONGQIAO INTERNATIONAL, CH","FM-15","99999","V020","200,1,N,0030,1","99999,9,9,Y","009900,5,9,9","+0090,1","+0040,1","99999,9",,,,,,"10270,1,99999,9",,,,"MET052METAR ZSSS 011200Z 20003MPS CAVOK 09/04 Q1027 NOSIG="
"58367099999","2022-01-01T12:30:00","4","31.197875","121.336319","3.04","HONGQIAO INTERNATIONAL, CH","FM-15","99999","V020","200,1,N,0020,1","99999,9,9,Y","009900,5,9,9","+0080,1","+0040,1","99999,9",,,,,,"10270,1,99999,9",,,,"MET052METAR ZSSS 011230Z 20002MPS CAVOK 08/04 Q1027 NOSIG="
"58367099999","2022-01-01T13:00:00","4","31.197875","121.336319","3.04","HONGQIAO INTERNATIONAL, CH","FM-15","99999","V020","240,1,N,0020,1","99999,9,9,Y","009900,5,9,9","+0080,1","+0040,1","99999,9",,,,,,"10280,1,99999,9",,,,"MET052METAR ZSSS 011300Z 24002MPS CAVOK 08/04 Q1028 NOSIG="
"58367099999","2022-01-01T13:30:00","4","31.197875","121.336319","3.04","HONGQIAO INTERNATIONAL, CH","FM-15","99999","V020","230,1,N,0020,1","99999,9,9,Y","009900,5,9,9","+0080,1","+0030,1","99999,9",,,,,,"10280,1,99999,9",,,,"MET052METAR ZSSS 011330Z 23002MPS CAVOK 08/03 Q1028 NOSIG="
"58367099999","2022-01-01T14:00:00","4","31.197875","121.336319","3.04","HONGQIAO INTERNATIONAL, CH","FM-15","99999","V020","230,1,N,0030,1","99999,9,9,Y","009900,5,9,9","+0080,1","+0030,1","99999,9",,,,,,"10280,1,99999,9",,,,"MET052METAR ZSSS 011400Z 23003MPS CAVOK 08/03 Q1028 NOSIG="
"58367099999","2022-01-01T14:30:00","4","31.197875","121.336319","3.04","HONGQIAO INTERNATIONAL, CH","FM-15","99999","V020","240,1,N,0020,1","99999,9,9,Y","009900,5,9,9","+0080,1","+0030,1","99999,9",,,,,,"10280,1,99999,9",,,,"MET052METAR ZSSS 011430Z 24002MPS CAVOK 08/03 Q1028 NOSIG="
"58367099999","2022-01-01T15:00:00","4","31.197875","121.336319","3.04","HONGQIAO INTERNATIONAL, CH","FM-15","99999","V020","230,1,N,0020,1","99999,9,9,Y","009900,5,9,9","+0080,1","+0030,1","99999,9",,,,,,"10280,1,99999,9",,,,"MET052METAR ZSSS 011500Z 23002MPS CAVOK 08/03 Q1028 NOSIG="
"58367099999","2022-01-01T15:30:00","4","31.197875","121.336319","3.04","HONGQIAO INTERNATIONAL, CH","FM-15","99999","V020","280,1,N,0020,1","99999,9,9,Y","009900,5,9,9","+0080,1","+0020,1","99999,9",,,,,,"10280,1,99999,9",,,,"MET052METAR ZSSS 011530Z 28002MPS CAVOK 08/02 Q1028 NOSIG="
"58367099999","2022-01-01T16:00:00","4","31.197875","121.336319","3.04","HONGQIAO INTERNATIONAL, CH","FM-15","99999","V020","999,9,V,0010,1","99999,9,9,Y","009900,5,9,9","+0070,1","+0020,1","99999,9",,,,,,"10280,1,99999,9",,,,"MET052METAR ZSSS 011600Z VRB01MPS CAVOK 07/02 Q1028 NOSIG="
"58367099999","2022-01-01T16:30:00","4","31.197875","121.336319","3.04","HONGQIAO INTERNATIONAL, CH","FM-15","99999","V020","280,1,N,0020,1","99999,9,9,Y","009900,5,9,9","+0070,1","+0020,1","99999,9",,,,,,"10280,1,99999,9",,,,"MET052METAR ZSSS 011630Z 28002MPS CAVOK 07/02 Q1028 NOSIG="
"58367099999","2022-01-01T17:00:00","4","31.197875","121.336319","3.04","HONGQIAO INTERNATIONAL, CH","FM-15","99999","V020","999,9,V,0010,1","99999,9,9,Y","009900,5,9,9","+0060,1","+0010,1","99999,9",,,,,,"10280,1,99999,9",,,,"MET052METAR ZSSS 011700Z VRB01MPS CAVOK 06/01 Q1028 NOSIG="
"58367099999","2022-01-01T17:30:00","4","31.197875","121.336319","3.04","HONGQIAO INTERNATIONAL, CH","FM-15","99999","V020","999,9,V,0010,1","99999,9,9,Y","009900,5,9,9","+0050,1","+0010,1","99999,9",,,,,,"10280,1,99999,9",,,,"MET052METAR ZSSS 011730Z VRB01MPS CAVOK 05/01 Q1028 NOSIG="
"58367099999","2022-01-01T18:00:00","4","31.197875","121.336319","3.04","HONGQIAO INTERNATIONAL, CH","FM-15","99999","V020","290,1,N,0020,1","99999,9,9,Y","009900,5,9,9","+0060,1","+0020,1","99999,9",,,,,,"10280,1,99999,9",,,,"MET052METAR ZSSS 011800Z 29002MPS CAVOK 06/02 Q1028 NOSIG="
"58367099999","2022-01-01T18:30:00","4","31.197875","121.336319","3.04","HONGQIAO INTERNATIONAL, CH","FM-15","99999","V020","280,1,N,0020,1","99999,9,9,Y","009900,5,9,9","+0050,1","+0010,1","99999,9",,,,,,"10280,1,99999,9",,,,"MET052METAR ZSSS 011830Z 28002MPS CAVOK 05/01 Q1028 NOSIG="
"58367099999","2022-01-01T19:00:00","4","31.197875","121.336319","3.04","HONGQIAO INTERNATIONAL, CH","FM-15","99999","V020","300,1,N,0020,1","99999,9,9,Y","009900,5,9,9","+0050,1","+0010,1","99999,9",,,,,,"10280,1,99999,9",,,,"MET052METAR ZSSS 011900Z 30002MPS CAVOK 05/01 Q1028 NOSIG="
"58367099999","2022-01-01T19:30:00","4","31.197875","121.336319","3.04","HONGQIAO INTERNATIONAL, CH","FM-15","99999","V020","310,1,N,0010,1","99999,9,9,Y","009900,5,9,9","+0040,1","+0000,1","99999,9",,,,,,"10280,1,99999,9",,,,"MET052METAR ZSSS 011930Z 31001MPS CAVOK 04/00 Q1028 NOSIG="
"58367099999","2022-01-01T20:00:00","4","31.197875","121.336319","3.04","HONGQIAO INTERNATIONAL, CH","FM-15","99999","V020","340,1,N,0020,1","22000,1,9,N","008000,1,9,9","+0030,1","+0000,1","99999,9",,,,,"00,99,1,99,9,99,9,99999,9,99,9,99,9","10280,1,99999,9",,,,"MET055METAR ZSSS 012000Z 34002MPS 8000 NSC 03/00 Q1028 NOSIG="
"58367099999","2022-01-01T20:30:00","4","31.197875","121.336319","3.04","HONGQIAO INTERNATIONAL, CH","FM-15","99999","V020","350,1,N,0020,1","22000,1,9,N","008000,1,9,9","+0030,1","+0000,1","99999,9",,,,,"00,99,1,99,9,99,9,99999,9,99,9,99,9","10280,1,99999,9",,,,"MET055METAR ZSSS 012030Z 35002MPS 8000 NSC 03/00 Q1028 NOSIG="
"58367099999","2022-01-01T21:00:00","4","31.197875","121.336319","3.04","HONGQIAO INTERNATIONAL, CH","FM-15","99999","V020","350,1,N,0020,1","22000,1,9,N","008000,1,9,9","+0030,1","+0000,1","99999,9",,,,,"00,99,1,99,9,99,9,99999,9,99,9,99,9","10280,1,99999,9",,,,"MET056METAR ZSSS 012100Z 35002MPS 8000 NSC 03/M00 Q1028 NOSIG="
"58367099999","2022-01-01T21:30:00","4","31.197875","121.336319","3.04","HONGQIAO INTERNATIONAL, CH","FM-15","99999","V020","350,1,V,0020,1","22000,1,9,N","008000,1,9,9","+0020,1","-0010,1","99999,9",,,,,"00,99,1,99,9,99,9,99999,9,99,9,99,9","10290,1,99999,9",,,,"MET064METAR ZSSS 012130Z 35002MPS 320V020 8000 NSC 02/M01 Q1029 NOSIG="
"58367099999","2022-01-01T22:00:00","4","31.197875","121.336319","3.04","HONGQIAO INTERNATIONAL, CH","FM-15","99999","V020","310,1,V,0020,1","22000,1,9,N","008000,1,9,9","+0040,1","+0000,1","99999,9",,,,,"00,99,1,99,9,99,9,99999,9,99,9,99,9","10290,1,99999,9",,,,"MET063METAR ZSSS 012200Z 31002MPS 280V340 8000 NSC 04/00 Q1029 NOSIG="
"58367099999","2022-01-01T22:30:00","4","31.197875","121.336319","3.04","HONGQIAO INTERNATIONAL, CH","FM-15","99999","V020","330,1,V,0020,1","22000,1,9,N","007000,1,9,9","+0030,1","+0000,1","99999,9",,,,,"00,99,1,99,9,99,9,99999,9,99,9,99,9","10290,1,99999,9",,,,"MET064METAR ZSSS 012230Z 33002MPS 310V010 7000 NSC 03/M00 Q1029 NOSIG="
"58367099999","2022-01-01T23:00:00","4","31.197875","121.336319","3.04","HONGQIAO INTERNATIONAL, CH","FM-15","99999","V020","010,1,N,0020,1","22000,1,9,N","005000,1,9,9","+0020,1","+0000,1","99999,9",,,,,"00,99,1,99,9,99,9,99999,9,99,9,99,9","10290,1,99999,9","10,1",,,"MET059METAR ZSSS 012300Z 01002MPS 5000 BR NSC 02/M00 Q1029 NOSIG="
"58367099999","2022-01-01T23:30:00","4","31.197875","121.336319","3.04","HONGQIAO INTERNATIONAL, CH","FM-15","99999","V020","360,1,N,0020,1","22000,1,9,N","005000,1,9,9","+0030,1","+0010,1","99999,9",,,,,"00,99,1,99,9,99,9,99999,9,99,9,99,9","10290,1,99999,9","10,1",,,"MET058METAR ZSSS 012330Z 36002MPS 5000 BR NSC 03/01 Q1029 NOSIG="
"58367099999","2022-01-02T00:00:00","4","31.197875","121.336319","3.04","HONGQIAO INTERNATIONAL, CH","FM-15","99999","V020","340,1,N,0020,1","22000,1,9,N","005000,1,9,9","+0050,1","+0020,1","99999,9",,,,,"00,99,1,99,9,99,9,99999,9,99,9,99,9","10300,1,99999,9","10,1",,,"MET058METAR ZSSS 020000Z 34002MPS 5000 BR NSC 05/02 Q1030 NOSIG="
"58367099999","2022-01-02T00:30:00","4","31.197875","121.336319","3.04","HONGQIAO INTERNATIONAL, CH","FM-15","99999","V020","330,1,N,0030,1","22000,1,9,N","005000,1,9,9","+0060,1","+0020,1","99999,9",,,,,"00,99,1,99,9,99,9,99999,9,99,9,99,9","10310,1,99999,9","10,1",,,"MET058METAR ZSSS 020030Z 33003MPS 5000 BR NSC 06/02 Q1031 NOSIG="
"58367099999","2022-01-02T01:00:00","4","31.197875","121.336319","3.04","HONGQIAO INTERNATIONAL, CH","FM-15","99999","V020","350,1,N,0020,1","22000,1,9,N","005000,1,9,9","+0060,1","+0020,1","99999,9",,,,,"00,99,1,99,9,99,9,99999,9,99,9,99,9","10310,1,99999,9","10,1",,,"MET058METAR ZSSS 020100Z 35002MPS 5000 BR NSC 06/02 Q1031 NOSIG="
"58367099999","2022-01-02T01:30:00","4","31.197875","121.336319","3.04","HONGQIAO INTERNATIONAL, CH","FM-15","99999","V020","350,1,N,0030,1","22000,1,9,N","005000,1,9,9","+0080,1","+0020,1","99999,9",,,,,"00,99,1,99,9,99,9,99999,9,99,9,99,9","10310,1,99999,9","05,1",,,"MET058METAR ZSSS 020130Z 35003MPS 5000 HZ NSC 08/02 Q1031 NOSIG="
"58367099999","2022-01-02T02:00:00","4","31.197875","121.336319","3.04","HONGQIAO INTERNATIONAL, CH","FM-15","99999","V020","340,1,N,0040,1","22000,1,9,N","005000,1,9,9","+0090,1","+0020,1","99999,9",,,,,"00,99,1,99,9,99,9,99999,9,99,9,99,9","10310,1,99999,9","05,1",,,"MET058METAR ZSSS 020200Z 34004MPS 5000 HZ NSC 09/02 Q1031 NOSIG="
"58367099999","2022-01-02T02:30:00","4","31.197875","121.336319","3.04","HONGQIAO INTERNATIONAL, CH","FM-15","99999","V020","350,1,N,0040,1","22000,1,9,N","006000,1,9,9","+0100,1","+0010,1","99999,9",,,,,"00,99,1,99,9,99,9,99999,9,99,9,99,9","10300,1,99999,9",,,,"MET055METAR ZSSS 020230Z 35004MPS 6000 NSC 10/01 Q1030 NOSIG="
"58367099999","2022-01-02T03:00:00","4","31.197875","121.336319","3.04","HONGQIAO INTERNATIONAL, CH","FM-15","99999","V020","010,1,V,0050,1","22000,1,9,N","006000,1,9,9","+0100,1","+0010,1","99999,9",,,,,"00,99,1,99,9,99,9,99999,9,99,9,99,9","10300,1,99999,9",,,,"MET063METAR ZSSS 020300Z 01005MPS 340V040 6000 NSC 10/01 Q1030 NOSIG="
"58367099999","2022-01-02T03:30:00","4","31.197875","121.336319","3.04","HONGQIAO INTERNATIONAL, CH","FM-15","99999","V020","360,1,N,0050,1","22000,1,9,N","006000,1,9,9","+0100,1","+0000,1","99999,9",,,,,"00,99,1,99,9,99,9,99999,9,99,9,99,9","10300,1,99999,9",,,,"MET055METAR ZSSS 020330Z 36005MPS 6000 NSC 10/00 Q1030 NOSIG="
"58367099999","2022-01-02T04:00:00","4","31.197875","121.336319","3.04","HONGQIAO INTERNATIONAL, CH","FM-15","99999","V020","360,1,V,0040,1","22000,1,9,N","006000,1,9,9","+0110,1","+0010,1","99999,9",,,,,"00,99,1,99,9,99,9,99999,9,99,9,99,9","10290,1,99999,9",,,,"MET063METAR ZSSS 020400Z 36004MPS 330V040 6000 NSC 11/01 Q1029 NOSIG="
"58367099999","2022-01-02T04:30:00","4","31.197875","121.336319","3.04","HONGQIAO INTERNATIONAL, CH","FM-15","99999","V020","360,1,V,0030,1","22000,1,9,N","007000,1,9,9","+0110,1","+0000,1","99999,9",,,,,"00,99,1,99,9,99,9,99999,9,99,9,99,9","10280,1,99999,9",,,,"MET063METAR ZSSS 020430Z 36003MPS 340V040 7000 NSC 11/00 Q1028 NOSIG="
"58367099999","2022-01-02T05:00:00","4","31.197875","121.336319","3.04","HONGQIAO INTERNATIONAL, CH","FM-15","99999","V020","030,1,V,0040,1","22000,1,9,N","008000,1,9,9","+0120,1","+0000,1","99999,9",,,,,"00,99,1,99,9,99,9,99999,9,99,9,99,9","10280,1,99999,9",,,,"MET064METAR ZSSS 020500Z 03004MPS 010V070 8000 NSC 12/M00 Q1028 NOSIG="
"58367099999","2022-01-02T05:30:00","4","31.197875","121.336319","3.04","HONGQIAO INTERNATIONAL, CH","FM-15","99999","V020","350,1,V,0040,1","22000,1,9,N","008000,1,9,9","+0120,1","+0000,1","99999,9",,,,,"00,99,1,99,9,99,9,99999,9,99,9,99,9","10280,1,99999,9",,,,"MET064METAR ZSSS 020530Z 35004MPS 320V030 8000 NSC 12/M00 Q1028 NOSIG="
"58367099999","2022-01-02T06:00:00","4","31.197875","121.336319","3.04","HONGQIAO INTERNATIONAL, CH","FM-15","99999","V020","020,1,V,0040,1","22000,1,9,N","008000,1,9,9","+0120,1","-0010,1","99999,9",,,,,"00,99,1,99,9,99,9,99999,9,99,9,99,9","10280,1,99999,9",,,,"MET064METAR ZSSS 020600Z 02004MPS 350V050 8000 NSC 12/M01 Q1028 NOSIG="
"58367099999","2022-01-02T06:30:00","4","31.197875","121.336319","3.04","HONGQIAO INTERNATIONAL, CH","FM-15","99999","V020","360,1,V,0040,1","99999,9,9,Y","009900,5,9,9","+0120,1","+0000,1","99999,9",,,,,,"10270,1,99999,9",,,,"MET061METAR ZSSS 020630Z 36004MPS 330V030 CAVOK 12/M00 Q1027 NOSIG="
"58367099999","2022-01-02T07:00:00","4","31.197875","121.336319","3.04","HONGQIAO INTERNATIONAL, CH","FM-15","99999","V020","010,1,V,0030,1","99999,9,9,Y","009900,5,9,9","+0120,1","-0020,1","99999,9",,,,,,"10280,1,99999,9",,,,"MET061METAR ZSSS 020700Z 01003MPS 330V040 CAVOK 12/M02 Q1028 NOSIG="
"58367099999","2022-01-02T07:30:00","4","31.197875","121.336319","3.04","HONGQIAO INTERNATIONAL, CH","FM-15","99999","V020","010,1,V,0040,1","99999,9,9,Y","009900,5,9,9","+0110,1","-0020,1","99999,9",,,,,,"10270,1,99999,9",,,,"MET061METAR ZSSS 020730Z 01004MPS 340V040 CAVOK 11/M02 Q1027 NOSIG="
"58367099999","2022-01-02T08:00:00","4","31.197875","121.336319","3.04","HONGQIAO INTERNATIONAL, CH","FM-15","99999","V020","360,1,N,0040,1","99999,9,9,Y","009900,5,9,9","+0110,1","+0000,1","99999,9",,,,,,"10280,1,99999,9",,,,"MET052METAR ZSSS 020800Z 36004MPS CAVOK 11/00 Q1028 NOSIG="
"58367099999","2022-01-02T08:30:00","4","31.197875","121.336319","3.04","HONGQIAO INTERNATIONAL, CH","FM-15","99999","V020","010,1,N,0040,1","99999,9,9,Y","009900,5,9,9","+0110,1","+0000,1","99999,9",,,,,,"10280,1,99999,9",,,,"MET052METAR ZSSS 020830Z 01004MPS CAVOK 11/00 Q1028 NOSIG="
"58367099999","2022-01-02T09:00:00","4","31.197875","121.336319","3.04","HONGQIAO INTERNATIONAL, CH","FM-15","99999","V020","030,1,V,0040,1","99999,9,9,Y","009900,5,9,9","+0100,1","+0000,1","99999,9",,,,,,"10280,1,99999,9",,,,"MET061METAR ZSSS 020900Z 03004MPS 010V070 CAVOK 10/M00 Q1028 NOSIG="
"58367099999","2022-01-02T09:30:00","4","31.197875","121.336319","3.04","HONGQIAO INTERNATIONAL, CH","FM-15","99999","V020","040,1,N,0040,1","99999,9,9,Y","009900,5,9,9","+0100,1","+0000,1","99999,9",,,,,,"10280,1,99999,9",,,,"MET053METAR ZSSS 020930Z 04004MPS CAVOK 10/M00 Q1028 NOSIG="
"58367099999","2022-01-02T10:00:00","4","31.197875","121.336319","3.04","HONGQIAO INTERNATIONAL, CH","FM-15","99999","V020","020,1,N,0030,1","99999,9,9,Y","009900,5,9,9","+0090,1","+0000,1","99999,9",,,,,,"10280,1,99999,9",,,,"MET052METAR ZSSS 021000Z 02003MPS CAVOK 09/00 Q1028 NOSIG="
"58367099999","2022-01-02T10:30:00","4","31.197875","121.336319","3.04","HONGQIAO INTERNATIONAL, CH","FM-15","99999","V020","020,1,N,0040,1","99999,9,9,Y","009900,5,9,9","+0090,1","+0000,1","99999,9",,,,,,"10290,1,99999,9",,,,"MET052METAR ZSSS 021030Z 02004MPS CAVOK 09/00 Q1029 NOSIG="
"58367099999","2022-01-02T11:00:00","4","31.197875","121.336319","3.04","HONGQIAO INTERNATIONAL, CH","FM-15","99999","V020","030,1,N,0050,1","99999,9,9,Y","009900,5,9,9","+0090,1","+0020,1","99999,9",,,,,,"10290,1,99999,9",,,,"MET052METAR ZSSS 021100Z 03005MPS CAVOK 09/02 Q1029 NOSIG="
"58367099999","2022-01-02T11:30:00","4","31.197875","121.336319","3.04","HONGQIAO INTERNATIONAL, CH","FM-15","99999","V020","040,1,N,0030,1","99999,9,9,Y","009900,5,9,9","+0080,1","+0020,1","99999,9",,,,,,"10290,1,99999,9",,,,"MET052METAR ZSSS 021130Z 04003MPS CAVOK 08/02 Q1029 NOSIG="
"58367099999","2022-01-02T12:00:00","4","31.197875","121.336319","3.04","HONGQIAO INTERNATIONAL, CH","FM-15","99999","V020","050,1,N,0030,1","99999,9,9,Y","009900,5,9,9","+0080,1","+0020,1","99999,9",,,,,,"10290,1,99999,9",,,,"MET052METAR ZSSS 021200Z 05003MPS CAVOK 08/02 Q1029 NOSIG="
"58367099999","2022-01-02T12:30:00","4","31.197875","121.336319","3.04","HONGQIAO INTERNATIONAL, CH","FM-15","99999","V020","060,1,N,0030,1","99999,9,9,Y","009900,5,9,9","+0080,1","+0020,1","99999,9",,,,,,"10290,1,99999,9",,,,"MET052METAR ZSSS 021230Z 06003MPS CAVOK 08/02 Q1029 NOSIG="
"58367099999","2022-01-02T13:00:00","4","31.197875","121.336319","3.04","HONGQIAO INTERNATIONAL, CH","FM-15","99999","V020","050,1,N,0030,1","99999,9,9,Y","009900,5,9,9","+0080,1","+0030,1","99999,9",,,,,,"10290,1,99999,9",,,,"MET052METAR ZSSS 021300Z 05003MPS CAVOK 08/03 Q1029 NOSIG="
"58367099999","2022-01-02T13:30:00","4","31.197875","121.336319","3.04","HONGQIAO INTERNATIONAL, CH","FM-15","99999","V020","060,1,N,0030,1","22000,1,9,N","008000,1,9,9","+0070,1","+0030,1","99999,9",,,,,"00,99,1,99,9,99,9,99999,9,99,9,99,9","10280,1,99999,9",,,,"MET055METAR ZSSS 021330Z 06003MPS 8000 NSC 07/03 Q1028 NOSIG="
"58367099999","2022-01-02T14:00:00","4","31.197875","121.336319","3.04","HONGQIAO INTERNATIONAL, CH","FM-15","99999","V020","999,9,V,0010,1","22000,1,9,N","008000,1,9,9","+0070,1","+0020,1","99999,9",,,,,"00,99,1,99,9,99,9,99999,9,99,9,99,9","10290,1,99999,9",,,,"MET055METAR ZSSS 021400Z VRB01MPS 8000 NSC 07/02 Q1029 NOSIG="
"58367099999","2022-01-02T14:30:00","4","31.197875","121.336319","3.04","HONGQIAO INTERNATIONAL, CH","FM-15","99999","V020","070,1,N,0020,1","22000,1,9,N","008000,1,9,9","+0070,1","+0030,1","99999,9",,,,,"00,99,1,99,9,99,9,99999,9,99,9,99,9","10280,1,99999,9",,,,"MET055METAR ZSSS 021430Z 07002MPS 8000 NSC 07/03 Q1028 NOSIG="
"58367099999","2022-01-02T15:00:00","4","31.197875","121.336319","3.04","HONGQIAO INTERNATIONAL, CH","FM-15","99999","V020","070,1,N,0010,1","22000,1,9,N","008000,1,9,9","+0070,1","+0030,1","99999,9",,,,,"00,99,1,99,9,99,9,99999,9,99,9,99,9","10280,1,99999,9",,,,"MET055METAR ZSSS 021500Z 07001MPS 8000 NSC 07/03 Q1028 NOSIG="
"58367099999","2022-01-02T15:30:00","4","31.197875","121.336319","3.04","HONGQIAO INTERNATIONAL, CH","FM-15","99999","V020","040,1,N,0010,1","22000,1,9,N","007000,1,9,9","+0070,1","+0030,1","99999,9",,,,,"00,99,1,99,9,99,9,99999,9,99,9,99,9","10280,1,99999,9",,,,"MET055METAR ZSSS 021530Z 04001MPS 7000 NSC 07/03 Q1028 NOSIG="
"58367099999","2022-01-02T16:00:00","4","31.197875","121.336319","3.04","HONGQIAO INTERNATIONAL, CH","FM-15","99999","V020","999,9,V,0010,1","22000,1,9,N","007000,1,9,9","+0050,1","+0020,1","99999,9",,,,,"00,99,1,99,9,99,9,99999,9,99,9,99,9","10280,1,99999,9",,,,"MET055METAR ZSSS 021600Z VRB01MPS 7000 NSC 05/02 Q1028 NOSIG="
"58367099999","2022-01-02T16:30:00","4","31.197875","121.336319","3.04","HONGQIAO INTERNATIONAL, CH","FM-15","99999","V020","360,1,N,0020,1","22000,1,9,N","007000,1,9,9","+0050,1","+0020,1","99999,9",,,,,"00,99,1,99,9,99,9,99999,9,99,9,99,9","10270,1,99999,9",,,,"MET055METAR ZSSS 021630Z 36002MPS 7000 NSC 05/02 Q1027 NOSIG="
"58367099999","2022-01-02T17:00:00","4","31.197875","121.336319","3.04","HONGQIAO INTERNATIONAL, CH","FM-15","99999","V020","350,1,N,0020,1","22000,1,9,N","007000,1,9,9","+0040,1","+0020,1","99999,9",,,,,"00,99,1,99,9,99,9,99999,9,99,9,99,9","10280,1,99999,9",,,,"MET055METAR ZSSS 021700Z 35002MPS 7000 NSC 04/02 Q1028 NOSIG="
"58367099999","2022-01-02T17:30:00","4","31.197875","121.336319","3.04","HONGQIAO INTERNATIONAL, CH","FM-15","99999","V020","010,1,N,0010,1","22000,1,9,N","007000,1,9,9","+0040,1","+0020,1","99999,9",,,,,"00,99,1,99,9,99,9,99999,9,99,9,99,9","10280,1,99999,9",,,,"MET055METAR ZSSS 021730Z 01001MPS 7000 NSC 04/02 Q1028 NOSIG="
"58367099999","2022-01-02T18:00:00","4","31.197875","121.336319","3.04","HONGQIAO INTERNATIONAL, CH","FM-15","99999","V020","010,1,N,0010,1","22000,1,9,N","006000,1,9,9","+0040,1","+0020,1","99999,9",,,,,"00,99,1,99,9,99,9,99999,9,99,9,99,9","10270,1,99999,9",,,,"MET055METAR ZSSS 021800Z 01001MPS 6000 NSC 04/02 Q1027 NOSIG="
"58367099999","2022-01-02T18:30:00","4","31.197875","121.336319","3.04","HONGQIAO INTERNATIONAL, CH","FM-15","99999","V020","360,1,N,0010,1","22000,1,9,N","006000,1,9,9","+0040,1","+0020,1","99999,9",,,,,"00,99,1,99,9,99,9,99999,9,99,9,99,9","10270,1,99999,9",,,,"MET055METAR ZSSS 021830Z 36001MPS 6000 NSC 04/02 Q1027 NOSIG="
"58367099999","2022-01-02T19:00:00","4","31.197875","121.336319","3.04","HONGQIAO INTERNATIONAL, CH","FM-15","99999","V020","999,9,V,0010,1","22000,1,9,N","005000,1,9,9","+0030,1","+0020,1","99999,9",,,,,"00,99,1,99,9,99,9,99999,9,99,9,99,9","10270,1,99999,9","10,1",,,"MET058METAR ZSSS 021900Z VRB01MPS 5000 BR NSC 03/02 Q1027 NOSIG="
"58367099999","2022-01-02T19:30:00","4","31.197875","121.336319","3.04","HONGQIAO INTERNATIONAL, CH","FM-15","99999","V020","999,9,C,0000,1","22000,1,9,N","005000,1,9,9","+0030,1","+0020,1","99999,9",,,,,"00,99,1,99,9,99,9,99999,9,99,9,99,9","10260,1,99999,9","10,1",,,"MET058METAR ZSSS 021930Z 00000MPS 5000 BR NSC 03/02 Q1026 NOSIG="
"58367099999","2022-01-02T20:00:00","4","31.197875","121.336319","3.04","HONGQIAO INTERNATIONAL, CH","FM-15","99999","V020","999,9,C,0000,1","22000,1,9,N","005000,1,9,9","+0030,1","+0020,1","99999,9",,,,,"00,99,1,99,9,99,9,99999,9,99,9,99,9","10260,1,99999,9","10,1",,,"MET058METAR ZSSS 022000Z 00000MPS 5000 BR NSC 03/02 Q1026 NOSIG="
"58367099999","2022-01-02T20:30:00","4","31.197875","121.336319","3.04","HONGQIAO INTERNATIONAL, CH","FM-15","99999","V020","999,9,C,0000,1","22000,1,9,N","005000,1,9,9","+0020,1","+0020,1","99999,9",,,,,"00,99,1,99,9,99,9,99999,9,99,9,99,9","10260,1,99999,9","10,1","12,1",,"MET063METAR ZSSS 022030Z 00000MPS 5000 MIFG BR NSC 02/02 Q1026 NOSIG="
"58367099999","2022-01-02T21:00:00","4","31.197875","121.336319","3.04","HONGQIAO INTERNATIONAL, CH","FM-15","99999","V020","050,1,N,0010,1","22000,1,9,N","004000,1,9,9","+0020,1","+0010,1","99999,9","36,R,9999,9",,,,"00,99,1,99,9,99,9,99999,9,99,9,99,9","10260,1,99999,9","10,1","12,1",,"MET102METAR ZSSS 022100Z 05001MPS 4000 R36R/1000V1800U R36L/1700D MIFG BR NSC 02/01 Q1026 BECMG TL2230 2800="
"58367099999","2022-01-02T21:30:00","4","31.197875","121.336319","3.04","HONGQIAO INTERNATIONAL, CH","FM-15","99999","V020","010,1,N,0010,1","22000,1,9,N","004000,1,9,9","+0020,1","+0020,1","99999,9",,,,,"00,99,1,99,9,99,9,99999,9,99,9,99,9","10260,1,99999,9","10,1","11,1",,"MET063METAR ZSSS 022130Z 01001MPS 4000 BCFG BR NSC 02/02 Q1026 NOSIG="
"58367099999","2022-01-02T22:00:00","4","31.197875","121.336319","3.04","HONGQIAO INTERNATIONAL, CH","FM-15","99999","V020","020,1,N,0010,1","22000,1,9,N","004000,1,9,9","+0020,1","+0010,1","99999,9",,,,,"00,99,1,99,9,99,9,99999,9,99,9,99,9","10260,1,99999,9","10,1",,,"MET058METAR ZSSS 022200Z 02001MPS 4000 BR NSC 02/01 Q1026 NOSIG="
"58367099999","2022-01-02T22:30:00","4","31.197875","121.336319","3.04","HONGQIAO INTERNATIONAL, CH","FM-15","99999","V020","350,1,N,0010,1","22000,1,9,N","004000,1,9,9","+0020,1","+0020,1","99999,9",,,,,"00,99,1,99,9,99,9,99999,9,99,9,99,9","10260,1,99999,9","10,1",,,"MET058METAR ZSSS 022230Z 35001MPS 4000 BR NSC 02/02 Q1026 NOSIG="
"58367099999","2022-01-02T23:00:00","4","31.197875","121.336319","3.04","HONGQIAO INTERNATIONAL, CH","FM-15","99999","V020","010,1,N,0010,1","22000,1,9,N","004000,1,9,9","+0030,1","+0020,1","99999,9",,,,,"00,99,1,99,9,99,9,99999,9,99,9,99,9","10260,1,99999,9","10,1","12,1",,"MET063METAR ZSSS 022300Z 01001MPS 4000 MIFG BR NSC 03/02 Q1026 NOSIG="
"58367099999","2022-01-02T23:30:00","4","31.197875","121.336319","3.04","HONGQIAO INTERNATIONAL, CH","FM-15","99999","V020","999,9,C,0000,1","22000,1,9,N","004000,1,9,9","+0040,1","+0030,1","99999,9",,,,,"00,99,1,99,9,99,9,99999,9,99,9,99,9","10270,1,99999,9","10,1","12,1",,"MET063METAR ZSSS 022330Z 00000MPS 4000 MIFG BR NSC 04/03 Q1027 NOSIG="
"58367099999","2022-01-03T00:00:00","4","31.197875","121.336319","3.04","HONGQIAO INTERNATIONAL, CH","FM-15","99999","V020","999,9,C,0000,1","22000,1,9,N","004000,1,9,9","+0050,1","+0040,1","99999,9",,,,,"00,99,1,99,9,99,9,99999,9,99,9,99,9","10270,1,99999,9","10,1","12,1",,"MET063METAR ZSSS 030000Z 00000MPS 4000 MIFG BR NSC 05/04 Q1027 NOSIG="
"58367099999","2022-01-03T00:30:00","4","31.197875","121.336319","3.04","HONGQIAO INTERNATIONAL, CH","FM-15","99999","V020","999,9,V,0010,1","22000,1,9,N","004000,1,9,9","+0080,1","+0050,1","99999,9",,,,,"00,99,1,99,9,99,9,99999,9,99,9,99,9","10270,1,99999,9","10,1",,,"MET058METAR ZSSS 030030Z VRB01MPS 4000 BR NSC 08/05 Q1027 NOSIG="
"58367099999","2022-01-03T01:00:00","4","31.197875","121.336319","3.04","HONGQIAO INTERNATIONAL, CH","FM-15","99999","V020","999,9,V,0010,1","22000,1,9,N","004000,1,9,9","+0100,1","+0050,1","99999,9",,,,,"00,99,1,99,9,99,9,99999,9,99,9,99,9","10270,1,99999,9","10,1",,,"MET058METAR ZSSS 030100Z VRB01MPS 4000 BR NSC 10/05 Q1027 NOSIG="
"58367099999","2022-01-03T01:30:00","4","31.197875","121.336319","3.04","HONGQIAO INTERNATIONAL, CH","FM-15","99999","V020","999,9,V,0010,1","22000,1,9,N","005000,1,9,9","+0100,1","+0040,1","99999,9",,,,,"00,99,1,99,9,99,9,99999,9,99,9,99,9","10270,1,99999,9","05,1",,,"MET058METAR ZSSS 030130Z VRB01MPS 5000 HZ NSC 10/04 Q1027 NOSIG="
"58367099999","2022-01-03T02:00:00","4","31.197875","121.336319","3.04","HONGQIAO INTERNATIONAL, CH","FM-15","99999","V020","140,1,V,0020,1","22000,1,9,N","006000,1,9,9","+0110,1","+0040,1","99999,9",,,,,"00,99,1,99,9,99,9,99999,9,99,9,99,9","10270,1,99999,9",,,,"MET063METAR ZSSS 030200Z 14002MPS 090V220 6000 NSC 11/04 Q1027 NOSIG="
"58367099999","2022-01-03T02:30:00","4","31.197875","121.336319","3.04","HONGQIAO INTERNATIONAL, CH","FM-15","99999","V020","130,1,V,0020,1","22000,1,9,N","008000,1,9,9","+0120,1","+0030,1","99999,9",,,,,"00,99,1,99,9,99,9,99999,9,99,9,99,9","10270,1,99999,9",,,,"MET063METAR ZSSS 030230Z 13002MPS 060V190 8000 NSC 12/03 Q1027 NOSIG="
"58367099999","2022-01-03T03:00:00","4","31.197875","121.336319","3.04","HONGQIAO INTERNATIONAL, CH","FM-15","99999","V020","190,1,V,0020,1","22000,1,9,N","008000,1,9,9","+0120,1","+0030,1","99999,9",,,,,"00,99,1,99,9,99,9,99999,9,99,9,99,9","10260,1,99999,9",,,,"MET063METAR ZSSS 030300Z 19002MPS 130V250 8000 NSC 12/03 Q1026 NOSIG="
"58367099999","2022-01-03T03:30:00","4","31.197875","121.336319","3.04","HONGQIAO INTERNATIONAL, CH","FM-15","99999","V020","210,1,V,0020,1","99999,9,9,Y","009900,5,9,9","+0130,1","+0030,1","99999,9",,,,,,"10260,1,99999,9",,,,"MET060METAR ZSSS 030330Z 21002MPS 140V260 CAVOK 13/03 Q1026 NOSIG="
"58367099999","2022-01-03T04:00:00","4","31.197875","121.336319","3.04","HONGQIAO INTERNATIONAL, CH","FM-15","99999","V020","999,9,V,0020,1","99999,9,9,Y","009900,5,9,9","+0130,1","+0030,1","99999,9",,,,,,"10250,1,99999,9",,,,"MET052METAR ZSSS 030400Z VRB02MPS CAVOK 13/03 Q1025 NOSIG="
"58367099999","2022-01-03T04:30:00","4","31.197875","121.336319","3.04","HONGQIAO INTERNATIONAL, CH","FM-15","99999","V020","240,1,V,0020,1","99999,9,9,Y","009900,5,9,9","+0140,1","+0030,1","99999,9",,,,,,"10250,1,99999,9",,,,"MET060METAR ZSSS 030430Z 24002MPS 200V320 CAVOK 14/03 Q1025 NOSIG="
"58367099999","2022-01-03T05:00:00","4","31.197875","121.336319","3.04","HONGQIAO INTERNATIONAL, CH","FM-15","99999","V020","999,9,V,0010,1","99999,9,9,Y","009900,5,9,9","+0140,1","+0030,1","99999,9",,,,,,"10240,1,99999,9",,,,"MET052METAR ZSSS 030500Z VRB01MPS CAVOK 14/03 Q1024 NOSIG="
"58367099999","2022-01-03T05:30:00","4","31.197875","121.336319","3.04","HONGQIAO INTERNATIONAL, CH","FM-15","99999","V020","999,9,V,0010,1","99999,9,9,Y","009900,5,9,9","+0140,1","+0030,1","99999,9",,,,,,"10240,1,99999,9",,,,"MET052METAR ZSSS 030530Z VRB01MPS CAVOK 14/03 Q1024 NOSIG="
"58367099999","2022-01-03T06:00:00","4","31.197875","121.336319","3.04","HONGQIAO INTERNATIONAL, CH","FM-15","99999","V020","180,1,V,0020,1","99999,9,9,Y","009900,5,9,9","+0140,1","+0020,1","99999,9",,,,,,"10240,1,99999,9",,,,"MET060METAR ZSSS 030600Z 18002MPS 140V210 CAVOK 14/02 Q1024 NOSIG="
"58367099999","2022-01-03T06:30:00","4","31.197875","121.336319","3.04","HONGQIAO INTERNATIONAL, CH","FM-15","99999","V020","999,9,V,0010,1","99999,9,9,Y","009900,5,9,9","+0140,1","+0020,1","99999,9",,,,,,"10240,1,99999,9",,,,"MET052METAR ZSSS 030630Z VRB01MPS CAVOK 14/02 Q1024 NOSIG="
"58367099999","2022-01-03T07:00:00","4","31.197875","121.336319","3.04","HONGQIAO INTERNATIONAL, CH","FM-15","99999","V020","999,9,V,0010,1","99999,9,9,Y","009900,5,9,9","+0150,1","+0010,1","99999,9",,,,,,"10240,1,99999,9",,,,"MET052METAR ZSSS 030700Z VRB01MPS CAVOK 15/01 Q1024 NOSIG="
"58367099999","2022-01-03T07:30:00","4","31.197875","121.336319","3.04","HONGQIAO INTERNATIONAL, CH","FM-15","99999","V020","999,9,V,0010,1","99999,9,9,Y","009900,5,9,9","+0140,1","+0020,1","99999,9",,,,,,"10240,1,99999,9",,,,"MET052METAR ZSSS 030730Z VRB01MPS CAVOK 14/02 Q1024 NOSIG="
"58367099999","2022-01-03T08:00:00","4","31.197875","121.336319","3.04","HONGQIAO INTERNATIONAL, CH","FM-15","99999","V020","300,1,V,0020,1","99999,9,9,Y","009900,5,9,9","+0140,1","+0010,1","99999,9",,,,,,"10240,1,99999,9",,,,"MET060METAR ZSSS 030800Z 30002MPS 220V350 CAVOK 14/01 Q1024 NOSIG="
"58367099999","2022-01-03T08:30:00","4","31.197875","121.336319","3.04","HONGQIAO INTERNATIONAL, CH","FM-15","99999","V020","350,1,V,0020,1","99999,9,9,Y","009900,5,9,9","+0130,1","+0010,1","99999,9",,,,,,"10240,1,99999,9",,,,"MET060METAR ZSSS 030830Z 35002MPS 290V020 CAVOK 13/01 Q1024 NOSIG="
"58367099999","2022-01-03T09:00:00","4","31.197875","121.336319","3.04","HONGQIAO INTERNATIONAL, CH","FM-15","99999","V020","360,1,V,0020,1","99999,9,9,Y","009900,5,9,9","+0130,1","+0010,1","99999,9",,,,,,"10240,1,99999,9",,,,"MET060METAR ZSSS 030900Z 36002MPS 330V030 CAVOK 13/01 Q1024 NOSIG="
"58367099999","2022-01-03T09:30:00","4","31.197875","121.336319","3.04","HONGQIAO INTERNATIONAL, CH","FM-15","99999","V020","340,1,N,0020,1","99999,9,9,Y","009900,5,9,9","+0120,1","+0010,1","99999,9",,,,,,"10250,1,99999,9",,,,"MET052METAR ZSSS 030930Z 34002MPS CAVOK 12/01 Q1025 NOSIG="
"58367099999","2022-01-03T10:00:00","4","31.197875","121.336319","3.04","HONGQIAO INTERNATIONAL, CH","FM-15","99999","V020","350,1,V,0020,1","99999,9,9,Y","009900,5,9,9","+0110,1","+0030,1","99999,9",,,,,,"10250,1,99999,9",,,,"MET060METAR ZSSS 031000Z 35002MPS 300V020 CAVOK 11/03 Q1025 NOSIG="
"58367099999","2022-01-03T10:30:00","4","31.197875","121.336319","3.04","HONGQIAO INTERNATIONAL, CH","FM-15","99999","V020","130,1,N,0030,1","99999,9,9,Y","009900,5,9,9","+0110,1","+0030,1","99999,9",,,,,,"10250,1,99999,9",,,,"MET052METAR ZSSS 031030Z 13003MPS CAVOK 11/03 Q1025 NOSIG="
"58367099999","2022-01-03T11:00:00","4","31.197875","121.336319","3.04","HONGQIAO INTERNATIONAL, CH","FM-15","99999","V020","100,1,N,0020,1","99999,9,9,Y","009900,5,9,9","+0110,1","+0030,1","99999,9",,,,,,"10250,1,99999,9",,,,"MET052METAR ZSSS 031100Z 10002MPS CAVOK 11/03 Q1025 NOSIG="
"58367099999","2022-01-03T11:30:00","4","31.197875","121.336319","3.04","HONGQIAO INTERNATIONAL, CH","FM-15","99999","V020","140,1,V,0020,1","99999,9,9,Y","009900,5,9,9","+0100,1","+0040,1","99999,9",,,,,,"10250,1,99999,9",,,,"MET060METAR ZSSS 031130Z 14002MPS 100V160 CAVOK 10/04 Q1025 NOSIG="
"58367099999","2022-01-03T12:00:00","4","31.197875","121.336319","3.04","HONGQIAO INTERNATIONAL, CH","FM-15","99999","V020","150,1,N,0020,1","99999,9,9,Y","009900,5,9,9","+0100,1","+0040,1","99999,9",,,,,,"10260,1,99999,9",,,,"MET052METAR ZSSS 031200Z 15002MPS CAVOK 10/04 Q1026 NOSIG="
"58367099999","2022-01-03T12:30:00","4","31.197875","121.336319","3.04","HONGQIAO INTERNATIONAL, CH","FM-15","99999","V020","150,1,N,0030,1","99999,9,9,Y","009900,5,9,9","+0090,1","+0040,1","99999,9",,,,,,"10260,1,99999,9",,,,"MET052METAR ZSSS 031230Z 15003MPS CAVOK 09/04 Q1026 NOSIG="
"58367099999","2022-01-03T13:00:00","4","31.197875","121.336319","3.04","HONGQIAO INTERNATIONAL, CH","FM-15","99999","V020","150,1,V,0020,1","99999,9,9,Y","009900,5,9,9","+0080,1","+0040,1","99999,9",,,,,,"10260,1,99999,9",,,,"MET060METAR ZSSS 031300Z 15002MPS 110V200 CAVOK 08/04 Q1026 NOSIG="
"58367099999","2022-01-03T13:30:00","4","31.197875","121.336319","3.04","HONGQIAO INTERNATIONAL, CH","FM-15","99999","V020","130,1,N,0010,1","99999,9,9,Y","009900,5,9,9","+0090,1","+0040,1","99999,9",,,,,,"10260,1,99999,9",,,,"MET052METAR ZSSS 031330Z 13001MPS CAVOK 09/04 Q1026 NOSIG="
"58367099999","2022-01-03T14:00:00","4","31.197875","121.336319","3.04","HONGQIAO INTERNATIONAL, CH","FM-15","99999","V020","120,1,V,0020,1","99999,9,9,Y","009900,5,9,9","+0090,1","+0040,1","99999,9",,,,,,"10260,1,99999,9",,,,"MET060METAR ZSSS 031400Z 12002MPS 090V150 CAVOK 09/04 Q1026 NOSIG="
"58367099999","2022-01-03T14:30:00","4","31.197875","121.336319","3.04","HONGQIAO INTERNATIONAL, CH","FM-15","99999","V020","120,1,V,0020,1","99999,9,9,Y","009900,5,9,9","+0080,1","+0040,1","99999,9",,,,,,"10260,1,99999,9",,,,"MET060METAR ZSSS 031430Z 12002MPS 090V150 CAVOK 08/04 Q1026 NOSIG="
"58367099999","2022-01-03T15:00:00","4","31.197875","121.336319","3.04","HONGQIAO INTERNATIONAL, CH","FM-15","99999","V020","120,1,N,0020,1","99999,9,9,Y","009900,5,9,9","+0080,1","+0040,1","99999,9",,,,,,"10260,1,99999,9",,,,"MET052METAR ZSSS 031500Z 12002MPS CAVOK 08/04 Q1026 NOSIG="
"58367099999","2022-01-03T15:30:00","4","31.197875","121.336319","3.04","HONGQIAO INTERNATIONAL, CH","FM-15","99999","V020","999,9,V,0010,1","99999,9,9,Y","009900,5,9,9","+0080,1","+0050,1","99999,9",,,,,,"10260,1,99999,9",,,,"MET052METAR ZSSS 031530Z VRB01MPS CAVOK 08/05 Q1026 NOSIG="
"58367099999","2022-01-03T16:00:00","4","31.197875","121.336319","3.04","HONGQIAO INTERNATIONAL, CH","FM-15","99999","V020","999,9,C,0000,1","99999,9,9,Y","009900,5,9,9","+0070,1","+0040,1","99999,9",,,,,,"10260,1,99999,9",,,,"MET052METAR ZSSS 031600Z 00000MPS CAVOK 07/04 Q1026 NOSIG="
"58367099999","2022-01-03T16:30:00","4","31.197875","121.336319","3.04","HONGQIAO INTERNATIONAL, CH","FM-15","99999","V020","999,9,V,0010,1","99999,9,9,Y","009900,5,9,9","+0050,1","+0030,1","99999,9",,,,,,"10260,1,99999,9",,,,"MET052METAR ZSSS 031630Z VRB01MPS CAVOK 05/03 Q1026 NOSIG="
"58367099999","2022-01-03T17:00:00","4","31.197875","121.336319","3.04","HONGQIAO INTERNATIONAL, CH","FM-15","99999","V020","340,1,N,0010,1","99999,9,9,Y","009900,5,9,9","+0050,1","+0030,1","99999,9",,,,,,"10260,1,99999,9",,,,"MET052METAR ZSSS 031700Z 34001MPS CAVOK 05/03 Q1026 NOSIG="
"58367099999","2022-01-03T17:30:00","4","31.197875","121.336319","3.04","HONGQIAO INTERNATIONAL, CH","FM-15","99999","V020","999,9,C,0000,1","99999,9,9,Y","009900,5,9,9","+0050,1","+0030,1","99999,9",,,,,,"10260,1,99999,9",,,,"MET052METAR ZSSS 031730Z 00000MPS CAVOK 05/03 Q1026 NOSIG="
"58367099999","2022-01-03T18:00:00","4","31.197875","121.336319","3.04","HONGQIAO INTERNATIONAL, CH","FM-15","99999","V020","010,1,N,0010,1","99999,9,9,Y","009900,5,9,9","+0040,1","+0030,1","99999,9",,,,,,"10260,1,99999,9",,,,"MET052METAR ZSSS 031800Z 01001MPS CAVOK 04/03 Q1026 NOSIG="
"58367099999","2022-01-03T18:30:00","4","31.197875","121.336319","3.04","HONGQIAO INTERNATIONAL, CH","FM-15","99999","V020","020,1,N,0010,1","22000,1,9,N","008000,1,9,9","+0040,1","+0020,1","99999,9",,,,,"00,99,1,99,9,99,9,99999,9,99,9,99,9","10260,1,99999,9",,,,"MET055METAR ZSSS 031830Z 02001MPS 8000 NSC 04/02 Q1026 NOSIG="
"58367099999","2022-01-03T19:00:00","4","31.197875","121.336319","3.04","HONGQIAO INTERNATIONAL, CH","FM-15","99999","V020","360,1,N,0010,1","22000,1,9,N","006000,1,9,9","+0040,1","+0030,1","99999,9",,,,,"00,99,1,99,9,99,9,99999,9,99,9,99,9","10260,1,99999,9",,,,"MET055METAR ZSSS 031900Z 36001MPS 6000 NSC 04/03 Q1026 NOSIG="
"58367099999","2022-01-03T19:30:00","4","31.197875","121.336319","3.04","HONGQIAO INTERNATIONAL, CH","FM-15","99999","V020","010,1,N,0010,1","22000,1,9,N","006000,1,9,9","+0040,1","+0030,1","99999,9",,,,,"00,99,1,99,9,99,9,99999,9,99,9,99,9","10260,1,99999,9",,,,"MET055METAR ZSSS 031930Z 01001MPS 6000 NSC 04/03 Q1026 NOSIG="
"58367099999","2022-01-03T20:00:00","4","31.197875","121.336319","3.04","HONGQIAO INTERNATIONAL, CH","FM-15","99999","V020","999,9,C,0000,1","22000,1,9,N","006000,1,9,9","+0040,1","+0030,1","99999,9",,,,,"00,99,1,99,9,99,9,99999,9,99,9,99,9","10260,1,99999,9",,,,"MET055METAR ZSSS 032000Z 00000MPS 6000 NSC 04/03 Q1026 NOSIG="
"58367099999","2022-01-03T20:30:00","4","31.197875","121.336319","3.04","HONGQIAO INTERNATIONAL, CH","FM-15","99999","V020","999,9,C,0000,1","22000,1,9,N","004000,1,9,9","+0040,1","+0030,1","99999,9","36,R,9999,9",,,,"00,99,1,99,9,99,9,99999,9,99,9,99,9","10260,1,99999,9","10,1",,,"MET085METAR ZSSS 032030Z 00000MPS 4000 R36R/1300N R36L/1300V1900D BR NSC 04/03 Q1026 NOSIG="
"58367099999","2022-01-03T21:00:00","4","31.197875","121.336319","3.04","HONGQIAO INTERNATIONAL, CH","FM-15","99999","V020","020,1,N,0010,1","22000,1,9,N","004000,1,9,9","+0030,1","+0030,1","99999,9",,,,,"00,99,1,99,9,99,9,99999,9,99,9,99,9","10260,1,99999,9","10,1",,,"MET058METAR ZSSS 032100Z 02001MPS 4000 BR NSC 03/03 Q1026 NOSIG="
"58367099999","2022-01-03T21:30:00","4","31.197875","121.336319","3.04","HONGQIAO INTERNATIONAL, CH","FM-15","99999","V020","360,1,N,0020,1","22000,1,9,N","004000,1,9,9","+0030,1","+0020,1","99999,9",,,,,"00,99,1,99,9,99,9,99999,9,99,9,99,9","10270,1,99999,9","10,1",,,"MET058METAR ZSSS 032130Z 36002MPS 4000 BR NSC 03/02 Q1027 NOSIG="
"58367099999","2022-01-03T22:00:00","4","31.197875","121.336319","3.04","HONGQIAO INTERNATIONAL, CH","FM-15","99999","V020","360,1,N,0020,1","22000,1,9,N","004000,1,9,9","+0030,1","+0020,1","99999,9",,,,,"00,99,1,99,9,99,9,99999,9,99,9,99,9","10270,1,99999,9","10,1",,,"MET058METAR ZSSS 032200Z 36002MPS 4000 BR NSC 03/02 Q1027 NOSIG="
"58367099999","2022-01-03T22:30:00","4","31.197875","121.336319","3.04","HONGQIAO INTERNATIONAL, CH","FM-15","99999","V020","020,1,N,0030,1","22000,1,9,N","004000,1,9,9","+0030,1","+0020,1","99999,9",,,,,"00,99,1,99,9,99,9,99999,9,99,9,99,9","10270,1,99999,9","10,1",,,"MET058METAR ZSSS 032230Z 02003MPS 4000 BR NSC 03/02 Q1027 NOSIG="
"58367099999","2022-01-03T23:00:00","4","31.197875","121.336319","3.04","HONGQIAO INTERNATIONAL, CH","FM-15","99999","V020","340,1,N,0020,1","22000,1,9,N","004000,1,9,9","+0050,1","+0050,1","99999,9",,,,,"00,99,1,99,9,99,9,99999,9,99,9,99,9","10270,1,99999,9","10,1",,,"MET058METAR ZSSS 032300Z 34002MPS 4000 BR NSC 05/05 Q1027 NOSIG="
"58367099999","2022-01-03T23:30:00","4","31.197875","121.336319","3.04","HONGQIAO INTERNATIONAL, CH","FM-15","99999","V020","060,1,N,0020,1","22000,1,9,N","004000,1,9,9","+0060,1","+0060,1","99999,9",,,,,"00,99,1,99,9,99,9,99999,9,99,9,99,9","10270,1,99999,9","10,1",,,"MET058METAR ZSSS 032330Z 06002MPS 4000 BR NSC 06/06 Q1027 NOSIG="
"58367099999","2022-01-04T00:00:00","4","31.197875","121.336319","3.04","HONGQIAO INTERNATIONAL, CH","FM-15","99999","V020","010,1,N,0030,1","22000,1,9,N","004000,1,9,9","+0070,1","+0070,1","99999,9",,,,,"00,99,1,99,9,99,9,99999,9,99,9,99,9","10270,1,99999,9","10,1",,,"MET058METAR ZSSS 040000Z 01003MPS 4000 BR NSC 07/07 Q1027 NOSIG="
"58367099999","2022-01-04T00:30:00","4","31.197875","121.336319","3.04","HONGQIAO INTERNATIONAL, CH","FM-15","99999","V020","050,1,N,0030,1","22000,1,9,N","004000,1,9,9","+0090,1","+0080,1","99999,9",,,,,"00,99,1,99,9,99,9,99999,9,99,9,99,9","10270,1,99999,9","10,1",,,"MET058METAR ZSSS 040030Z 05003MPS 4000 BR NSC 09/08 Q1027 NOSIG="
"58367099999","2022-01-04T01:00:00","4","31.197875","121.336319","3.04","HONGQIAO INTERNATIONAL, CH","FM-15","99999","V020","060,1,N,0040,1","22000,1,9,N","005000,1,9,9","+0100,1","+0070,1","99999,9",,,,,"00,99,1,99,9,99,9,99999,9,99,9,99,9","10270,1,99999,9","10,1",,,"MET058METAR ZSSS 040100Z 06004MPS 5000 BR NSC 10/07 Q1027 NOSIG="
"58367099999","2022-01-04T01:30:00","4","31.197875","121.336319","3.04","HONGQIAO INTERNATIONAL, CH","FM-15","99999","V020","070,1,N,0050,1","22000,1,9,N","005000,1,9,9","+0110,1","+0070,1","99999,9",,,,,"00,99,1,99,9,99,9,99999,9,99,9,99,9","10270,1,99999,9","10,1",,,"MET058METAR ZSSS 040130Z 07005MPS 5000 BR NSC 11/07 Q1027 NOSIG="
"58367099999","2022-01-04T02:00:00","4","31.197875","121.336319","3.04","HONGQIAO INTERNATIONAL, CH","FM-15","99999","V020","070,1,N,0050,1","22000,1,9,N","006000,1,9,9","+0120,1","+0070,1","99999,9",,,,,"00,99,1,99,9,99,9,99999,9,99,9,99,9","10270,1,99999,9",,,,"MET055METAR ZSSS 040200Z 07005MPS 6000 NSC 12/07 Q1027 NOSIG="
"58367099999","2022-01-04T02:30:00","4","31.197875","121.336319","3.04","HONGQIAO INTERNATIONAL, CH","FM-15","99999","V020","080,1,N,0050,1","22000,1,9,N","006000,1,9,9","+0120,1","+0060,1","99999,9",,,,,"00,99,1,99,9,99,9,99999,9,99,9,99,9","10270,1,99999,9",,,,"MET055METAR ZSSS 040230Z 08005MPS 6000 NSC 12/06 Q1027 NOSIG="
"58367099999","2022-01-04T03:00:00","4","31.197875","121.336319","3.04","HONGQIAO INTERNATIONAL, CH","FM-15","99999","V020","080,1,V,0040,1","22000,1,9,N","008000,1,9,9","+0130,1","+0060,1","99999,9",,,,,"00,99,1,99,9,99,9,99999,9,99,9,99,9","10270,1,99999,9",,,,"MET063METAR ZSSS 040300Z 08004MPS 050V110 8000 NSC 13/06 Q1027 NOSIG="
"58367099999","2022-01-04T03:30:00","4","31.197875","121.336319","3.04","HONGQIAO INTERNATIONAL, CH","FM-15","99999","V020","100,1,V,0050,1","00701,1,C,N","009999,1,9,9","+0130,1","+0060,1","99999,9",,"07,1,+00701,1,99,9",,"9,AGL   ,+99999,+99999","99,99,9,07,1,99,9,00701,1,99,9,99,9","10260,1,99999,9",,,,"MET066METAR ZSSS 040330Z 10005MPS 060V130 9999 BKN023 13/06 Q1026 NOSIG="
"58367099999","2022-01-04T04:00:00","4","31.197875","121.336319","3.04","HONGQIAO INTERNATIONAL, CH","FM-15","99999","V020","100,1,V,0050,1","99999,9,9,N","009999,1,9,9","+0130,1","+0060,1","99999,9",,"04,1,+00792,1,99,9",,"9,AGL   ,+99999,+99999","99,99,9,04,1,99,9,00792,1,99,9,99,9","10260,1,99999,9",,,,"MET066METAR ZSSS 040400Z 10005MPS 060V130 9999 SCT026 13/06 Q1026 NOSIG="
"58367099999","2022-01-04T04:30:00","4","31.197875","121.336319","3.04","HONGQIAO INTERNATIONAL, CH","FM-15","99999","V020","100,1,N,0040,1","00792,1,C,N","009999,1,9,9","+0130,1","+0060,1","99999,9",,"07,1,+00792,1,99,9",,"9,AGL   ,+99999,+99999","99,99,9,07,1,99,9,00792,1,99,9,99,9","10250,1,99999,9",,,,"MET058METAR ZSSS 040430Z 10004MPS 9999 BKN026 13/06 Q1025 NOSIG="
"58367099999","2022-01-04T05:00:00","4","31.197875","121.336319","3.04","HONGQIAO INTERNATIONAL, CH","FM-15","99999","V020","090,1,V,0040,1","99999,9,9,N","009999,1,9,9","+0140,1","+0060,1","99999,9",,"04,1,+00792,1,99,9",,"9,AGL   ,+99999,+99999","99,99,9,04,1,99,9,00792,1,99,9,99,9","10250,1,99999,9",,,,"MET066METAR ZSSS 040500Z 09004MPS 060V120 9999 SCT026 14/06 Q1025 NOSIG="
"58367099999","2022-01-04T05:30:00","4","31.197875","121.336319","3.04","HONGQIAO INTERNATIONAL, CH","FM-15","99999","V020","090,1,N,0050,1","99999,9,9,N","009999,1,9,9","+0140,1","+0060,1","99999,9",,"04,1,+00792,1,99,9",,"9,AGL   ,+99999,+99999","99,99,9,04,1,99,9,00792,1,99,9,99,9","10240,1,99999,9",,,,"MET058METAR ZSSS 040530Z 09005MPS 9999 SCT026 14/06 Q1024 NOSIG="
"58367099999","2022-01-04T06:00:00","4","31.197875","121.336319","3.04","HONGQIAO INTERNATIONAL, CH","FM-15","99999","V020","100,1,V,0050,1","99999,9,9,N","009999,1,9,9","+0130,1","+0060,1","99999,9",,"04,1,+00792,1,99,9",,"9,AGL   ,+99999,+99999","99,99,9,04,1,99,9,00792,1,99,9,99,9","10240,1,99999,9",,,,"MET066METAR ZSSS 040600Z 10005MPS 060V130 9999 SCT026 13/06 Q1024 NOSIG="
"58367099999","2022-01-04T06:30:00","4","31.197875","121.336319","3.04","HONGQIAO INTERNATIONAL, CH","FM-15","99999","V020","070,1,N,0050,1","99999,9,9,N","009999,1,9,9","+0130,1","+0060,1","99999,9",,"04,1,+00792,1,99,9",,"9,AGL   ,+99999,+99999","99,99,9,04,1,99,9,00792,1,99,9,99,9","10240,1,99999,9",,,,"MET058METAR ZSSS 040630Z 07005MPS 9999 SCT026 13/06 Q1024 NOSIG="
"58367099999","2022-01-04T07:00:00","4","31.197875","121.336319","3.04","HONGQIAO INTERNATIONAL, CH","FM-15","99999","V020","080,1,N,0050,1","99999,9,9,N","009999,1,9,9","+0130,1","+0060,1","99999,9",,"04,1,+00792,1,99,9",,"9,AGL   ,+99999,+99999","99,99,9,04,1,99,9,00792,1,99,9,99,9","10240,1,99999,9",,,,"MET058METAR ZSSS 040700Z 08005MPS 9999 SCT026 13/06 Q1024 NOSIG="
"58367099999","2022-01-04T07:30:00","4","31.197875","121.336319","3.04","HONGQIAO INTERNATIONAL, CH","FM-15","99999","V020","050,1,N,0050,1","00792,1,C,N","009999,1,9,9","+0120,1","+0060,1","99999,9",,"07,1,+00792,1,99,9",,"9,AGL   ,+99999,+99999","99,99,9,07,1,99,9,00792,1,99,9,99,9","10240,1,99999,9",,,,"MET058METAR ZSSS 040730Z 05005MPS 9999 BKN026 12/06 Q1024 NOSIG="
"58367099999","2022-01-04T08:00:00","4","31.197875","121.336319","3.04","HONGQIAO INTERNATIONAL, CH","FM-15","99999","V020","070,1,N,0050,1","00792,1,C,N","009999,1,9,9","+0120,1","+0060,1","99999,9",,"07,1,+00792,1,99,9",,"9,AGL   ,+99999,+99999","99,99,9,07,1,99,9,00792,1,99,9,99,9","10240,1,99999,9",,,,"MET058METAR ZSSS 040800Z 07005MPS 9999 BKN026 12/06 Q1024 NOSIG="
"58367099999","2022-01-04T08:30:00","4","31.197875","121.336319","3.04","HONGQIAO INTERNATIONAL, CH","FM-15","99999","V020","080,1,V,0050,1","99999,9,9,N","009999,1,9,9","+0120,1","+0060,1","99999,9",,"04,1,+00792,1,99,9",,"9,AGL   ,+99999,+99999","99,99,9,04,1,99,9,00792,1,99,9,99,9","10240,1,99999,9",,,,"MET066METAR ZSSS 040830Z 08005MPS 050V110 9999 SCT026 12/06 Q1024 NOSIG="
"58367099999","2022-01-04T09:00:00","4","31.197875","121.336319","3.04","HONGQIAO INTERNATIONAL, CH","FM-15","99999","V020","080,1,N,0060,1","99999,9,9,N","009999,1,9,9","+0120,1","+0060,1","99999,9",,"04,1,+00792,1,99,9",,"9,AGL   ,+99999,+99999","99,99,9,04,1,99,9,00792,1,99,9,99,9","10240,1,99999,9",,,,"MET058METAR ZSSS 040900Z 08006MPS 9999 SCT026 12/06 Q1024 NOSIG="
"58367099999","2022-01-04T09:30:00","4","31.197875","121.336319","3.04","HONGQIAO INTERNATIONAL, CH","FM-15","99999","V020","080,1,V,0050,1","99999,9,9,N","009999,1,9,9","+0120,1","+0060,1","99999,9",,"04,1,+00792,1,99,9",,"9,AGL   ,+99999,+99999","99,99,9,04,1,99,9,00792,1,99,9,99,9","10240,1,99999,9",,,,"MET066METAR ZSSS 040930Z 08005MPS 060V120 9999 SCT026 12/06 Q1024 NOSIG="
"58367099999","2022-01-04T10:00:00","4","31.197875","121.336319","3.04","HONGQIAO INTERNATIONAL, CH","FM-15","99999","V020","080,1,V,0040,1","99999,9,9,N","009999,1,9,9","+0120,1","+0060,1","99999,9",,"04,1,+00792,1,99,9",,"9,AGL   ,+99999,+99999","99,99,9,04,1,99,9,00792,1,99,9,99,9","10250,1,99999,9",,,,"MET066METAR ZSSS 041000Z 08004MPS 060V120 9999 SCT026 12/06 Q1025 NOSIG="
"58367099999","2022-01-04T10:30:00","4","31.197875","121.336319","3.04","HONGQIAO INTERNATIONAL, CH","FM-15","99999","V020","090,1,V,0050,1","99999,9,9,N","009999,1,9,9","+0120,1","+0060,1","99999,9",,"04,1,+00914,1,99,9",,"9,AGL   ,+99999,+99999","99,99,9,04,1,99,9,00914,1,99,9,99,9","10250,1,99999,9",,,,"MET066METAR ZSSS 041030Z 09005MPS 060V120 9999 SCT030 12/06 Q1025 NOSIG="
"58367099999","2022-01-04T11:00:00","4","31.197875","121.336319","3.04","HONGQIAO INTERNATIONAL, CH","FM-15","99999","V020","090,1,N,0060,1","99999,9,9,N","009999,1,9,9","+0110,1","+0060,1","99999,9",,"04,1,+00914,1,99,9",,"9,AGL   ,+99999,+99999","99,99,9,04,1,99,9,00914,1,99,9,99,9","10250,1,99999,9",,,,"MET058METAR ZSSS 041100Z 09006MPS 9999 SCT030 11/06 Q1025 NOSIG="
"58367099999","2022-01-04T11:30:00","4","31.197875","121.336319","3.04","HONGQIAO INTERNATIONAL, CH","FM-15","99999","V020","090,1,V,0050,1","00914,1,C,N","009999,1,9,9","+0110,1","+0060,1","99999,9",,"08,1,+00914,1,99,9",,"9,AGL   ,+99999,+99999","99,99,9,08,1,99,9,00914,1,99,9,99,9","10250,1,99999,9","61,1",,,"MET070METAR ZSSS 041130Z 09005MPS 070V130 9999 -RA OVC030 11/06 Q1025 NOSIG="
"58367099999","2022-01-04T12:00:00","4","31.197875","121.336319","3.04","HONGQIAO INTERNATIONAL, CH","FM-15","99999","V020","090,1,V,0050,1","00914,1,C,N","009999,1,9,9","+0110,1","+0070,1","99999,9",,"08,1,+00914,1,99,9",,"9,AGL   ,+99999,+99999","99,99,9,08,1,99,9,00914,1,99,9,99,9","10250,1,99999,9","61,1",,,"MET070METAR ZSSS 041200Z 09005MPS 060V120 9999 -RA OVC030 11/07 Q1025 NOSIG="
"58367099999","2022-01-04T12:30:00","4","31.197875","121.336319","3.04","HONGQIAO INTERNATIONAL, CH","FM-15","99999","V020","100,1,N,0060,1","00914,1,C,N","009999,1,9,9","+0110,1","+0070,1","99999,9",,"08,1,+00914,1,99,9",,"9,AGL   ,+99999,+99999","99,99,9,08,1,99,9,00914,1,99,9,99,9","10240,1,99999,9","61,1",,,"MET062METAR ZSSS 041230Z 10006MPS 9999 -RA OVC030 11/07 Q1024 NOSIG="
"58367099999","2022-01-04T13:00:00","4","31.197875","121.336319","3.04","HONGQIAO INTERNATIONAL, CH","FM-15","99999","V020","100,1,N,0060,1","00914,1,C,N","009999,1,9,9","+0110,1","+0070,1","99999,9",,"08,1,+00914,1,99,9",,"9,AGL   ,+99999,+99999","99,99,9,08,1,99,9,00914,1,99,9,99,9","10240,1,99999,9",,,,"MET058METAR ZSSS 041300Z 10006MPS 9999 OVC030 11/07 Q1024 NOSIG="
"58367099999","2022-01-04T13:30:00","4","31.197875","121.336319","3.04","HONGQIAO INTERNATIONAL, CH","FM-15","99999","V020","110,1,N,0060,1","00914,1,C,N","009999,1,9,9","+0110,1","+0070,1","99999,9",,"07,1,+00914,1,99,9",,"9,AGL   ,+99999,+99999","99,99,9,07,1,99,9,00914,1,99,9,99,9","10250,1,99999,9",,,,"MET058METAR ZSSS 041330Z 11006MPS 9999 BKN030 11/07 Q1025 NOSIG="
"58367099999","2022-01-04T14:00:00","4","31.197875","121.336319","3.04","HONGQIAO INTERNATIONAL, CH","FM-15","99999","V020","110,1,N,0060,1","00914,1,C,N","009999,1,9,9","+0110,1","+0070,1","99999,9",,"07,1,+00914,1,99,9",,"9,AGL   ,+99999,+99999","99,99,9,07,1,99,9,00914,1,99,9,99,9","10240,1,99999,9",,,,"MET058METAR ZSSS 041400Z 11006MPS 9999 BKN030 11/07 Q1024 NOSIG="
"58367099999","2022-01-04T14:30:00","4","31.197875","121.336319","3.04","HONGQIAO INTERNATIONAL, CH","FM-15","99999","V020","110,1,N,0060,1","00914,1,C,N","009999,1,9,9","+0110,1","+0060,1","99999,9",,"07,1,+00914,1,99,9",,"9,AGL   ,+99999,+99999","99,99,9,07,1,99,9,00914,1,99,9,99,9","10240,1,99999,9",,,,"MET058METAR ZSSS 041430Z 11006MPS 9999 BKN030 11/06 Q1024 NOSIG="
"58367099999","2022-01-04T15:00:00","4","31.197875","121.336319","3.04","HONGQIAO INTERNATIONAL, CH","FM-15","99999","V020","110,1,N,0060,1","01219,1,C,N","009999,1,9,9","+0110,1","+0060,1","99999,9",,"07,1,+01219,1,99,9",,"9,AGL   ,+99999,+99999","99,99,9,07,1,99,9,01219,1,99,9,99,9","10240,1,99999,9",,,,"MET058METAR ZSSS 041500Z 11006MPS 9999 BKN040 11/06 Q1024 NOSIG="
"58367099999","2022-01-04T15:30:00","4","31.197875","121.336319","3.04","HONGQIAO INTERNATIONAL, CH","FM-15","99999","V020","110,1,N,0060,1","01219,1,C,N","009999,1,9,9","+0110,1","+0060,1","99999,9",,"07,1,+01219,1,99,9",,"9,AGL   ,+99999,+99999","99,99,9,07,1,99,9,01219,1,99,9,99,9","10230,1,99999,9",,,,"MET058METAR ZSSS 041530Z 11006MPS 9999 BKN040 11/06 Q1023 NOSIG="
"58367099999","2022-01-04T16:00:00","4","31.197875","121.336319","3.04","HONGQIAO INTERNATIONAL, CH","FM-15","99999","V020","100,1,N,0040,1","00914,1,C,N","009999,1,9,9","+0110,1","+0060,1","99999,9",,"08,1,+00914,1,99,9",,"9,AGL   ,+99999,+99999","99,99,9,08,1,99,9,00914,1,99,9,99,9","10230,1,99999,9","61,1",,,"MET062METAR ZSSS 041600Z 10004MPS 9999 -RA OVC030 11/06 Q1023 NOSIG="
"58367099999","2022-01-04T16:30:00","4","31.197875","121.336319","3.04","HONGQIAO INTERNATIONAL, CH","FM-15","99999","V020","100,1,N,0050,1","00914,1,C,N","009999,1,9,9","+0110,1","+0070,1","99999,9",,"08,1,+00914,1,99,9",,"9,AGL   ,+99999,+99999","99,99,9,08,1,99,9,00914,1,99,9,99,9","10230,1,99999,9","61,1",,,"MET062METAR ZSSS 041630Z 10005MPS 9999 -RA OVC030 11/07 Q1023 NOSIG="
"58367099999","2022-01-04T17:00:00","4","31.197875","121.336319","3.04","HONGQIAO INTERNATIONAL, CH","FM-15","99999","V020","110,1,N,0060,1","00914,1,C,N","009999,1,9,9","+0110,1","+0070,1","99999,9",,"08,1,+00914,1,99,9",,"9,AGL   ,+99999,+99999","99,99,9,08,1,99,9,00914,1,99,9,99,9","10220,1,99999,9","61,1",,,"MET062METAR ZSSS 041700Z 11006MPS 9999 -RA OVC030 11/07 Q1022 NOSIG="
"58367099999","2022-01-04T17:30:00","4","31.197875","121.336319","3.04","HONGQIAO INTERNATIONAL, CH","FM-15","99999","V020","110,1,V,0050,1","00914,1,C,N","009999,1,9,9","+0110,1","+0070,1","99999,9",,"08,1,+00914,1,99,9",,"9,AGL   ,+99999,+99999","99,99,9,08,1,99,9,00914,1,99,9,99,9","10220,1,99999,9",,,,"MET066METAR ZSSS 041730Z 11005MPS 070V130 9999 OVC030 11/07 Q1022 NOSIG="
"58367099999","2022-01-04T18:00:00","4","31.197875","121.336319","3.04","HONGQIAO INTERNATIONAL, CH","FM-15","99999","V020","110,1,N,0040,1","00914,1,C,N","009999,1,9,9","+0110,1","+0070,1","99999,9",,"07,1,+00914,1,99,9",,"9,AGL   ,+99999,+99999","99,99,9,07,1,99,9,00914,1,99,9,99,9","10220,1,99999,9",,,,"MET058METAR ZSSS 041800Z 11004MPS 9999 BKN030 11/07 Q1022 NOSIG="
"58367099999","2022-01-04T18:30:00","4","31.197875","121.336319","3.04","HONGQIAO INTERNATIONAL, CH","FM-15","99999","V020","110,1,N,0040,1","00914,1,C,N","009999,1,9,9","+0110,1","+0070,1","99999,9",,"07,1,+00914,1,99,9",,"9,AGL   ,+99999,+99999","99,99,9,07,1,99,9,00914,1,99,9,99,9","10220,1,99999,9",,,,"MET058METAR ZSSS 041830Z 11004MPS 9999 BKN030 11/07 Q1022 NOSIG="
"58367099999","2022-01-04T19:00:00","4","31.197875","121.336319","3.04","HONGQIAO INTERNATIONAL, CH","FM-15","99999","V020","110,1,N,0050,1","00914,1,C,N","009999,1,9,9","+0110,1","+0070,1","99999,9",,"07,1,+00914,1,99,9",,"9,AGL   ,+99999,+99999","99,99,9,07,1,99,9,00914,1,99,9,99,9","10210,1,99999,9",,,,"MET058METAR ZSSS 041900Z 11005MPS 9999 BKN030 11/07 Q1021 NOSIG="
"58367099999","2022-01-04T19:30:00","4","31.197875","121.336319","3.04","HONGQIAO INTERNATIONAL, CH","FM-15","99999","V020","110,1,N,0060,1","00914,1,C,N","009999,1,9,9","+0110,1","+0060,1","99999,9",,"07,1,+00914,1,99,9",,"9,AGL   ,+99999,+99999","99,99,9,07,1,99,9,00914,1,99,9,99,9","10210,1,99999,9",,,,"MET058METAR ZSSS 041930Z 11006MPS 9999 BKN030 11/06 Q1021 NOSIG="
"58367099999","2022-01-04T20:00:00","4","31.197875","121.336319","3.04","HONGQIAO INTERNATIONAL, CH","FM-15","99999","V020","110,1,N,0060,1","00914,1,C,N","009999,1,9,9","+0110,1","+0060,1","99999,9",,"07,1,+00914,1,99,9",,"9,AGL   ,+99999,+99999","99,99,9,07,1,99,9,00914,1,99,9,99,9","10210,1,99999,9",,,,"MET058METAR ZSSS 042000Z 11006MPS 9999 BKN030 11/06 Q1021 NOSIG="
"58367099999","2022-01-04T20:30:00","4","31.197875","121.336319","3.04","HONGQIAO INTERNATIONAL, CH","FM-15","99999","V020","120,1,V,0060,1","00914,1,C,N","009999,1,9,9","+0110,1","+0060,1","99999,9",,"07,1,+00914,1,99,9",,"9,AGL   ,+99999,+99999","99,99,9,07,1,99,9,00914,1,99,9,99,9","10210,1,99999,9",,,,"MET066METAR ZSSS 042030Z 12006MPS 090V150 9999 BKN030 11/06 Q1021 NOSIG="
"58367099999","2022-01-04T21:00:00","4","31.197875","121.336319","3.04","HONGQIAO INTERNATIONAL, CH","FM-15","99999","V020","110,1,N,0050,1","00914,1,C,N","009999,1,9,9","+0110,1","+0060,1","99999,9",,"07,1,+00914,1,99,9",,"9,AGL   ,+99999,+99999","99,99,9,07,1,99,9,00914,1,99,9,99,9","10200,1,99999,9",,,,"MET058METAR ZSSS 042100Z 11005MPS 9999 BKN030 11/06 Q1020 NOSIG="
"58367099999","2022-01-04T21:30:00","4","31.197875","121.336319","3.04","HONGQIAO INTERNATIONAL, CH","FM-15","99999","V020","110,1,N,0050,1","00914,1,C,N","009999,1,9,9","+0110,1","+0060,1","99999,9",,"07,1,+00914,1,99,9",,"9,AGL   ,+99999,+99999","99,99,9,07,1,99,9,00914,1,99,9,99,9","10210,1,99999,9",,,,"MET058METAR ZSSS 042130Z 11005MPS 9999 BKN030 11/06 Q1021 NOSIG="
"58367099999","2022-01-04T22:00:00","4","31.197875","121.336319","3.04","HONGQIAO INTERNATIONAL, CH","FM-15","99999","V020","110,1,N,0060,1","00914,1,C,N","009999,1,9,9","+0120,1","+0070,1","99999,9",,"07,1,+00914,1,99,9",,"9,AGL   ,+99999,+99999","99,99,9,07,1,99,9,00914,1,99,9,99,9","10210,1,99999,9",,,,"MET058METAR ZSSS 042200Z 11006MPS 9999 BKN030 12/07 Q1021 NOSIG="
"58367099999","2022-01-04T22:30:00","4","31.197875","121.336319","3.04","HONGQIAO INTERNATIONAL, CH","FM-15","99999","V020","110,1,N,0060,1","00914,1,C,N","009999,1,9,9","+0120,1","+0070,1","99999,9",,"07,1,+00914,1,99,9",,"9,AGL   ,+99999,+99999","99,99,9,07,1,99,9,00914,1,99,9,99,9","10200,1,99999,9",,,,"MET058METAR ZSSS 042230Z 11006MPS 9999 BKN030 12/07 Q1020 NOSIG="
"58367099999","2022-01-04T23:00:00","4","31.197875","121.336319","3.04","HONGQIAO INTERNATIONAL, CH","FM-15","99999","V020","100,1,N,0050,1","01006,1,C,N","009999,1,9,9","+0120,1","+0070,1","99999,9",,"08,1,+01006,1,99,9",,"9,AGL   ,+99999,+99999","99,99,9,08,1,99,9,01006,1,99,9,99,9","10200,1,99999,9",,,,"MET058METAR ZSSS 042300Z 10005MPS 9999 OVC033 12/07 Q1020 NOSIG="
"58367099999","2022-01-04T23:30:00","4","31.197875","121.336319","3.04","HONGQIAO INTERNATIONAL, CH","FM-15","99999","V020","100,1,N,0050,1","01006,1,C,N","009999,1,9,9","+0120,1","+0070,1","99999,9",,"08,1,+01006,1,99,9",,"9,AGL   ,+99999,+99999","99,99,9,08,1,99,9,01006,1,99,9,99,9","10210,1,99999,9",,,,"MET058METAR ZSSS 042330Z 10005MPS 9999 OVC033 12/07 Q1021 NOSIG="
"58367099999","2022-01-05T00:00:00","4","31.197875","121.336319","3.04","HONGQIAO INTERNATIONAL, CH","FM-15","99999","V020","110,1,V,0050,1","01006,1,C,N","009999,1,9,9","+0120,1","+0070,1","99999,9",,"08,1,+01006,1,99,9",,"9,AGL   ,+99999,+99999","99,99,9,08,1,99,9,01006,1,99,9,99,9","10210,1,99999,9",,,,"MET066METAR ZSSS 050000Z 11005MPS 070V130 9999 OVC033 12/07 Q1021 NOSIG="
"58367099999","2022-01-05T00:30:00","4","31.197875","121.336319","3.04","HONGQIAO INTERNATIONAL, CH","FM-15","99999","V020","110,1,V,0060,1","01006,1,C,N","009999,1,9,9","+0120,1","+0070,1","99999,9",,"08,1,+01006,1,99,9",,"9,AGL   ,+99999,+99999","99,99,9,08,1,99,9,01006,1,99,9,99,9","10210,1,99999,9","61,1",,,"MET070METAR ZSSS 050030Z 11006MPS 070V130 9999 -RA OVC033 12/07 Q1021 NOSIG="
"58367099999","2022-01-05T01:00:00","4","31.197875","121.336319","3.04","HONGQIAO INTERNATIONAL, CH","FM-15","99999","V020","100,1,N,0060,1","01006,1,C,N","009999,1,9,9","+0110,1","+0070,1","99999,9",,"08,1,+01006,1,99,9",,"9,AGL   ,+99999,+99999","99,99,9,08,1,99,9,01006,1,99,9,99,9","10200,1,99999,9","61,1",,,"MET076METAR ZSSS 050100Z 10006MPS 9999 -RA OVC033 11/07 Q1020 BECMG TL0240 BKN010="
"58367099999","2022-01-05T01:30:00","4","31.197875","121.336319","3.04","HONGQIAO INTERNATIONAL, CH","FM-15","99999","V020","090,1,N,0060,1","01006,1,9,N","009999,1,9,9","+0110,1","+0080,1","99999,9",,"02,1,+00488,1,99,9","08,1,+01006,1,99,9","9,AGL   ,+99999,+99999","99,99,9,02,1,99,9,00488,1,99,9,99,9","10200,1,99999,9",,,,"MET065METAR ZSSS 050130Z 09006MPS 9999 FEW016 OVC033 11/08 Q1020 NOSIG="
"58367099999","2022-01-05T02:00:00","4","31.197875","121.336319","3.04","HONGQIAO INTERNATIONAL, CH","FM-15","99999","V020","090,1,N,0060,1","00488,1,C,N","009999,1,9,9","+0110,1","+0080,1","99999,9",,"07,1,+00488,1,99,9","08,1,+01006,1,99,9","9,AGL   ,+99999,+99999","99,99,9,07,1,99,9,00488,1,99,9,99,9","10210,1,99999,9",,,,"MET084METAR ZSSS 050200Z 09006MPS 9999 BKN016 OVC033 11/08 Q1021 BECMG TL0350 SHRA BKN010="
"58367099999","2022-01-05T02:30:00","4","31.197875","121.336319","3.04","HONGQIAO INTERNATIONAL, CH","FM-15","99999","V020","080,1,N,0040,1","00488,1,C,N","009999,1,9,9","+0110,1","+0080,1","99999,9",,"07,1,+00488,1,99,9","08,1,+01006,1,99,9","9,AGL   ,+99999,+99999","99,99,9,07,1,99,9,00488,1,99,9,99,9","10210,1,99999,9","61,1",,,"MET069METAR ZSSS 050230Z 08004MPS 9999 -RA BKN016 OVC033 11/08 Q1021 NOSIG="
"58367099999","2022-01-05T03:00:00","4","31.197875","121.336319","3.04","HONGQIAO INTERNATIONAL, CH","FM-15","99999","V020","060,1,V,0030,1","00396,1,C,N","009999,1,9,9","+0100,1","+0090,1","99999,9",,"07,1,+00396,1,99,9","08,1,+01006,1,99,9","9,AGL   ,+99999,+99999","99,99,9,07,1,99,9,00396,1,99,9,99,9","10210,1,99999,9","61,1",,,"MET091METAR ZSSS 050300Z 06003MPS 030V090 9999 -RA BKN013 OVC033 10/09 Q1021 BECMG TL0450 BKN009="
"58367099999","2022-01-05T03:30:00","4","31.197875","121.336319","3.04","HONGQIAO INTERNATIONAL, CH","FM-15","99999","V020","040,1,V,0040,1","00335,1,C,N","007000,1,9,9","+0100,1","+0090,1","99999,9",,"07,1,+00335,1,99,9","08,1,+01006,1,99,9","9,AGL   ,+99999,+99999","99,99,9,07,1,99,9,00335,1,99,9,99,9","10210,1,99999,9","61,1",,,"MET077METAR ZSSS 050330Z 04004MPS 010V070 7000 -RA BKN011 OVC033 10/09 Q1021 NOSIG="
"58367099999","2022-01-05T04:00:00","4","31.197875","121.336319","3.04","HONGQIAO INTERNATIONAL, CH","FM-15","99999","V020","030,1,N,0050,1","00335,1,C,N","006000,1,9,9","+0100,1","+0090,1","99999,9",,"07,1,+00335,1,99,9","08,1,+01006,1,99,9","9,AGL   ,+99999,+99999","99,99,9,07,1,99,9,00335,1,99,9,99,9","10200,1,99999,9","61,1",,,"MET083METAR ZSSS 050400Z 03005MPS 6000 -RA BKN011 OVC033 10/09 Q1020 BECMG TL0450 BKN009="
"58367099999","2022-01-05T04:30:00","4","31.197875","121.336319","3.04","HONGQIAO INTERNATIONAL, CH","FM-15","99999","V020","060,1,N,0050,1","00274,1,C,N","007000,1,9,9","+0100,1","+0090,1","99999,9",,"07,1,+00274,1,99,9","08,1,+01006,1,99,9","9,AGL   ,+99999,+99999","99,99,9,07,1,99,9,00274,1,99,9,99,9","10200,1,99999,9","61,1",,,"MET069METAR ZSSS 050430Z 06005MPS 7000 -RA BKN009 OVC033 10/09 Q1020 NOSIG="
"58367099999","2022-01-05T05:00:00","4","31.197875","121.336319","3.04","HONGQIAO INTERNATIONAL, CH","FM-15","99999","V020","070,1,V,0040,1","00274,1,C,N","008000,1,9,9","+0100,1","+0090,1","99999,9",,"07,1,+00274,1,99,9","08,1,+01006,1,99,9","9,AGL   ,+99999,+99999","99,99,9,07,1,99,9,00274,1,99,9,99,9","10200,1,99999,9","61,1",,,"MET098METAR ZSSS 050500Z 07004MPS 030V110 8000 -RA BKN009 OVC033 10/09 Q1020 BECMG TL0640 BKN010 OVC040="
"58367099999","2022-01-05T05:30:00","4","31.197875","121.336319","3.04","HONGQIAO INTERNATIONAL, CH","FM-15","99999","V020","080,1,V,0050,1","00274,1,C,N","008000,1,9,9","+0100,1","+0090,1","99999,9",,"07,1,+00274,1,99,9","08,1,+01006,1,99,9","9,AGL   ,+99999,+99999","99,99,9,07,1,99,9,00274,1,99,9,99,9","10190,1,99999,9","61,1",,,"MET077METAR ZSSS 050530Z 08005MPS 060V120 8000 -RA BKN009 OVC033 10/09 Q1019 NOSIG="
"58367099999","2022-01-05T06:00:00","4","31.197875","121.336319","3.04","HONGQIAO INTERNATIONAL, CH","FM-15","99999","V020","050,1,V,0040,1","00274,1,C,N","008000,1,9,9","+0100,1","+0090,1","99999,9",,"07,1,+00274,1,99,9","08,1,+01006,1,99,9","9,AGL   ,+99999,+99999","99,99,9,07,1,99,9,00274,1,99,9,99,9","10190,1,99999,9","61,1",,,"MET098METAR ZSSS 050600Z 05004MPS 030V090 8000 -RA BKN009 OVC033 10/09 Q1019 BECMG TL0730 BKN011 OVC040="
"58367099999","2022-01-05T06:30:00","4","31.197875","121.336319","3.04","HONGQIAO INTERNATIONAL, CH","FM-15","99999","V020","040,1,V,0050,1","00274,1,C,N","009999,1,9,9","+0090,1","+0090,1","99999,9",,"07,1,+00274,1,99,9","08,1,+01006,1,99,9","9,AGL   ,+99999,+99999","99,99,9,07,1,99,9,00274,1,99,9,99,9","10200,1,99999,9","61,1",,,"MET077METAR ZSSS 050630Z 04005MPS 030V090 9999 -RA BKN009 OVC033 09/09 Q1020 NOSIG="
"58367099999","2022-01-05T07:00:00","4","31.197875","121.336319","3.04","HONGQIAO INTERNATIONAL, CH","FM-15","99999","V020","060,1,N,0050,1","00274,1,C,N","009999,1,9,9","+0100,1","+0090,1","99999,9",,"07,1,+00274,1,99,9","08,1,+01006,1,99,9","9,AGL   ,+99999,+99999","99,99,9,07,1,99,9,00274,1,99,9,99,9","10200,1,99999,9","61,1",,,"MET090METAR ZSSS 050700Z 06005MPS 9999 -RA BKN009 OVC033 10/09 Q1020 BECMG TL0850 BKN010 OVC040="
"58367099999","2022-01-05T07:30:00","4","31.197875","121.336319","3.04","HONGQIAO INTERNATIONAL, CH","FM-15","99999","V020","060,1,N,0050,1","00274,1,C,N","009999,1,9,9","+0100,1","+0080,1","99999,9",,"07,1,+00274,1,99,9","08,1,+01006,1,99,9","9,AGL   ,+99999,+99999","99,99,9,07,1,99,9,00274,1,99,9,99,9","10200,1,99999,9",,,,"MET065METAR ZSSS 050730Z 06005MPS 9999 BKN009 OVC033 10/08 Q1020 NOSIG="
"58367099999","2022-01-05T08:00:00","4","31.197875","121.336319","3.04","HONGQIAO INTERNATIONAL, CH","FM-15","99999","V020","360,1,N,0060,1","00244,1,C,N","009999,1,9,9","+0090,1","+0080,1","99999,9",,"07,1,+00244,1,99,9","08,1,+01006,1,99,9","9,AGL   ,+99999,+99999","99,99,9,07,1,99,9,00244,1,99,9,99,9","10220,1,99999,9","61,1",,,"MET090METAR ZSSS 050800Z 36006MPS 9999 -RA BKN008 OVC033 09/08 Q1022 BECMG TL0950 BKN010 OVC040="
"58367099999","2022-01-05T08:30:00","4","31.197875","121.336319","3.04","HONGQIAO INTERNATIONAL, CH","FM-15","99999","V020","020,1,N,0060,1","00213,1,C,N","006000,1,9,9","+0090,1","+0080,1","99999,9",,"07,1,+00213,1,99,9","08,1,+01006,1,99,9","9,AGL   ,+99999,+99999","99,99,9,07,1,99,9,00213,1,99,9,99,9","10220,1,99999,9","61,1",,,"MET069METAR ZSSS 050830Z 02006MPS 6000 -RA BKN007 OVC033 09/08 Q1022 NOSIG="
"58367099999","2022-01-05T09:00:00","4","31.197875","121.336319","3.04","HONGQIAO INTERNATIONAL, CH","FM-15","99999","V020","030,1,N,0060,1","00183,1,C,N","005000,1,9,9","+0080,1","+0080,1","99999,9",,"07,1,+00183,1,99,9","08,1,+01006,1,99,9","9,AGL   ,+99999,+99999","99,99,9,07,1,99,9,00183,1,99,9,99,9","10230,1,99999,9","10,1","61,1",,"MET072METAR ZSSS 050900Z 03006MPS 5000 -RA BR BKN006 OVC033 08/08 Q1023 NOSIG="
"58367099999","2022-01-05T09:30:00","4","31.197875","121.336319","3.04","HONGQIAO INTERNATIONAL, CH","FM-15","99999","V020","020,1,N,0080,1","00183,1,C,N","007000,1,9,9","+0080,1","+0070,1","99999,9",,"07,1,+00183,1,99,9","08,1,+01006,1,99,9","9,AGL   ,+99999,+99999","99,99,9,07,1,99,9,00183,1,99,9,99,9","10230,1,99999,9",,,,"MET065METAR ZSSS 050930Z 02008MPS 7000 BKN006 OVC033 08/07 Q1023 NOSIG="
"58367099999","2022-01-05T10:00:00","4","31.197875","121.336319","3.04","HONGQIAO INTERNATIONAL, CH","FM-15","99999","V020","030,1,N,0060,1","00244,1,C,N","008000,1,9,9","+0070,1","+0060,1","99999,9",,"07,1,+00244,1,99,9","08,1,+01006,1,99,9","9,AGL   ,+99999,+99999","99,99,9,07,1,99,9,00244,1,99,9,99,9","10240,1,99999,9","61,1",,,"MET090METAR ZSSS 051000Z 03006MPS 8000 -RA BKN008 OVC033 07/06 Q1024 BECMG TL1150 BKN010 OVC040="
"58367099999","2022-01-05T10:30:00","4","31.197875","121.336319","3.04","HONGQIAO INTERNATIONAL, CH","FM-15","99999","V020","030,1,N,0070,1","00274,1,C,N","009999,1,9,9","+0070,1","+0060,1","99999,9",,"07,1,+00274,1,99,9","08,1,+01006,1,99,9","9,AGL   ,+99999,+99999","99,99,9,07,1,99,9,00274,1,99,9,99,9","10240,1,99999,9",,,,"MET065METAR ZSSS 051030Z 03007MPS 9999 BKN009 OVC033 07/06 Q1024 NOSIG="
"58367099999","2022-01-05T11:00:00","4","31.197875","121.336319","3.04","HONGQIAO INTERNATIONAL, CH","FM-15","99999","V020","030,1,N,0060,1","00274,1,C,N","009999,1,9,9","+0070,1","+0060,1","99999,9",,"07,1,+00274,1,99,9","08,1,+01006,1,99,9","9,AGL   ,+99999,+99999","99,99,9,07,1,99,9,00274,1,99,9,99,9","10240,1,99999,9",,,,"MET086METAR ZSSS 051100Z 03006MPS 9999 BKN009 OVC033 07/06 Q1024 BECMG TL1130 BKN010 OVC040="
"58367099999","2022-01-05T11:30:00","4","31.197875","121.336319","3.04","HONGQIAO INTERNATIONAL, CH","FM-15","99999","V020","020,1,N,0060,1","00305,1,C,N","009999,1,9,9","+0070,1","+0060,1","99999,9",,"07,1,+00305,1,99,9","08,1,+01006,1,99,9","9,AGL   ,+99999,+99999","99,99,9,07,1,99,9,00305,1,99,9,99,9","10250,1,99999,9","61,1",,,"MET069METAR ZSSS 051130Z 02006MPS 9999 -RA BKN010 OVC033 07/06 Q1025 NOSIG="
"58367099999","2022-01-05T12:00:00","4","31.197875","121.336319","3.04","HONGQIAO INTERNATIONAL, CH","FM-15","99999","V020","020,1,N,0060,1","00305,1,C,N","009999,1,9,9","+0070,1","+0070,1","99999,9",,"07,1,+00305,1,99,9","08,1,+01006,1,99,9","9,AGL   ,+99999,+99999","99,99,9,07,1,99,9,00305,1,99,9,99,9","10250,1,99999,9","61,1",,,"MET083METAR ZSSS 051200Z 02006MPS 9999 -RA BKN010 OVC033 07/07 Q1025 BECMG TL1230 BKN009="
"58367099999","2022-01-05T12:30:00","4","31.197875","121.336319","3.04","HONGQIAO INTERNATIONAL, CH","FM-15","99999","V020","020,1,N,0060,1","00274,1,C,N","009999,1,9,9","+0070,1","+0060,1","99999,9",,"07,1,+00274,1,99,9","08,1,+01006,1,99,9","9,AGL   ,+99999,+99999","99,99,9,07,1,99,9,00274,1,99,9,99,9","10250,1,99999,9","61,1",,,"MET069METAR ZSSS 051230Z 02006MPS 9999 -RA BKN009 OVC033 07/06 Q1025 NOSIG="
"58367099999","2022-01-05T13:00:00","4","31.197875","121.336319","3.04","HONGQIAO INTERNATIONAL, CH","FM-15","99999","V020","030,1,N,0060,1","00274,1,C,N","009999,1,9,9","+0070,1","+0060,1","99999,9",,"07,1,+00274,1,99,9","08,1,+01006,1,99,9","9,AGL   ,+99999,+99999","99,99,9,07,1,99,9,00274,1,99,9,99,9","10250,1,99999,9","61,1",,,"MET090METAR ZSSS 051300Z 03006MPS 9999 -RA BKN009 OVC033 07/06 Q1025 BECMG TL1430 BKN011 OVC040="
"58367099999","2022-01-05T13:30:00","4","31.197875","121.336319","3.04","HONGQIAO INTERNATIONAL, CH","FM-15","99999","V020","020,1,N,0060,1","00274,1,C,N","009999,1,9,9","+0070,1","+0060,1","99999,9",,"07,1,+00274,1,99,9","08,1,+01006,1,99,9","9,AGL   ,+99999,+99999","99,99,9,07,1,99,9,00274,1,99,9,99,9","10260,1,99999,9","61,1",,,"MET069METAR ZSSS 051330Z 02006MPS 9999 -RA BKN009 OVC033 07/06 Q1026 NOSIG="
"58367099999","2022-01-05T14:00:00","4","31.197875","121.336319","3.04","HONGQIAO INTERNATIONAL, CH","FM-15","99999","V020","020,1,N,0040,1","00274,1,C,N","009999,1,9,9","+0070,1","+0070,1","99999,9",,"07,1,+00274,1,99,9","08,1,+01006,1,99,9","9,AGL   ,+99999,+99999","99,99,9,07,1,99,9,00274,1,99,9,99,9","10260,1,99999,9","61,1",,,"MET090METAR ZSSS 051400Z 02004MPS 9999 -RA BKN009 OVC033 07/07 Q1026 BECMG TL1530 BKN011 OVC040="
"58367099999","2022-01-05T14:30:00","4","31.197875","121.336319","3.04","HONGQIAO INTERNATIONAL, CH","FM-15","99999","V020","020,1,N,0040,1","00274,1,C,N","009999,1,9,9","+0070,1","+0060,1","99999,9",,"07,1,+00274,1,99,9","08,1,+01006,1,99,9","9,AGL   ,+99999,+99999","99,99,9,07,1,99,9,00274,1,99,9,99,9","10270,1,99999,9",,,,"MET065METAR ZSSS 051430Z 02004MPS 9999 BKN009 OVC033 07/06 Q1027 NOSIG="
"58367099999","2022-01-05T15:00:00","4","31.197875","121.336319","3.04","HONGQIAO INTERNATIONAL, CH","FM-15","99999","V020","360,1,N,0050,1","00274,1,C,N","009999,1,9,9","+0070,1","+0060,1","99999,9",,"07,1,+00274,1,99,9","08,1,+01006,1,99,9","9,AGL   ,+99999,+99999","99,99,9,07,1,99,9,00274,1,99,9,99,9","10270,1,99999,9",,,,"MET086METAR ZSSS 051500Z 36005MPS 9999 BKN009 OVC033 07/06 Q1027 BECMG TL1550 BKN011 OVC040="
"58367099999","2022-01-05T15:30:00","4","31.197875","121.336319","3.04","HONGQIAO INTERNATIONAL, CH","FM-15","99999","V020","360,1,N,0050,1","00335,1,C,N","009999,1,9,9","+0070,1","+0070,1","99999,9",,"07,1,+00335,1,99,9","08,1,+01006,1,99,9","9,AGL   ,+99999,+99999","99,99,9,07,1,99,9,00335,1,99,9,99,9","10270,1,99999,9",,,,"MET065METAR ZSSS 051530Z 36005MPS 9999 BKN011 OVC033 07/07 Q1027 NOSIG="
"58367099999","2022-01-05T16:00:00","4","31.197875","121.336319","3.04","HONGQIAO INTERNATIONAL, CH","FM-15","99999","V020","360,1,N,0050,1","00396,1,C,N","009999,1,9,9","+0070,1","+0060,1","99999,9",,"07,1,+00396,1,99,9","08,1,+01006,1,99,9","9,AGL   ,+99999,+99999","99,99,9,07,1,99,9,00396,1,99,9,99,9","10270,1,99999,9",,,,"MET079METAR ZSSS 051600Z 36005MPS 9999 BKN013 OVC033 07/06 Q1027 BECMG TL1720 BKN015="
"58367099999","2022-01-05T16:30:00","4","31.197875","121.336319","3.04","HONGQIAO INTERNATIONAL, CH","FM-15","99999","V020","360,1,N,0050,1","00396,1,C,N","009999,1,9,9","+0070,1","+0060,1","99999,9",,"07,1,+00396,1,99,9","08,1,+01006,1,99,9","9,AGL   ,+99999,+99999","99,99,9,07,1,99,9,00396,1,99,9,99,9","10280,1,99999,9","61,1",,,"MET069METAR ZSSS 051630Z 36005MPS 9999 -RA BKN013 OVC033 07/06 Q1028 NOSIG="
"58367099999","2022-01-05T17:00:00","4","31.197875","121.336319","3.04","HONGQIAO INTERNATIONAL, CH","FM-15","99999","V020","360,1,N,0040,1","00335,1,C,N","009999,1,9,9","+0070,1","+0060,1","99999,9",,"07,1,+00335,1,99,9","08,1,+01006,1,99,9","9,AGL   ,+99999,+99999","99,99,9,07,1,99,9,00335,1,99,9,99,9","10280,1,99999,9","61,1",,,"MET069METAR ZSSS 051700Z 36004MPS 9999 -RA BKN011 OVC033 07/06 Q1028 NOSIG="
"58367099999","2022-01-05T17:30:00","4","31.197875","121.336319","3.04","HONGQIAO INTERNATIONAL, CH","FM-15","99999","V020","010,1,N,0050,1","00335,1,C,N","009999,1,9,9","+0070,1","+0060,1","99999,9",,"07,1,+00335,1,99,9","08,1,+01006,1,99,9","9,AGL   ,+99999,+99999","99,99,9,07,1,99,9,00335,1,99,9,99,9","10280,1,99999,9",,,,"MET065METAR ZSSS 051730Z 01005MPS 9999 BKN011 OVC033 07/06 Q1028 NOSIG="
"58367099999","2022-01-05T18:00:00","4","31.197875","121.336319","3.04","HONGQIAO INTERNATIONAL, CH","FM-15","99999","V020","010,1,N,0050,1","00457,1,C,N","009999,1,9,9","+0070,1","+0050,1","99999,9",,"07,1,+00457,1,99,9","08,1,+01006,1,99,9","9,AGL   ,+99999,+99999","99,99,9,07,1,99,9,00457,1,99,9,99,9","10280,1,99999,9",,,,"MET065METAR ZSSS 051800Z 01005MPS 9999 BKN015 OVC033 07/05 Q1028 NOSIG="
"58367099999","2022-01-05T18:30:00","4","31.197875","121.336319","3.04","HONGQIAO INTERNATIONAL, CH","FM-15","99999","V020","010,1,N,0050,1","00457,1,C,N","009999,1,9,9","+0070,1","+0050,1","99999,9",,"07,1,+00457,1,99,9","08,1,+01006,1,99,9","9,AGL   ,+99999,+99999","99,99,9,07,1,99,9,00457,1,99,9,99,9","10280,1,99999,9",,,,"MET065METAR ZSSS 051830Z 01005MPS 9999 BKN015 OVC033 07/05 Q1028 NOSIG="
"58367099999","2022-01-05T19:00:00","4","31.197875","121.336319","3.04","HONGQIAO INTERNATIONAL, CH","FM-15","99999","V020","010,1,N,0050,1","00488,1,C,N","009999,1,9,9","+0070,1","+0050,1","99999,9",,"07,1,+00488,1,99,9",,"9,AGL   ,+99999,+99999","99,99,9,07,1,99,9,00488,1,99,9,99,9","10280,1,99999,9",,,,"MET058METAR ZSSS 051900Z 01005MPS 9999 BKN016 07/05 Q1028 NOSIG="
"58367099999","2022-01-05T19:30:00","4","31.197875","121.336319","3.04","HONGQIAO INTERNATIONAL, CH","FM-15","99999","V020","360,1,N,0050,1","00610,1,C,N","009999,1,9,9","+0070,1","+0040,1","99999,9",,"07,1,+00610,1,99,9",,"9,AGL   ,+99999,+99999","99,99,9,07,1,99,9,00610,1,99,9,99,9","10280,1,99999,9",,,,"MET058METAR ZSSS 051930Z 36005MPS 9999 BKN020 07/04 Q1028 NOSIG="
"58367099999","2022-01-05T20:00:00","4","31.197875","121.336319","3.04","HONGQIAO INTERNATIONAL, CH","FM-15","99999","V020","360,1,N,0050,1","00701,1,C,N","009999,1,9,9","+0070,1","+0040,1","99999,9",,"07,1,+00701,1,99,9",,"9,AGL   ,+99999,+99999","99,99,9,07,1,99,9,00701,1,99,9,99,9","10280,1,99999,9",,,,"MET058METAR ZSSS 052000Z 36005MPS 9999 BKN023 07/04 Q1028 NOSIG="
"58367099999","2022-01-05T20:30:00","4","31.197875","121.336319","3.04","HONGQIAO INTERNATIONAL, CH","FM-15","99999","V020","360,1,N,0050,1","00701,1,C,N","009999,1,9,9","+0070,1","+0040,1","99999,9",,"07,1,+00701,1,99,9",,"9,AGL   ,+99999,+99999","99,99,9,07,1,99,9,00701,1,99,9,99,9","10290,1,99999,9",,,,"MET058METAR ZSSS 052030Z 36005MPS 9999 BKN023 07/04 Q1029 NOSIG="
"58367099999","2022-01-05T21:00:00","4","31.197875","121.336319","3.04","HONGQIAO INTERNATIONAL, CH","FM-15","99999","V020","360,1,N,0050,1","00792,1,C,N","009999,1,9,9","+0070,1","+0040,1","99999,9",,"07,1,+00792,1,99,9",,"9,AGL   ,+99999,+99999","99,99,9,07,1,99,9,00792,1,99,9,99,9","10290,1,99999,9",,,,"MET058METAR ZSSS 052100Z 36005MPS 9999 BKN026 07/04 Q1029 NOSIG="
"58367099999","2022-01-05T21:30:00","4","31.197875","121.336319","3.04","HONGQIAO INTERNATIONAL, CH","FM-15","99999","V020","010,1,N,0060,1","00914,1,C,N","009999,1,9,9","+0070,1","+0040,1","99999,9",,"07,1,+00914,1,99,9",,"9,AGL   ,+99999,+99999","99,99,9,07,1,99,9,00914,1,99,9,99,9","10290,1,99999,9",,,,"MET058METAR ZSSS 052130Z 01006MPS 9999 BKN030 07/04 Q1029 NOSIG="
"58367099999","2022-01-05T22:00:00","4","31.197875","121.336319","3.04","HONGQIAO INTERNATIONAL, CH","FM-15","99999","V020","010,1,N,0060,1","00914,1,C,N","009999,1,9,9","+0070,1","+0030,1","99999,9",,"07,1,+00914,1,99,9",,"9,AGL   ,+99999,+99999","99,99,9,07,1,99,9,00914,1,99,9,99,9","10300,1,99999,9",,,,"MET058METAR ZSSS 052200Z 01006MPS 9999 BKN030 07/03 Q1030 NOSIG="
"58367099999","2022-01-05T22:30:00","4","31.197875","121.336319","3.04","HONGQIAO INTERNATIONAL, CH","FM-15","99999","V020","010,1,N,0060,1","01006,1,C,N","009999,1,9,9","+0060,1","+0030,1","99999,9",,"07,1,+01006,1,99,9",,"9,AGL   ,+99999,+99999","99,99,9,07,1,99,9,01006,1,99,9,99,9","10300,1,99999,9",,,,"MET058METAR ZSSS 052230Z 01006MPS 9999 BKN033 06/03 Q1030 NOSIG="
"58367099999","2022-01-05T23:00:00","4","31.197875","121.336319","3.04","HONGQIAO INTERNATIONAL, CH","FM-15","99999","V020","010,1,N,0060,1","01006,1,C,N","009999,1,9,9","+0060,1","+0020,1","99999,9",,"07,1,+01006,1,99,9",,"9,AGL   ,+99999,+99999","99,99,9,07,1,99,9,01006,1,99,9,99,9","10300,1,99999,9",,,,"MET058METAR ZSSS 052300Z 01006MPS 9999 BKN033 06/02 Q1030 NOSIG="
"58367099999","2022-01-05T23:30:00","4","31.197875","121.336319","3.04","HONGQIAO INTERNATIONAL, CH","FM-15","99999","V020","010,1,N,0060,1","01006,1,C,N","009999,1,9,9","+0070,1","+0020,1","99999,9",,"07,1,+01006,1,99,9",,"9,AGL   ,+99999,+99999","99,99,9,07,1,99,9,01006,1,99,9,99,9","10300,1,99999,9",,,,"MET058METAR ZSSS 052330Z 01006MPS 9999 BKN033 07/02 Q1030 NOSIG="
"58367099999","2022-01-06T00:00:00","4","31.197875","121.336319","3.04","HONGQIAO INTERNATIONAL, CH","FM-15","99999","V020","010,1,N,0060,1","01006,1,C,N","009999,1,9,9","+0070,1","+0020,1","99999,9",,"07,1,+01006,1,99,9",,"9,AGL   ,+99999,+99999","99,99,9,07,1,99,9,01006,1,99,9,99,9","10310,1,99999,9",,,,"MET058METAR ZSSS 060000Z 01006MPS 9999 BKN033 07/02 Q1031 NOSIG="
"58367099999","2022-01-06T00:30:00","4","31.197875","121.336319","3.04","HONGQIAO INTERNATIONAL, CH","FM-15","99999","V020","010,1,N,0050,1","01006,1,C,N","009999,1,9,9","+0070,1","+0020,1","99999,9",,"07,1,+01006,1,99,9",,"9,AGL   ,+99999,+99999","99,99,9,07,1,99,9,01006,1,99,9,99,9","10310,1,99999,9",,,,"MET058METAR ZSSS 060030Z 01005MPS 9999 BKN033 07/02 Q1031 NOSIG="
"58367099999","2022-01-06T01:00:00","4","31.197875","121.336319","3.04","HONGQIAO INTERNATIONAL, CH","FM-15","99999","V020","010,1,N,0050,1","01219,1,C,N","009999,1,9,9","+0080,1","+0020,1","99999,9",,"07,1,+01219,1,99,9",,"9,AGL   ,+99999,+99999","99,99,9,07,1,99,9,01219,1,99,9,99,9","10310,1,99999,9",,,,"MET058METAR ZSSS 060100Z 01005MPS 9999 BKN040 08/02 Q1031 NOSIG="
"58367099999","2022-01-06T01:30:00","4","31.197875","121.336319","3.04","HONGQIAO INTERNATIONAL, CH","FM-15","99999","V020","010,1,N,0060,1","01219,1,C,N","009999,1,9,9","+0080,1","+0020,1","99999,9",,"07,1,+01219,1,99,9",,"9,AGL   ,+99999,+99999","99,99,9,07,1,99,9,01219,1,99,9,99,9","10320,1,99999,9",,,,"MET058METAR ZSSS 060130Z 01006MPS 9999 BKN040 08/02 Q1032 NOSIG="
"58367099999","2022-01-06T02:00:00","4","31.197875","121.336319","3.04","HONGQIAO INTERNATIONAL, CH","FM-15","99999","V020","360,1,N,0060,1","01219,1,9,N","009999,1,9,9","+0080,1","+0030,1","99999,9",,"02,1,+00792,1,99,9","07,1,+01219,1,99,9","9,AGL   ,+99999,+99999","99,99,9,02,1,99,9,00792,1,99,9,99,9","10320,1,99999,9",,,,"MET065METAR ZSSS 060200Z 36006MPS 9999 FEW026 BKN040 08/03 Q1032 NOSIG="
"58367099999","2022-01-06T02:30:00","4","31.197875","121.336319","3.04","HONGQIAO INTERNATIONAL, CH","FM-15","99999","V020","020,1,N,0060,1","01219,1,C,N","009999,1,9,9","+0090,1","+0000,1","99999,9",,"07,1,+01219,1,99,9",,"9,AGL   ,+99999,+99999","99,99,9,07,1,99,9,01219,1,99,9,99,9","10320,1,99999,9",,,,"MET058METAR ZSSS 060230Z 02006MPS 9999 BKN040 09/00 Q1032 NOSIG="
"58367099999","2022-01-06T03:00:00","4","31.197875","121.336319","3.04","HONGQIAO INTERNATIONAL, CH","FM-15","99999","V020","030,1,N,0060,1","01219,1,C,N","009999,1,9,9","+0090,1","+0010,1","99999,9",,"07,1,+01219,1,99,9",,"9,AGL   ,+99999,+99999","99,99,9,07,1,99,9,01219,1,99,9,99,9","10310,1,99999,9",,,,"MET058METAR ZSSS 060300Z 03006MPS 9999 BKN040 09/01 Q1031 NOSIG="
"58367099999","2022-01-06T03:30:00","4","31.197875","121.336319","3.04","HONGQIAO INTERNATIONAL, CH","FM-15","99999","V020","050,1,N,0060,1","01219,1,C,N","009999,1,9,9","+0090,1","+0010,1","99999,9",,"07,1,+01219,1,99,9",,"9,AGL   ,+99999,+99999","99,99,9,07,1,99,9,01219,1,99,9,99,9","10310,1,99999,9",,,,"MET058METAR ZSSS 060330Z 05006MPS 9999 BKN040 09/01 Q1031 NOSIG="
"58367099999","2022-01-06T04:00:00","4","31.197875","121.336319","3.04","HONGQIAO INTERNATIONAL, CH","FM-15","99999","V020","030,1,V,0050,1","01219,1,C,N","009999,1,9,9","+0090,1","+0010,1","99999,9",,"07,1,+01219,1,99,9",,"9,AGL   ,+99999,+99999","99,99,9,07,1,99,9,01219,1,99,9,99,9","10300,1,99999,9",,,,"MET066METAR ZSSS 060400Z 03005MPS 360V070 9999 BKN040 09/01 Q1030 NOSIG="
"58367099999","2022-01-06T04:30:00","4","31.197875","121.336319","3.04","HONGQIAO INTERNATIONAL, CH","FM-15","99999","V020","040,1,N,0070,1","01006,1,C,N","009999,1,9,9","+0090,1","+0010,1","99999,9",,"07,1,+01006,1,99,9",,"9,AGL   ,+99999,+99999","99,99,9,07,1,99,9,01006,1,99,9,99,9","10300,1,99999,9",,,,"MET058METAR ZSSS 060430Z 04007MPS 9999 BKN033 09/01 Q1030 NOSIG="
"58367099999","2022-01-06T05:00:00","4","31.197875","121.336319","3.04","HONGQIAO INTERNATIONAL, CH","FM-15","99999","V020","040,1,V,0050,1","01006,1,C,N","009999,1,9,9","+0090,1","+0010,1","99999,9",,"08,1,+01006,1,99,9",,"9,AGL   ,+99999,+99999","99,99,9,08,1,99,9,01006,1,99,9,99,9","10300,1,99999,9",,,,"MET066METAR ZSSS 060500Z 04005MPS 360V080 9999 OVC033 09/01 Q1030 NOSIG="
"58367099999","2022-01-06T05:30:00","4","31.197875","121.336319","3.04","HONGQIAO INTERNATIONAL, CH","FM-15","99999","V020","030,1,V,0050,1","01006,1,C,N","009999,1,9,9","+0090,1","+0010,1","99999,9",,"08,1,+01006,1,99,9",,"9,AGL   ,+99999,+99999","99,99,9,08,1,99,9,01006,1,99,9,99,9","10300,1,99999,9",,,,"MET066METAR ZSSS 060530Z 03005MPS 360V060 9999 OVC033 09/01 Q1030 NOSIG="
"58367099999","2022-01-06T06:00:00","4","31.197875","121.336319","3.04","HONGQIAO INTERNATIONAL, CH","FM-15","99999","V020","040,1,V,0050,1","01006,1,C,N","009999,1,9,9","+0090,1","+0010,1","99999,9",,"08,1,+01006,1,99,9",,"9,AGL   ,+99999,+99999","99,99,9,08,1,99,9,01006,1,99,9,99,9","10300,1,99999,9",,,,"MET066METAR ZSSS 060600Z 04005MPS 020V080 9999 OVC033 09/01 Q1030 NOSIG="
"58367099999","2022-01-06T06:30:00","4","31.197875","121.336319","3.04","HONGQIAO INTERNATIONAL, CH","FM-15","99999","V020","040,1,N,0040,1","01006,1,C,N","009999,1,9,9","+0090,1","+0010,1","99999,9",,"08,1,+01006,1,99,9",,"9,AGL   ,+99999,+99999","99,99,9,08,1,99,9,01006,1,99,9,99,9","10300,1,99999,9",,,,"MET058METAR ZSSS 060630Z 04004MPS 9999 OVC033 09/01 Q1030 NOSIG="
"58367099999","2022-01-06T07:00:00","4","31.197875","121.336319","3.04","HONGQIAO INTERNATIONAL, CH","FM-15","99999","V020","030,1,V,0050,1","01006,1,C,N","009999,1,9,9","+0090,1","+0000,1","99999,9",,"07,1,+01006,1,99,9",,"9,AGL   ,+99999,+99999","99,99,9,07,1,99,9,01006,1,99,9,99,9","10300,1,99999,9",,,,"MET066METAR ZSSS 060700Z 03005MPS 360V070 9999 BKN033 09/00 Q1030 NOSIG="
"58367099999","2022-01-06T07:30:00","4","31.197875","121.336319","3.04","HONGQIAO INTERNATIONAL, CH","FM-15","99999","V020","050,1,V,0050,1","01006,1,C,N","009999,1,9,9","+0090,1","+0000,1","99999,9",,"07,1,+01006,1,99,9",,"9,AGL   ,+99999,+99999","99,99,9,07,1,99,9,01006,1,99,9,99,9","10300,1,99999,9",,,,"MET067METAR ZSSS 060730Z 05005MPS 020V080 9999 BKN033 09/M00 Q1030 NOSIG="
"58367099999","2022-01-06T08:00:00","4","31.197875","121.336319","3.04","HONGQIAO INTERNATIONAL, CH","FM-15","99999","V020","040,1,V,0040,1","01219,1,C,N","009999,1,9,9","+0080,1","+0000,1","99999,9",,"07,1,+01219,1,99,9",,"9,AGL   ,+99999,+99999","99,99,9,07,1,99,9,01219,1,99,9,99,9","10300,1,99999,9",,,,"MET067METAR ZSSS 060800Z 04004MPS 030V090 9999 BKN040 08/M00 Q1030 NOSIG="
"58367099999","2022-01-06T08:30:00","4","31.197875","121.336319","3.04","HONGQIAO INTERNATIONAL, CH","FM-15","99999","V020","050,1,N,0040,1","01219,1,C,N","009999,1,9,9","+0080,1","-0010,1","99999,9",,"07,1,+01219,1,99,9",,"9,AGL   ,+99999,+99999","99,99,9,07,1,99,9,01219,1,99,9,99,9","10300,1,99999,9",,,,"MET059METAR ZSSS 060830Z 05004MPS 9999 BKN040 08/M01 Q1030 NOSIG="
"58367099999","2022-01-06T09:00:00","4","31.197875","121.336319","3.04","HONGQIAO INTERNATIONAL, CH","FM-15","99999","V020","030,1,N,0050,1","99999,9,9,N","009999,1,9,9","+0080,1","-0010,1","99999,9",,"04,1,+01219,1,99,9",,"9,AGL   ,+99999,+99999","99,99,9,04,1,99,9,01219,1,99,9,99,9","10310,1,99999,9",,,,"MET059METAR ZSSS 060900Z 03005MPS 9999 SCT040 08/M01 Q1031 NOSIG="
"58367099999","2022-01-06T09:30:00","4","31.197875","121.336319","3.04","HONGQIAO INTERNATIONAL, CH","FM-15","99999","V020","040,1,N,0040,1","99999,9,9,N","009999,1,9,9","+0070,1","-0010,1","99999,9",,"04,1,+01219,1,99,9",,"9,AGL   ,+99999,+99999","99,99,9,04,1,99,9,01219,1,99,9,99,9","10310,1,99999,9",,,,"MET059METAR ZSSS 060930Z 04004MPS 9999 SCT040 07/M01 Q1031 NOSIG="
"58367099999","2022-01-06T10:00:00","4","31.197875","121.336319","3.04","HONGQIAO INTERNATIONAL, CH","FM-15","99999","V020","040,1,N,0050,1","01219,1,C,N","009999,1,9,9","+0070,1","+0000,1","99999,9",,"07,1,+01219,1,99,9",,"9,AGL   ,+99999,+99999","99,99,9,07,1,99,9,01219,1,99,9,99,9","10310,1,99999,9",,,,"MET059METAR ZSSS 061000Z 04005MPS 9999 BKN040 07/M00 Q1031 NOSIG="
"58367099999","2022-01-06T10:30:00","4","31.197875","121.336319","3.04","HONGQIAO INTERNATIONAL, CH","FM-15","99999","V020","020,1,N,0050,1","99999,9,9,N","009999,1,9,9","+0070,1","+0000,1","99999,9",,"04,1,+01219,1,99,9",,"9,AGL   ,+99999,+99999","99,99,9,04,1,99,9,01219,1,99,9,99,9","10310,1,99999,9",,,,"MET058METAR ZSSS 061030Z 02005MPS 9999 SCT040 07/00 Q1031 NOSIG="
"58367099999","2022-01-06T11:00:00","4","31.197875","121.336319","3.04","HONGQIAO INTERNATIONAL, CH","FM-15","99999","V020","040,1,N,0040,1","01219,1,C,N","009999,1,9,9","+0070,1","+0000,1","99999,9",,"07,1,+01219,1,99,9",,"9,AGL   ,+99999,+99999","99,99,9,07,1,99,9,01219,1,99,9,99,9","10310,1,99999,9",,,,"MET059METAR ZSSS 061100Z 04004MPS 9999 BKN040 07/M00 Q1031 NOSIG="
"58367099999","2022-01-06T11:30:00","4","31.197875","121.336319","3.04","HONGQIAO INTERNATIONAL, CH","FM-15","99999","V020","010,1,N,0040,1","01006,1,C,N","009999,1,9,9","+0060,1","+0000,1","99999,9",,"07,1,+01006,1,99,9",,"9,AGL   ,+99999,+99999","99,99,9,07,1,99,9,01006,1,99,9,99,9","10320,1,99999,9",,,,"MET058METAR ZSSS 061130Z 01004MPS 9999 BKN033 06/00 Q1032 NOSIG="
"58367099999","2022-01-06T12:00:00","4","31.197875","121.336319","3.04","HONGQIAO INTERNATIONAL, CH","FM-15","99999","V020","360,1,N,0040,1","01006,1,C,N","009999,1,9,9","+0060,1","+0000,1","99999,9",,"07,1,+01006,1,99,9",,"9,AGL   ,+99999,+99999","99,99,9,07,1,99,9,01006,1,99,9,99,9","10320,1,99999,9",,,,"MET058METAR ZSSS 061200Z 36004MPS 9999 BKN033 06/00 Q1032 NOSIG="
"58367099999","2022-01-06T12:30:00","4","31.197875","121.336319","3.04","HONGQIAO INTERNATIONAL, CH","FM-15","99999","V020","360,1,N,0040,1","01006,1,C,N","009999,1,9,9","+0060,1","+0000,1","99999,9",,"07,1,+01006,1,99,9",,"9,AGL   ,+99999,+99999","99,99,9,07,1,99,9,01006,1,99,9,99,9","10320,1,99999,9",,,,"MET058METAR ZSSS 061230Z 36004MPS 9999 BKN033 06/00 Q1032 NOSIG="
"58367099999","2022-01-06T13:00:00","4","31.197875","121.336319","3.04","HONGQIAO INTERNATIONAL, CH","FM-15","99999","V020","350,1,N,0030,1","01006,1,C,N","009999,1,9,9","+0070,1","+0000,1","99999,9",,"07,1,+01006,1,99,9",,"9,AGL   ,+99999,+99999","99,99,9,07,1,99,9,01006,1,99,9,99,9","10320,1,99999,9",,,,"MET058METAR ZSSS 061300Z 35003MPS 9999 BKN033 07/00 Q1032 NOSIG="
"58367099999","2022-01-06T13:30:00","4","31.197875","121.336319","3.04","HONGQIAO INTERNATIONAL, CH","FM-15","99999","V020","350,1,N,0050,1","01006,1,C,N","009999,1,9,9","+0060,1","+0000,1","99999,9",,"07,1,+01006,1,99,9",,"9,AGL   ,+99999,+99999","99,99,9,07,1,99,9,01006,1,99,9,99,9","10320,1,99999,9",,,,"MET058METAR ZSSS 061330Z 35005MPS 9999 BKN033 06/00 Q1032 NOSIG="
"58367099999","2022-01-06T14:00:00","4","31.197875","121.336319","3.04","HONGQIAO INTERNATIONAL, CH","FM-15","99999","V020","340,1,N,0040,1","01219,1,C,N","009999,1,9,9","+0060,1","+0000,1","99999,9",,"07,1,+01219,1,99,9",,"9,AGL   ,+99999,+99999","99,99,9,07,1,99,9,01219,1,99,9,99,9","10330,1,99999,9",,,,"MET058METAR ZSSS 061400Z 34004MPS 9999 BKN040 06/00 Q1033 NOSIG="
"58367099999","2022-01-06T14:30:00","4","31.197875","121.336319","3.04","HONGQIAO INTERNATIONAL, CH","FM-15","99999","V020","320,1,V,0030,1","01219,1,C,N","009999,1,9,9","+0060,1","+0000,1","99999,9",,"07,1,+01219,1,99,9",,"9,AGL   ,+99999,+99999","99,99,9,07,1,99,9,01219,1,99,9,99,9","10330,1,99999,9",,,,"MET066METAR ZSSS 061430Z 32003MPS 290V350 9999 BKN040 06/00 Q1033 NOSIG="
"58367099999","2022-01-06T15:00:00","4","31.197875","121.336319","3.04","HONGQIAO INTERNATIONAL, CH","FM-15","99999","V020","320,1,V,0020,1","01219,1,C,N","009999,1,9,9","+0060,1","+0000,1","99999,9",,"07,1,+01219,1,99,9",,"9,AGL   ,+99999,+99999","99,99,9,07,1,99,9,01219,1,99,9,99,9","10330,1,99999,9",,,,"MET066METAR ZSSS 061500Z 32002MPS 280V340 9999 BKN040 06/00 Q1033 NOSIG="
"58367099999","2022-01-06T15:30:00","4","31.197875","121.336319","3.04","HONGQIAO INTERNATIONAL, CH","FM-15","99999","V020","300,1,N,0030,1","01219,1,C,N","009999,1,9,9","+0060,1","+0000,1","99999,9",,"07,1,+01219,1,99,9",,"9,AGL   ,+99999,+99999","99,99,9,07,1,99,9,01219,1,99,9,99,9","10330,1,99999,9",,,,"MET058METAR ZSSS 061530Z 30003MPS 9999 BKN040 06/00 Q1033 NOSIG="
"58367099999","2022-01-06T16:00:00","4","31.197875","121.336319","3.04","HONGQIAO INTERNATIONAL, CH","FM-15","99999","V020","280,1,N,0030,1","01219,1,C,N","009999,1,9,9","+0060,1","+0000,1","99999,9",,"07,1,+01219,1,99,9",,"9,AGL   ,+99999,+99999","99,99,9,07,1,99,9,01219,1,99,9,99,9","10330,1,99999,9",,,,"MET058METAR ZSSS 061600Z 28003MPS 9999 BKN040 06/00 Q1033 NOSIG="
"58367099999","2022-01-06T16:30:00","4","31.197875","121.336319","3.04","HONGQIAO INTERNATIONAL, CH","FM-15","99999","V020","330,1,N,0020,1","99999,9,9,Y","009900,5,9,9","+0060,1","+0000,1","99999,9",,,,,,"10330,1,99999,9",,,,"MET052METAR ZSSS 061630Z 33002MPS CAVOK 06/00 Q1033 NOSIG="
"58367099999","2022-01-06T17:00:00","4","31.197875","121.336319","3.04","HONGQIAO INTERNATIONAL, CH","FM-15","99999","V020","310,1,N,0030,1","99999,9,9,Y","009900,5,9,9","+0060,1","+0000,1","99999,9",,,,,,"10330,1,99999,9",,,,"MET052METAR ZSSS 061700Z 31003MPS CAVOK 06/00 Q1033 NOSIG="
"58367099999","2022-01-06T17:30:00","4","31.197875","121.336319","3.04","HONGQIAO INTERNATIONAL, CH","FM-15","99999","V020","330,1,N,0020,1","99999,9,9,Y","009900,5,9,9","+0060,1","+0000,1","99999,9",,,,,,"10330,1,99999,9",,,,"MET052METAR ZSSS 061730Z 33002MPS CAVOK 06/00 Q1033 NOSIG="
"58367099999","2022-01-06T18:00:00","4","31.197875","121.336319","3.04","HONGQIAO INTERNATIONAL, CH","FM-15","99999","V020","350,1,N,0020,1","99999,9,9,Y","009900,5,9,9","+0060,1","+0010,1","99999,9",,,,,,"10320,1,99999,9",,,,"MET052METAR ZSSS 061800Z 35002MPS CAVOK 06/01 Q1032 NOSIG="
"58367099999","2022-01-06T18:30:00","4","31.197875","121.336319","3.04","HONGQIAO INTERNATIONAL, CH","FM-15","99999","V020","010,1,N,0050,1","99999,9,9,Y","009900,5,9,9","+0050,1","+0010,1","99999,9",,,,,,"10320,1,99999,9",,,,"MET052METAR ZSSS 061830Z 01005MPS CAVOK 05/01 Q1032 NOSIG="
"58367099999","2022-01-06T19:00:00","4","31.197875","121.336319","3.04","HONGQIAO INTERNATIONAL, CH","FM-15","99999","V020","010,1,N,0050,1","99999,9,9,Y","009900,5,9,9","+0050,1","+0000,1","99999,9",,,,,,"10320,1,99999,9",,,,"MET053METAR ZSSS 061900Z 01005MPS CAVOK 05/M00 Q1032 NOSIG="
"58367099999","2022-01-06T19:30:00","4","31.197875","121.336319","3.04","HONGQIAO INTERNATIONAL, CH","FM-15","99999","V020","010,1,N,0030,1","99999,9,9,Y","009900,5,9,9","+0040,1","+0000,1","99999,9",,,,,,"10320,1,99999,9",,,,"MET053METAR ZSSS 061930Z 01003MPS CAVOK 04/M00 Q1032 NOSIG="
"58367099999","2022-01-06T20:00:00","4","31.197875","121.336319","3.04","HONGQIAO INTERNATIONAL, CH","FM-15","99999","V020","010,1,N,0030,1","99999,9,9,Y","009900,5,9,9","+0040,1","+0000,1","99999,9",,,,,,"10320,1,99999,9",,,,"MET053METAR ZSSS 062000Z 01003MPS CAVOK 04/M00 Q1032 NOSIG="
"58367099999","2022-01-06T20:30:00","4","31.197875","121.336319","3.04","HONGQIAO INTERNATIONAL, CH","FM-15","99999","V020","010,1,N,0020,1","99999,9,9,Y","009900,5,9,9","+0030,1","+0000,1","99999,9",,,,,,"10320,1,99999,9",,,,"MET053METAR ZSSS 062030Z 01002MPS CAVOK 03/M00 Q1032 NOSIG="
"58367099999","2022-01-06T21:00:00","4","31.197875","121.336319","3.04","HONGQIAO INTERNATIONAL, CH","FM-15","99999","V020","360,1,N,0020,1","99999,9,9,Y","009900,5,9,9","+0030,1","+0000,1","99999,9",,,,,,"10320,1,99999,9",,,,"MET053METAR ZSSS 062100Z 36002MPS CAVOK 03/M00 Q1032 NOSIG="
"58367099999","2022-01-06T21:30:00","4","31.197875","121.336319","3.04","HONGQIAO INTERNATIONAL, CH","FM-15","99999","V020","360,1,N,0030,1","99999,9,9,Y","009900,5,9,9","+0040,1","+0010,1","99999,9",,,,,,"10320,1,99999,9",,,,"MET052METAR ZSSS 062130Z 36003MPS CAVOK 04/01 Q1032 NOSIG="
"58367099999","2022-01-06T22:00:00","4","31.197875","121.336319","3.04","HONGQIAO INTERNATIONAL, CH","FM-15","99999","V020","360,1,N,0030,1","99999,9,9,Y","009900,5,9,9","+0040,1","+0010,1","99999,9",,,,,,"10320,1,99999,9",,,,"MET052METAR ZSSS 062200Z 36003MPS CAVOK 04/01 Q1032 NOSIG="
"58367099999","2022-01-06T22:30:00","4","31.197875","121.336319","3.04","HONGQIAO INTERNATIONAL, CH","FM-15","99999","V020","360,1,N,0030,1","99999,9,9,Y","009900,5,9,9","+0040,1","+0010,1","99999,9",,,,,,"10320,1,99999,9",,,,"MET052METAR ZSSS 062230Z 36003MPS CAVOK 04/01 Q1032 NOSIG="
"58367099999","2022-01-06T23:00:00","4","31.197875","121.336319","3.04","HONGQIAO INTERNATIONAL, CH","FM-15","99999","V020","360,1,N,0030,1","99999,9,9,Y","009900,5,9,9","+0040,1","+0010,1","99999,9",,,,,,"10320,1,99999,9",,,,"MET052METAR ZSSS 062300Z 36003MPS CAVOK 04/01 Q1032 NOSIG="
"58367099999","2022-01-06T23:30:00","4","31.197875","121.336319","3.04","HONGQIAO INTERNATIONAL, CH","FM-15","99999","V020","350,1,N,0030,1","99999,9,9,Y","009900,5,9,9","+0050,1","+0010,1","99999,9",,,,,,"10320,1,99999,9",,,,"MET052METAR ZSSS 062330Z 35003MPS CAVOK 05/01 Q1032 NOSIG="
"58367099999","2022-01-07T00:00:00","4","31.197875","121.336319","3.04","HONGQIAO INTERNATIONAL, CH","FM-15","99999","V020","360,1,N,0030,1","99999,9,9,Y","009900,5,9,9","+0050,1","+0020,1","99999,9",,,,,,"10320,1,99999,9",,,,"MET052METAR ZSSS 070000Z 36003MPS CAVOK 05/02 Q1032 NOSIG="
"58367099999","2022-01-07T00:30:00","4","31.197875","121.336319","3.04","HONGQIAO INTERNATIONAL, CH","FM-15","99999","V020","010,1,N,0030,1","99999,9,9,Y","009900,5,9,9","+0070,1","+0020,1","99999,9",,,,,,"10320,1,99999,9",,,,"MET052METAR ZSSS 070030Z 01003MPS CAVOK 07/02 Q1032 NOSIG="
"58367099999","2022-01-07T01:00:00","4","31.197875","121.336319","3.04","HONGQIAO INTERNATIONAL, CH","FM-15","99999","V020","030,1,V,0040,1","99999,9,9,Y","009900,5,9,9","+0080,1","+0010,1","99999,9",,,,,,"10320,1,99999,9",,,,"MET060METAR ZSSS 070100Z 03004MPS 360V060 CAVOK 08/01 Q1032 NOSIG="
"58367099999","2022-01-07T01:30:00","4","31.197875","121.336319","3.04","HONGQIAO INTERNATIONAL, CH","FM-15","99999","V020","040,1,N,0050,1","99999,9,9,Y","009900,5,9,9","+0090,1","+0020,1","99999,9",,,,,,"10320,1,99999,9",,,,"MET052METAR ZSSS 070130Z 04005MPS CAVOK 09/02 Q1032 NOSIG="
"58367099999","2022-01-07T02:00:00","4","31.197875","121.336319","3.04","HONGQIAO INTERNATIONAL, CH","FM-15","99999","V020","060,1,N,0050,1","99999,9,9,Y","009900,5,9,9","+0090,1","+0010,1","99999,9",,,,,,"10320,1,99999,9",,,,"MET052METAR ZSSS 070200Z 06005MPS CAVOK 09/01 Q1032 NOSIG="
"58367099999","2022-01-07T02:30:00","4","31.197875","121.336319","3.04","HONGQIAO INTERNATIONAL, CH","FM-15","99999","V020","040,1,V,0040,1","99999,9,9,Y","009900,5,9,9","+0100,1","+0010,1","99999,9",,,,,,"10310,1,99999,9",,,,"MET060METAR ZSSS 070230Z 04004MPS 010V130 CAVOK 10/01 Q1031 NOSIG="
"58367099999","2022-01-07T03:00:00","4","31.197875","121.336319","3.04","HONGQIAO INTERNATIONAL, CH","FM-15","99999","V020","050,1,V,0040,1","99999,9,9,Y","009900,5,9,9","+0100,1","+0010,1","99999,9",,,,,,"10310,1,99999,9",,,,"MET060METAR ZSSS 070300Z 05004MPS 350V070 CAVOK 10/01 Q1031 NOSIG="
"58367099999","2022-01-07T03:30:00","4","31.197875","121.336319","3.04","HONGQIAO INTERNATIONAL, CH","FM-15","99999","V020","080,1,V,0040,1","99999,9,9,Y","009900,5,9,9","+0100,1","+0000,1","99999,9",,,,,,"10300,1,99999,9",,,,"MET060METAR ZSSS 070330Z 08004MPS 040V130 CAVOK 10/00 Q1030 NOSIG="
"58367099999","2022-01-07T04:00:00","4","31.197875","121.336319","3.04","HONGQIAO INTERNATIONAL, CH","FM-15","99999","V020","070,1,V,0030,1","99999,9,9,Y","009900,5,9,9","+0100,1","+0000,1","99999,9",,,,,,"10300,1,99999,9",,,,"MET060METAR ZSSS 070400Z 07003MPS 020V120 CAVOK 10/00 Q1030 NOSIG="
"58367099999","2022-01-07T04:30:00","4","31.197875","121.336319","3.04","HONGQIAO INTERNATIONAL, CH","FM-15","99999","V020","030,1,V,0030,1","99999,9,9,Y","009900,5,9,9","+0100,1","+0000,1","99999,9",,,,,,"10290,1,99999,9",,,,"MET060METAR ZSSS 070430Z 03003MPS 360V070 CAVOK 10/00 Q1029 NOSIG="
"58367099999","2022-01-07T05:00:00","4","31.197875","121.336319","3.04","HONGQIAO INTERNATIONAL, CH","FM-15","99999","V020","999,9,V,0010,1","99999,9,9,Y","009900,5,9,9","+0110,1","+0000,1","99999,9",,,,,,"10290,1,99999,9",,,,"MET052METAR ZSSS 070500Z VRB01MPS CAVOK 11/00 Q1029 NOSIG="
"58367099999","2022-01-07T05:30:00","4","31.197875","121.336319","3.04","HONGQIAO INTERNATIONAL, CH","FM-15","99999","V020","999,9,V,0010,1","99999,9,9,Y","009900,5,9,9","+0110,1","+0000,1","99999,9",,,,,,"10290,1,99999,9",,,,"MET052METAR ZSSS 070530Z VRB01MPS CAVOK 11/00 Q1029 NOSIG="
"58367099999","2022-01-07T06:00:00","4","31.197875","121.336319","3.04","HONGQIAO INTERNATIONAL, CH","FM-15","99999","V020","350,1,V,0030,1","99999,9,9,Y","009900,5,9,9","+0110,1","+0000,1","99999,9",,,,,,"10290,1,99999,9",,,,"MET060METAR ZSSS 070600Z 35003MPS 320V080 CAVOK 11/00 Q1029 NOSIG="
"58367099999","2022-01-07T06:30:00","4","31.197875","121.336319","3.04","HONGQIAO INTERNATIONAL, CH","FM-15","99999","V020","350,1,N,0030,1","99999,9,9,Y","009900,5,9,9","+0100,1","+0000,1","99999,9",,,,,,"10280,1,99999,9",,,,"MET053METAR ZSSS 070630Z 35003MPS CAVOK 10/M00 Q1028 NOSIG="
"58367099999","2022-01-07T07:00:00","4","31.197875","121.336319","3.04","HONGQIAO INTERNATIONAL, CH","FM-15","99999","V020","040,1,V,0030,1","99999,9,9,Y","009900,5,9,9","+0100,1","+0000,1","99999,9",,,,,,"10280,1,99999,9",,,,"MET061METAR ZSSS 070700Z 04003MPS 020V080 CAVOK 10/M00 Q1028 NOSIG="
"58367099999","2022-01-07T07:30:00","4","31.197875","121.336319","3.04","HONGQIAO INTERNATIONAL, CH","FM-15","99999","V020","030,1,N,0030,1","99999,9,9,Y","009900,5,9,9","+0100,1","+0000,1","99999,9",,,,,,"10280,1,99999,9",,,,"MET053METAR ZSSS 070730Z 03003MPS CAVOK 10/M00 Q1028 NOSIG="
"58367099999","2022-01-07T08:00:00","4","31.197875","121.336319","3.04","HONGQIAO INTERNATIONAL, CH","FM-15","99999","V020","020,1,N,0040,1","99999,9,9,Y","009900,5,9,9","+0100,1","+0000,1","99999,9",,,,,,"10280,1,99999,9",,,,"MET052METAR ZSSS 070800Z 02004MPS CAVOK 10/00 Q1028 NOSIG="
"58367099999","2022-01-07T08:30:00","4","31.197875","121.336319","3.04","HONGQIAO INTERNATIONAL, CH","FM-15","99999","V020","030,1,N,0030,1","99999,9,9,Y","009900,5,9,9","+0100,1","+0000,1","99999,9",,,,,,"10280,1,99999,9",,,,"MET052METAR ZSSS 070830Z 03003MPS CAVOK 10/00 Q1028 NOSIG="
"58367099999","2022-01-07T09:00:00","4","31.197875","121.336319","3.04","HONGQIAO INTERNATIONAL, CH","FM-15","99999","V020","030,1,N,0030,1","99999,9,9,Y","009900,5,9,9","+0090,1","+0000,1","99999,9",,,,,,"10290,1,99999,9",,,,"MET052METAR ZSSS 070900Z 03003MPS CAVOK 09/00 Q1029 NOSIG="
"58367099999","2022-01-07T09:30:00","4","31.197875","121.336319","3.04","HONGQIAO INTERNATIONAL, CH","FM-15","99999","V020","040,1,N,0040,1","99999,9,9,Y","009900,5,9,9","+0090,1","+0010,1","99999,9",,,,,,"10290,1,99999,9",,,,"MET052METAR ZSSS 070930Z 04004MPS CAVOK 09/01 Q1029 NOSIG="
"58367099999","2022-01-07T10:00:00","4","31.197875","121.336319","3.04","HONGQIAO INTERNATIONAL, CH","FM-15","99999","V020","030,1,N,0050,1","99999,9,9,Y","009900,5,9,9","+0090,1","+0010,1","99999,9",,,,,,"10290,1,99999,9",,,,"MET052METAR ZSSS 071000Z 03005MPS CAVOK 09/01 Q1029 NOSIG="
"58367099999","2022-01-07T10:30:00","4","31.197875","121.336319","3.04","HONGQIAO INTERNATIONAL, CH","FM-15","99999","V020","050,1,N,0040,1","99999,9,9,Y","009900,5,9,9","+0080,1","+0010,1","99999,9",,,,,,"10290,1,99999,9",,,,"MET052METAR ZSSS 071030Z 05004MPS CAVOK 08/01 Q1029 NOSIG="
"58367099999","2022-01-07T11:00:00","4","31.197875","121.336319","3.04","HONGQIAO INTERNATIONAL, CH","FM-15","99999","V020","050,1,N,0050,1","99999,9,9,Y","009900,5,9,9","+0080,1","+0010,1","99999,9",,,,,,"10300,1,99999,9",,,,"MET052METAR ZSSS 071100Z 05005MPS CAVOK 08/01 Q1030 NOSIG="
"58367099999","2022-01-07T11:30:00","4","31.197875","121.336319","3.04","HONGQIAO INTERNATIONAL, CH","FM-15","99999","V020","040,1,N,0040,1","99999,9,9,Y","009900,5,9,9","+0070,1","+0010,1","99999,9",,,,,,"10300,1,99999,9",,,,"MET052METAR ZSSS 071130Z 04004MPS CAVOK 07/01 Q1030 NOSIG="
"58367099999","2022-01-07T12:00:00","4","31.197875","121.336319","3.04","HONGQIAO INTERNATIONAL, CH","FM-15","99999","V020","060,1,V,0030,1","99999,9,9,Y","009900,5,9,9","+0070,1","+0010,1","99999,9",,,,,,"10300,1,99999,9",,,,"MET060METAR ZSSS 071200Z 06003MPS 030V090 CAVOK 07/01 Q1030 NOSIG="
"58367099999","2022-01-07T12:30:00","4","31.197875","121.336319","3.04","HONGQIAO INTERNATIONAL, CH","FM-15","99999","V020","050,1,N,0030,1","99999,9,9,Y","009900,5,9,9","+0070,1","+0010,1","99999,9",,,,,,"10300,1,99999,9",,,,"MET052METAR ZSSS 071230Z 05003MPS CAVOK 07/01 Q1030 NOSIG="
"58367099999","2022-01-07T13:00:00","4","31.197875","121.336319","3.04","HONGQIAO INTERNATIONAL, CH","FM-15","99999","V020","060,1,N,0020,1","99999,9,9,Y","009900,5,9,9","+0070,1","+0010,1","99999,9",,,,,,"10300,1,99999,9",,,,"MET052METAR ZSSS 071300Z 06002MPS CAVOK 07/01 Q1030 NOSIG="
"58367099999","2022-01-07T13:30:00","4","31.197875","121.336319","3.04","HONGQIAO INTERNATIONAL, CH","FM-15","99999","V020","040,1,N,0030,1","99999,9,9,Y","009900,5,9,9","+0070,1","+0010,1","99999,9",,,,,,"10300,1,99999,9",,,,"MET052METAR ZSSS 071330Z 04003MPS CAVOK 07/01 Q1030 NOSIG="
"58367099999","2022-01-07T14:00:00","4","31.197875","121.336319","3.04","HONGQIAO INTERNATIONAL, CH","FM-15","99999","V020","040,1,V,0020,1","99999,9,9,Y","009900,5,9,9","+0070,1","+0010,1","99999,9",,,,,,"10300,1,99999,9",,,,"MET060METAR ZSSS 071400Z 04002MPS 020V090 CAVOK 07/01 Q1030 NOSIG="
"58367099999","2022-01-07T14:30:00","4","31.197875","121.336319","3.04","HONGQIAO INTERNATIONAL, CH","FM-15","99999","V020","030,1,N,0030,1","99999,9,9,Y","009900,5,9,9","+0060,1","+0010,1","99999,9",,,,,,"10290,1,99999,9",,,,"MET052METAR ZSSS 071430Z 03003MPS CAVOK 06/01 Q1029 NOSIG="
"58367099999","2022-01-07T15:00:00","4","31.197875","121.336319","3.04","HONGQIAO INTERNATIONAL, CH","FM-15","99999","V020","030,1,N,0030,1","99999,9,9,Y","009900,5,9,9","+0060,1","+0020,1","99999,9",,,,,,"10290,1,99999,9",,,,"MET052METAR ZSSS 071500Z 03003MPS CAVOK 06/02 Q1029 NOSIG="
"58367099999","2022-01-07T15:30:00","4","31.197875","121.336319","3.04","HONGQIAO INTERNATIONAL, CH","FM-15","99999","V020","030,1,N,0030,1","99999,9,9,Y","009900,5,9,9","+0060,1","+0020,1","99999,9",,,,,,"10290,1,99999,9",,,,"MET052METAR ZSSS 071530Z 03003MPS CAVOK 06/02 Q1029 NOSIG="
"58367099999","2022-01-07T16:00:00","4","31.197875","121.336319","3.04","HONGQIAO INTERNATIONAL, CH","FM-15","99999","V020","030,1,N,0020,1","99999,9,9,Y","009900,5,9,9","+0060,1","+0020,1","99999,9",,,,,,"10290,1,99999,9",,,,"MET052METAR ZSSS 071600Z 03002MPS CAVOK 06/02 Q1029 NOSIG="
"58367099999","2022-01-07T16:30:00","4","31.197875","121.336319","3.04","HONGQIAO INTERNATIONAL, CH","FM-15","99999","V020","010,1,N,0020,1","99999,9,9,Y","009900,5,9,9","+0050,1","+0010,1","99999,9",,,,,,"10290,1,99999,9",,,,"MET052METAR ZSSS 071630Z 01002MPS CAVOK 05/01 Q1029 NOSIG="
"58367099999","2022-01-07T17:00:00","4","31.197875","121.336319","3.04","HONGQIAO INTERNATIONAL, CH","FM-15","99999","V020","350,1,N,0020,1","99999,9,9,Y","009900,5,9,9","+0060,1","+0020,1","99999,9",,,,,,"10290,1,99999,9",,,,"MET052METAR ZSSS 071700Z 35002MPS CAVOK 06/02 Q1029 NOSIG="
"58367099999","2022-01-07T17:30:00","4","31.197875","121.336319","3.04","HONGQIAO INTERNATIONAL, CH","FM-15","99999","V020","340,1,N,0020,1","99999,9,9,Y","009900,5,9,9","+0050,1","+0020,1","99999,9",,,,,,"10290,1,99999,9",,,,"MET052METAR ZSSS 071730Z 34002MPS CAVOK 05/02 Q1029 NOSIG="
"58367099999","2022-01-07T18:00:00","4","31.197875","121.336319","3.04","HONGQIAO INTERNATIONAL, CH","FM-15","99999","V020","350,1,N,0020,1","99999,9,9,Y","009900,5,9,9","+0040,1","+0010,1","99999,9",,,,,,"10290,1,99999,9",,,,"MET052METAR ZSSS 071800Z 35002MPS CAVOK 04/01 Q1029 NOSIG="
"58367099999","2022-01-07T18:30:00","4","31.197875","121.336319","3.04","HONGQIAO INTERNATIONAL, CH","FM-15","99999","V020","350,1,N,0030,1","01219,1,C,N","009999,1,9,9","+0050,1","+0030,1","99999,9",,"07,1,+01219,1,99,9",,"9,AGL   ,+99999,+99999","99,99,9,07,1,99,9,01219,1,99,9,99,9","10290,1,99999,9",,,,"MET058METAR ZSSS 071830Z 35003MPS 9999 BKN040 05/03 Q1029 NOSIG="
"58367099999","2022-01-07T19:00:00","4","31.197875","121.336319","3.04","HONGQIAO INTERNATIONAL, CH","FM-15","99999","V020","360,1,N,0020,1","01219,1,C,N","009999,1,9,9","+0050,1","+0030,1","99999,9",,"07,1,+01219,1,99,9",,"9,AGL   ,+99999,+99999","99,99,9,07,1,99,9,01219,1,99,9,99,9","10280,1,99999,9",,,,"MET058METAR ZSSS 071900Z 36002MPS 9999 BKN040 05/03 Q1028 NOSIG="
"58367099999","2022-01-07T19:30:00","4","31.197875","121.336319","3.04","HONGQIAO INTERNATIONAL, CH","FM-15","99999","V020","350,1,N,0020,1","01219,1,C,N","009999,1,9,9","+0060,1","+0020,1","99999,9",,"07,1,+01219,1,99,9",,"9,AGL   ,+99999,+99999","99,99,9,07,1,99,9,01219,1,99,9,99,9","10280,1,99999,9",,,,"MET058METAR ZSSS 071930Z 35002MPS 9999 BKN040 06/02 Q1028 NOSIG="
"58367099999","2022-01-07T20:00:00","4","31.197875","121.336319","3.04","HONGQIAO INTERNATIONAL, CH","FM-15","99999","V020","010,1,N,0020,1","99999,9,9,Y","009900,5,9,9","+0060,1","+0030,1","99999,9",,,,,,"10280,1,99999,9",,,,"MET052METAR ZSSS 072000Z 01002MPS CAVOK 06/03 Q1028 NOSIG="
"58367099999","2022-01-07T20:30:00","4","31.197875","121.336319","3.04","HONGQIAO INTERNATIONAL, CH","FM-15","99999","V020","350,1,N,0030,1","99999,9,9,Y","009900,5,9,9","+0060,1","+0020,1","99999,9",,,,,,"10280,1,99999,9",,,,"MET052METAR ZSSS 072030Z 35003MPS CAVOK 06/02 Q1028 NOSIG="
"58367099999","2022-01-07T21:00:00","4","31.197875","121.336319","3.04","HONGQIAO INTERNATIONAL, CH","FM-15","99999","V020","360,1,N,0030,1","99999,9,9,Y","009900,5,9,9","+0060,1","+0020,1","99999,9",,,,,,"10280,1,99999,9",,,,"MET052METAR ZSSS 072100Z 36003MPS CAVOK 06/02 Q1028 NOSIG="
"58367099999","2022-01-07T21:30:00","4","31.197875","121.336319","3.04","HONGQIAO INTERNATIONAL, CH","FM-15","99999","V020","360,1,N,0030,1","99999,9,9,Y","009900,5,9,9","+0060,1","+0030,1","99999,9",,,,,,"10280,1,99999,9",,,,"MET052METAR ZSSS 072130Z 36003MPS CAVOK 06/03 Q1028 NOSIG="
"58367099999","2022-01-07T22:00:00","4","31.197875","121.336319","3.04","HONGQIAO INTERNATIONAL, CH","FM-15","99999","V020","360,1,N,0030,1","99999,9,9,Y","009900,5,9,9","+0060,1","+0030,1","99999,9",,,,,,"10280,1,99999,9",,,,"MET052METAR ZSSS 072200Z 36003MPS CAVOK 06/03 Q1028 NOSIG="
"58367099999","2022-01-07T22:30:00","4","31.197875","121.336319","3.04","HONGQIAO INTERNATIONAL, CH","FM-15","99999","V020","030,1,N,0030,1","99999,9,9,Y","009900,5,9,9","+0060,1","+0020,1","99999,9",,,,,,"10280,1,99999,9",,,,"MET052METAR ZSSS 072230Z 03003MPS CAVOK 06/02 Q1028 NOSIG="
"58367099999","2022-01-07T23:00:00","4","31.197875","121.336319","3.04","HONGQIAO INTERNATIONAL, CH","FM-15","99999","V020","020,1,N,0020,1","99999,9,9,Y","009900,5,9,9","+0060,1","+0020,1","99999,9",,,,,,"10280,1,99999,9",,,,"MET052METAR ZSSS 072300Z 02002MPS CAVOK 06/02 Q1028 NOSIG="
"58367099999","2022-01-07T23:30:00","4","31.197875","121.336319","3.04","HONGQIAO INTERNATIONAL, CH","FM-15","99999","V020","020,1,N,0020,1","99999,9,9,Y","009900,5,9,9","+0060,1","+0020,1","99999,9",,,,,,"10280,1,99999,9",,,,"MET052METAR ZSSS 072330Z 02002MPS CAVOK 06/02 Q1028 NOSIG="
"58367099999","2022-01-08T00:00:00","4","31.197875","121.336319","3.04","HONGQIAO INTERNATIONAL, CH","FM-15","99999","V020","030,1,N,0030,1","99999,9,9,Y","009900,5,9,9","+0070,1","+0020,1","99999,9",,,,,,"10280,1,99999,9",,,,"MET052METAR ZSSS 080000Z 03003MPS CAVOK 07/02 Q1028 NOSIG="
"58367099999","2022-01-08T00:30:00","4","31.197875","121.336319","3.04","HONGQIAO INTERNATIONAL, CH","FM-15","99999","V020","040,1,N,0030,1","99999,9,9,Y","009900,5,9,9","+0070,1","+0010,1","99999,9",,,,,,"10280,1,99999,9",,,,"MET052METAR ZSSS 080030Z 04003MPS CAVOK 07/01 Q1028 NOSIG="
"58367099999","2022-01-08T01:00:00","4","31.197875","121.336319","3.04","HONGQIAO INTERNATIONAL, CH","FM-15","99999","V020","050,1,N,0030,1","99999,9,9,Y","009900,5,9,9","+0070,1","+0010,1","99999,9",,,,,,"10290,1,99999,9",,,,"MET052METAR ZSSS 080100Z 05003MPS CAVOK 07/01 Q1029 NOSIG="
"58367099999","2022-01-08T01:30:00","4","31.197875","121.336319","3.04","HONGQIAO INTERNATIONAL, CH","FM-15","99999","V020","030,1,N,0030,1","99999,9,9,Y","009900,5,9,9","+0080,1","+0010,1","99999,9",,,,,,"10290,1,99999,9",,,,"MET052METAR ZSSS 080130Z 03003MPS CAVOK 08/01 Q1029 NOSIG="
"58367099999","2022-01-08T02:00:00","4","31.197875","121.336319","3.04","HONGQIAO INTERNATIONAL, CH","FM-15","99999","V020","040,1,N,0030,1","99999,9,9,Y","009900,5,9,9","+0080,1","+0010,1","99999,9",,,,,,"10280,1,99999,9",,,,"MET052METAR ZSSS 080200Z 04003MPS CAVOK 08/01 Q1028 NOSIG="
"58367099999","2022-01-08T02:30:00","4","31.197875","121.336319","3.04","HONGQIAO INTERNATIONAL, CH","FM-15","99999","V020","080,1,N,0030,1","99999,9,9,Y","009900,5,9,9","+0080,1","+0010,1","99999,9",,,,,,"10280,1,99999,9",,,,"MET052METAR ZSSS 080230Z 08003MPS CAVOK 08/01 Q1028 NOSIG="
"58367099999","2022-01-08T03:00:00","4","31.197875","121.336319","3.04","HONGQIAO INTERNATIONAL, CH","FM-15","99999","V020","360,1,V,0020,1","99999,9,9,Y","009900,5,9,9","+0080,1","+0000,1","99999,9",,,,,,"10280,1,99999,9",,,,"MET060METAR ZSSS 080300Z 36002MPS 300V060 CAVOK 08/00 Q1028 NOSIG="
"58367099999","2022-01-08T03:30:00","4","31.197875","121.336319","3.04","HONGQIAO INTERNATIONAL, CH","FM-15","99999","V020","050,1,V,0020,1","99999,9,9,Y","009900,5,9,9","+0080,1","+0000,1","99999,9",,,,,,"10270,1,99999,9",,,,"MET060METAR ZSSS 080330Z 05002MPS 010V110 CAVOK 08/00 Q1027 NOSIG="
"58367099999","2022-01-08T04:00:00","4","31.197875","121.336319","3.04","HONGQIAO INTERNATIONAL, CH","FM-15","99999","V020","340,1,V,0020,1","99999,9,9,Y","009900,5,9,9","+0090,1","+0000,1","99999,9",,,,,,"10270,1,99999,9",,,,"MET060METAR ZSSS 080400Z 34002MPS 300V030 CAVOK 09/00 Q1027 NOSIG="
"58367099999","2022-01-08T04:30:00","4","31.197875","121.336319","3.04","HONGQIAO INTERNATIONAL, CH","FM-15","99999","V020","360,1,V,0020,1","99999,9,9,Y","009900,5,9,9","+0090,1","+0000,1","99999,9",,,,,,"10270,1,99999,9",,,,"MET060METAR ZSSS 080430Z 36002MPS 300V030 CAVOK 09/00 Q1027 NOSIG="
"58367099999","2022-01-08T05:00:00","4","31.197875","121.336319","3.04","HONGQIAO INTERNATIONAL, CH","FM-15","99999","V020","030,1,V,0020,1","99999,9,9,Y","009900,5,9,9","+0090,1","+0000,1","99999,9",,,,,,"10260,1,99999,9",,,,"MET060METAR ZSSS 080500Z 03002MPS 340V110 CAVOK 09/00 Q1026 NOSIG="
"58367099999","2022-01-08T05:30:00","4","31.197875","121.336319","3.04","HONGQIAO INTERNATIONAL, CH","FM-15","99999","V020","360,1,N,0040,1","99999,9,9,Y","009900,5,9,9","+0090,1","+0000,1","99999,9",,,,,,"10260,1,99999,9",,,,"MET053METAR ZSSS 080530Z 36004MPS CAVOK 09/M00 Q1026 NOSIG="
"58367099999","2022-01-08T06:00:00","4","31.197875","121.336319","3.04","HONGQIAO INTERNATIONAL, CH","FM-15","99999","V020","360,1,N,0030,1","99999,9,9,Y","009900,5,9,9","+0080,1","-0010,1","99999,9",,,,,,"10260,1,99999,9",,,,"MET053METAR ZSSS 080600Z 36003MPS CAVOK 08/M01 Q1026 NOSIG="
"58367099999","2022-01-08T06:30:00","4","31.197875","121.336319","3.04","HONGQIAO INTERNATIONAL, CH","FM-15","99999","V020","010,1,N,0030,1","99999,9,9,Y","009900,5,9,9","+0080,1","+0000,1","99999,9",,,,,,"10250,1,99999,9",,,,"MET053METAR ZSSS 080630Z 01003MPS CAVOK 08/M00 Q1025 NOSIG="
"58367099999","2022-01-08T07:00:00","4","31.197875","121.336319","3.04","HONGQIAO INTERNATIONAL, CH","FM-15","99999","V020","020,1,V,0020,1","99999,9,9,Y","009900,5,9,9","+0080,1","+0000,1","99999,9",,,,,,"10250,1,99999,9",,,,"MET061METAR ZSSS 080700Z 02002MPS 340V060 CAVOK 08/M00 Q1025 NOSIG="
"58367099999","2022-01-08T07:30:00","4","31.197875","121.336319","3.04","HONGQIAO INTERNATIONAL, CH","FM-15","99999","V020","010,1,V,0030,1","99999,9,9,Y","009900,5,9,9","+0080,1","+0000,1","99999,9",,,,,,"10250,1,99999,9",,,,"MET061METAR ZSSS 080730Z 01003MPS 340V060 CAVOK 08/M00 Q1025 NOSIG="
"58367099999","2022-01-08T08:00:00","4","31.197875","121.336319","3.04","HONGQIAO INTERNATIONAL, CH","FM-15","99999","V020","010,1,N,0020,1","99999,9,9,Y","009900,5,9,9","+0080,1","+0000,1","99999,9",,,,,,"10250,1,99999,9",,,,"MET053METAR ZSSS 080800Z 01002MPS CAVOK 08/M00 Q1025 NOSIG="
"58367099999","2022-01-08T08:30:00","4","31.197875","121.336319","3.04","HONGQIAO INTERNATIONAL, CH","FM-15","99999","V020","340,1,N,0030,1","99999,9,9,Y","009900,5,9,9","+0080,1","+0000,1","99999,9",,,,,,"10250,1,99999,9",,,,"MET053METAR ZSSS 080830Z 34003MPS CAVOK 08/M00 Q1025 NOSIG="
"58367099999","2022-01-08T09:00:00","4","31.197875","121.336319","3.04","HONGQIAO INTERNATIONAL, CH","FM-15","99999","V020","020,1,N,0030,1","99999,9,9,Y","009900,5,9,9","+0080,1","+0000,1","99999,9",,,,,,"10250,1,99999,9",,,,"MET053METAR ZSSS 080900Z 02003MPS CAVOK 08/M00 Q1025 NOSIG="
"58367099999","2022-01-08T09:30:00","4","31.197875","121.336319","3.04","HONGQIAO INTERNATIONAL, CH","FM-15","99999","V020","020,1,V,0030,1","99999,9,9,Y","009900,5,9,9","+0080,1","+0000,1","99999,9",,,,,,"10260,1,99999,9",,,,"MET061METAR ZSSS 080930Z 02003MPS 010V070 CAVOK 08/M00 Q1026 NOSIG="
"58367099999","2022-01-08T10:00:00","4","31.197875","121.336319","3.04","HONGQIAO INTERNATIONAL, CH","FM-15","99999","V020","010,1,N,0040,1","99999,9,9,Y","009900,5,9,9","+0080,1","+0000,1","99999,9",,,,,,"10260,1,99999,9",,,,"MET052METAR ZSSS 081000Z 01004MPS CAVOK 08/00 Q1026 NOSIG="
"58367099999","2022-01-08T10:30:00","4","31.197875","121.336319","3.04","HONGQIAO INTERNATIONAL, CH","FM-15","99999","V020","360,1,N,0030,1","99999,9,9,Y","009900,5,9,9","+0080,1","+0000,1","99999,9",,,,,,"10260,1,99999,9",,,,"MET053METAR ZSSS 081030Z 36003MPS CAVOK 08/M00 Q1026 NOSIG="
"58367099999","2022-01-08T11:00:00","4","31.197875","121.336319","3.04","HONGQIAO INTERNATIONAL, CH","FM-15","99999","V020","360,1,N,0020,1","99999,9,9,Y","009900,5,9,9","+0080,1","+0000,1","99999,9",,,,,,"10260,1,99999,9",,,,"MET052METAR ZSSS 081100Z 36002MPS CAVOK 08/00 Q1026 NOSIG="
"58367099999","2022-01-08T11:30:00","4","31.197875","121.336319","3.04","HONGQIAO INTERNATIONAL, CH","FM-15","99999","V020","350,1,N,0030,1","99999,9,9,Y","009900,5,9,9","+0080,1","+0000,1","99999,9",,,,,,"10270,1,99999,9",,,,"MET052METAR ZSSS 081130Z 35003MPS CAVOK 08/00 Q1027 NOSIG="
"58367099999","2022-01-08T12:00:00","4","31.197875","121.336319","3.04","HONGQIAO INTERNATIONAL, CH","FM-15","99999","V020","020,1,N,0040,1","99999,9,9,Y","009900,5,9,9","+0070,1","+0000,1","99999,9",,,,,,"10270,1,99999,9",,,,"MET052METAR ZSSS 081200Z 02004MPS CAVOK 07/00 Q1027 NOSIG="
"58367099999","2022-01-08T12:30:00","4","31.197875","121.336319","3.04","HONGQIAO INTERNATIONAL, CH","FM-15","99999","V020","030,1,N,0040,1","99999,9,9,Y","009900,5,9,9","+0070,1","+0010,1","99999,9",,,,,,"10260,1,99999,9",,,,"MET052METAR ZSSS 081230Z 03004MPS CAVOK 07/01 Q1026 NOSIG="
"58367099999","2022-01-08T13:00:00","4","31.197875","121.336319","3.04","HONGQIAO INTERNATIONAL, CH","FM-15","99999","V020","040,1,V,0020,1","99999,9,9,Y","009900,5,9,9","+0070,1","+0010,1","99999,9",,,,,,"10270,1,99999,9",,,,"MET060METAR ZSSS 081300Z 04002MPS 010V070 CAVOK 07/01 Q1027 NOSIG="
"58367099999","2022-01-08T13:30:00","4","31.197875","121.336319","3.04","HONGQIAO INTERNATIONAL, CH","FM-15","99999","V020","040,1,N,0030,1","99999,9,9,Y","009900,5,9,9","+0070,1","+0010,1","99999,9",,,,,,"10260,1,99999,9",,,,"MET052METAR ZSSS 081330Z 04003MPS CAVOK 07/01 Q1026 NOSIG="
"58367099999","2022-01-08T14:00:00","4","31.197875","121.336319","3.04","HONGQIAO INTERNATIONAL, CH","FM-15","99999","V020","080,1,N,0020,1","99999,9,9,Y","009900,5,9,9","+0070,1","+0010,1","99999,9",,,,,,"10260,1,99999,9",,,,"MET052METAR ZSSS 081400Z 08002MPS CAVOK 07/01 Q1026 NOSIG="
"58367099999","2022-01-08T14:30:00","4","31.197875","121.336319","3.04","HONGQIAO INTERNATIONAL, CH","FM-15","99999","V020","060,1,N,0020,1","99999,9,9,Y","009900,5,9,9","+0070,1","+0010,1","99999,9",,,,,,"10260,1,99999,9",,,,"MET052METAR ZSSS 081430Z 06002MPS CAVOK 07/01 Q1026 NOSIG="
"58367099999","2022-01-08T15:00:00","4","31.197875","121.336319","3.04","HONGQIAO INTERNATIONAL, CH","FM-15","99999","V020","040,1,V,0020,1","99999,9,9,Y","009900,5,9,9","+0070,1","+0010,1","99999,9",,,,,,"10260,1,99999,9",,,,"MET060METAR ZSSS 081500Z 04002MPS 020V080 CAVOK 07/01 Q1026 NOSIG="
"58367099999","2022-01-08T15:30:00","4","31.197875","121.336319","3.04","HONGQIAO INTERNATIONAL, CH","FM-15","99999","V020","030,1,N,0030,1","99999,9,9,Y","009900,5,9,9","+0070,1","+0000,1","99999,9",,,,,,"10260,1,99999,9",,,,"MET052METAR ZSSS 081530Z 03003MPS CAVOK 07/00 Q1026 NOSIG="
"58367099999","2022-01-08T16:00:00","4","31.197875","121.336319","3.04","HONGQIAO INTERNATIONAL, CH","FM-15","99999","V020","030,1,N,0050,1","99999,9,9,Y","009900,5,9,9","+0070,1","+0000,1","99999,9",,,,,,"10250,1,99999,9",,,,"MET052METAR ZSSS 081600Z 03005MPS CAVOK 07/00 Q1025 NOSIG="
"58367099999","2022-01-08T16:30:00","4","31.197875","121.336319","3.04","HONGQIAO INTERNATIONAL, CH","FM-15","99999","V020","030,1,N,0040,1","99999,9,9,Y","009900,5,9,9","+0070,1","+0000,1","99999,9",,,,,,"10250,1,99999,9",,,,"MET052METAR ZSSS 081630Z 03004MPS CAVOK 07/00 Q1025 NOSIG="
"58367099999","2022-01-08T17:00:00","4","31.197875","121.336319","3.04","HONGQIAO INTERNATIONAL, CH","FM-15","99999","V020","050,1,V,0040,1","99999,9,9,Y","009900,5,9,9","+0070,1","+0000,1","99999,9",,,,,,"10250,1,99999,9",,,,"MET061METAR ZSSS 081700Z 05004MPS 020V090 CAVOK 07/M00 Q1025 NOSIG="
"58367099999","2022-01-08T17:30:00","4","31.197875","121.336319","3.04","HONGQIAO INTERNATIONAL, CH","FM-15","99999","V020","040,1,N,0030,1","99999,9,9,Y","009900,5,9,9","+0060,1","+0000,1","99999,9",,,,,,"10250,1,99999,9",,,,"MET053METAR ZSSS 081730Z 04003MPS CAVOK 06/M00 Q1025 NOSIG="
"58367099999","2022-01-08T18:00:00","4","31.197875","121.336319","3.04","HONGQIAO INTERNATIONAL, CH","FM-15","99999","V020","040,1,N,0030,1","99999,9,9,Y","009900,5,9,9","+0060,1","+0000,1","99999,9",,,,,,"10250,1,99999,9",,,,"MET053METAR ZSSS 081800Z 04003MPS CAVOK 06/M00 Q1025 NOSIG="
"58367099999","2022-01-08T18:30:00","4","31.197875","121.336319","3.04","HONGQIAO INTERNATIONAL, CH","FM-15","99999","V020","360,1,N,0020,1","99999,9,9,Y","009900,5,9,9","+0060,1","+0000,1","99999,9",,,,,,"10250,1,99999,9",,,,"MET053METAR ZSSS 081830Z 36002MPS CAVOK 06/M00 Q1025 NOSIG="
"58367099999","2022-01-08T19:00:00","4","31.197875","121.336319","3.04","HONGQIAO INTERNATIONAL, CH","FM-15","99999","V020","010,1,N,0020,1","99999,9,9,Y","009900,5,9,9","+0060,1","+0000,1","99999,9",,,,,,"10250,1,99999,9",,,,"MET053METAR ZSSS 081900Z 01002MPS CAVOK 06/M00 Q1025 NOSIG="
"58367099999","2022-01-08T19:30:00","4","31.197875","121.336319","3.04","HONGQIAO INTERNATIONAL, CH","FM-15","99999","V020","360,1,N,0030,1","99999,9,9,Y","009900,5,9,9","+0060,1","+0000,1","99999,9",,,,,,"10250,1,99999,9",,,,"MET053METAR ZSSS 081930Z 36003MPS CAVOK 06/M00 Q1025 NOSIG="
"58367099999","2022-01-08T20:00:00","4","31.197875","121.336319","3.04","HONGQIAO INTERNATIONAL, CH","FM-15","99999","V020","020,1,N,0030,1","99999,9,9,Y","009900,5,9,9","+0060,1","+0000,1","99999,9",,,,,,"10240,1,99999,9",,,,"MET053METAR ZSSS 082000Z 02003MPS CAVOK 06/M00 Q1024 NOSIG="
"58367099999","2022-01-08T20:30:00","4","31.197875","121.336319","3.04","HONGQIAO INTERNATIONAL, CH","FM-15","99999","V020","020,1,N,0020,1","99999,9,9,Y","009900,5,9,9","+0060,1","+0000,1","99999,9",,,,,,"10240,1,99999,9",,,,"MET053METAR ZSSS 082030Z 02002MPS CAVOK 06/M00 Q1024 NOSIG="
"58367099999","2022-01-08T21:00:00","4","31.197875","121.336319","3.04","HONGQIAO INTERNATIONAL, CH","FM-15","99999","V020","360,1,N,0020,1","99999,9,9,Y","009900,5,9,9","+0060,1","+0000,1","99999,9",,,,,,"10240,1,99999,9",,,,"MET052METAR ZSSS 082100Z 36002MPS CAVOK 06/00 Q1024 NOSIG="
"58367099999","2022-01-08T21:30:00","4","31.197875","121.336319","3.04","HONGQIAO INTERNATIONAL, CH","FM-15","99999","V020","010,1,N,0010,1","99999,9,9,Y","009900,5,9,9","+0060,1","+0000,1","99999,9",,,,,,"10240,1,99999,9",,,,"MET052METAR ZSSS 082130Z 01001MPS CAVOK 06/00 Q1024 NOSIG="
"58367099999","2022-01-08T22:00:00","4","31.197875","121.336319","3.04","HONGQIAO INTERNATIONAL, CH","FM-15","99999","V020","330,1,N,0020,1","99999,9,9,Y","009900,5,9,9","+0060,1","+0000,1","99999,9",,,,,,"10250,1,99999,9",,,,"MET052METAR ZSSS 082200Z 33002MPS CAVOK 06/00 Q1025 NOSIG="
"58367099999","2022-01-08T22:30:00","4","31.197875","121.336319","3.04","HONGQIAO INTERNATIONAL, CH","FM-15","99999","V020","340,1,N,0010,1","99999,9,9,Y","009900,5,9,9","+0060,1","+0000,1","99999,9",,,,,,"10250,1,99999,9",,,,"MET052METAR ZSSS 082230Z 34001MPS CAVOK 06/00 Q1025 NOSIG="
"58367099999","2022-01-08T23:00:00","4","31.197875","121.336319","3.04","HONGQIAO INTERNATIONAL, CH","FM-15","99999","V020","360,1,N,0020,1","99999,9,9,Y","009900,5,9,9","+0060,1","+0000,1","99999,9",,,,,,"10250,1,99999,9",,,,"MET052METAR ZSSS 082300Z 36002MPS CAVOK 06/00 Q1025 NOSIG="
"58367099999","2022-01-08T23:30:00","4","31.197875","121.336319","3.04","HONGQIAO INTERNATIONAL, CH","FM-15","99999","V020","340,1,N,0030,1","99999,9,9,Y","009900,5,9,9","+0060,1","+0000,1","99999,9",,,,,,"10250,1,99999,9",,,,"MET052METAR ZSSS 082330Z 34003MPS CAVOK 06/00 Q1025 NOSIG="
"58367099999","2022-01-09T00:00:00","4","31.197875","121.336319","3.04","HONGQIAO INTERNATIONAL, CH","FM-15","99999","V020","330,1,N,0030,1","99999,9,9,Y","009900,5,9,9","+0060,1","+0000,1","99999,9",,,,,,"10250,1,99999,9",,,,"MET052METAR ZSSS 090000Z 33003MPS CAVOK 06/00 Q1025 NOSIG="
"58367099999","2022-01-09T00:30:00","4","31.197875","121.336319","3.04","HONGQIAO INTERNATIONAL, CH","FM-15","99999","V020","330,1,N,0030,1","01219,1,C,N","009999,1,9,9","+0060,1","+0010,1","99999,9",,"08,1,+01219,1,99,9",,"9,AGL   ,+99999,+99999","99,99,9,08,1,99,9,01219,1,99,9,99,9","10260,1,99999,9","61,1",,,"MET062METAR ZSSS 090030Z 33003MPS 9999 -RA OVC040 06/01 Q1026 NOSIG="
"58367099999","2022-01-09T01:00:00","4","31.197875","121.336319","3.04","HONGQIAO INTERNATIONAL, CH","FM-15","99999","V020","350,1,N,0020,1","01006,1,C,N","009999,1,9,9","+0060,1","+0010,1","99999,9",,"08,1,+01006,1,99,9",,"9,AGL   ,+99999,+99999","99,99,9,08,1,99,9,01006,1,99,9,99,9","10260,1,99999,9","61,1",,,"MET062METAR ZSSS 090100Z 35002MPS 9999 -RA OVC033 06/01 Q1026 NOSIG="
"58367099999","2022-01-09T01:30:00","4","31.197875","121.336319","3.04","HONGQIAO INTERNATIONAL, CH","FM-15","99999","V020","340,1,V,0030,1","01006,1,C,N","009999,1,9,9","+0070,1","+0010,1","99999,9",,"08,1,+01006,1,99,9",,"9,AGL   ,+99999,+99999","99,99,9,08,1,99,9,01006,1,99,9,99,9","10260,1,99999,9",,,,"MET066METAR ZSSS 090130Z 34003MPS 310V010 9999 OVC033 07/01 Q1026 NOSIG="
"58367099999","2022-01-09T02:00:00","4","31.197875","121.336319","3.04","HONGQIAO INTERNATIONAL, CH","FM-15","99999","V020","350,1,V,0020,1","99999,9,9,Y","009900,5,9,9","+0070,1","+0010,1","99999,9",,,,,,"10250,1,99999,9",,,,"MET060METAR ZSSS 090200Z 35002MPS 300V030 CAVOK 07/01 Q1025 NOSIG="
"58367099999","2022-01-09T02:30:00","4","31.197875","121.336319","3.04","HONGQIAO INTERNATIONAL, CH","FM-15","99999","V020","340,1,V,0020,1","99999,9,9,Y","009900,5,9,9","+0080,1","+0010,1","99999,9",,,,,,"10250,1,99999,9",,,,"MET060METAR ZSSS 090230Z 34002MPS 310V020 CAVOK 08/01 Q1025 NOSIG="
"58367099999","2022-01-09T03:00:00","4","31.197875","121.336319","3.04","HONGQIAO INTERNATIONAL, CH","FM-15","99999","V020","360,1,N,0030,1","22000,1,9,N","007000,1,9,9","+0070,1","+0000,1","99999,9",,,,,"00,99,1,99,9,99,9,99999,9,99,9,99,9","10250,1,99999,9",,,,"MET055METAR ZSSS 090300Z 36003MPS 7000 NSC 07/00 Q1025 NOSIG="
"58367099999","2022-01-09T03:30:00","4","31.197875","121.336319","3.04","HONGQIAO INTERNATIONAL, CH","FM-15","99999","V020","340,1,V,0020,1","22000,1,9,N","007000,1,9,9","+0070,1","+0000,1","99999,9",,,,,"00,99,1,99,9,99,9,99999,9,99,9,99,9","10240,1,99999,9",,,,"MET063METAR ZSSS 090330Z 34002MPS 250V010 7000 NSC 07/00 Q1024 NOSIG="
"58367099999","2022-01-09T04:00:00","4","31.197875","121.336319","3.04","HONGQIAO INTERNATIONAL, CH","FM-15","99999","V020","340,1,V,0040,1","22000,1,9,N","007000,1,9,9","+0080,1","+0000,1","99999,9",,,,,"00,99,1,99,9,99,9,99999,9,99,9,99,9","10240,1,99999,9",,,,"MET063METAR ZSSS 090400Z 34004MPS 320V020 7000 NSC 08/00 Q1024 NOSIG="
"58367099999","2022-01-09T04:30:00","4","31.197875","121.336319","3.04","HONGQIAO INTERNATIONAL, CH","FM-15","99999","V020","330,1,V,0030,1","22000,1,9,N","007000,1,9,9","+0080,1","+0000,1","99999,9",,,,,"00,99,1,99,9,99,9,99999,9,99,9,99,9","10240,1,99999,9","61,1",,,"MET067METAR ZSSS 090430Z 33003MPS 290V360 7000 -RA NSC 08/00 Q1024 NOSIG="
"58367099999","2022-01-09T05:00:00","4","31.197875","121.336319","3.04","HONGQIAO INTERNATIONAL, CH","FM-15","99999","V020","360,1,N,0050,1","99999,9,9,N","006000,1,9,9","+0070,1","+0010,1","99999,9",,"02,1,+00701,1,99,9",,"9,AGL   ,+99999,+99999","99,99,9,02,1,99,9,00701,1,99,9,99,9","10230,1,99999,9","61,1",,,"MET062METAR ZSSS 090500Z 36005MPS 6000 -RA FEW023 07/01 Q1023 NOSIG="
"58367099999","2022-01-09T05:30:00","4","31.197875","121.336319","3.04","HONGQIAO INTERNATIONAL, CH","FM-15","99999","V020","999,9,V,0010,1","99999,9,9,N","006000,1,9,9","+0070,1","+0010,1","99999,9",,"02,1,+00914,1,99,9",,"9,AGL   ,+99999,+99999","99,99,9,02,1,99,9,00914,1,99,9,99,9","10230,1,99999,9","61,1",,,"MET062METAR ZSSS 090530Z VRB01MPS 6000 -RA FEW030 07/01 Q1023 NOSIG="
"58367099999","2022-01-09T06:00:00","4","31.197875","121.336319","3.04","HONGQIAO INTERNATIONAL, CH","FM-15","99999","V020","999,9,V,0010,1","99999,9,9,N","006000,1,9,9","+0070,1","+0010,1","99999,9",,"02,1,+00914,1,99,9",,"9,AGL   ,+99999,+99999","99,99,9,02,1,99,9,00914,1,99,9,99,9","10230,1,99999,9",,,,"MET058METAR ZSSS 090600Z VRB01MPS 6000 FEW030 07/01 Q1023 NOSIG="
"58367099999","2022-01-09T06:30:00","4","31.197875","121.336319","3.04","HONGQIAO INTERNATIONAL, CH","FM-15","99999","V020","340,1,V,0020,1","99999,9,9,N","006000,1,9,9","+0070,1","+0010,1","99999,9",,"02,1,+00914,1,99,9",,"9,AGL   ,+99999,+99999","99,99,9,02,1,99,9,00914,1,99,9,99,9","10230,1,99999,9",,,,"MET066METAR ZSSS 090630Z 34002MPS 270V040 6000 FEW030 07/01 Q1023 NOSIG="
"58367099999","2022-01-09T07:00:00","4","31.197875","121.336319","3.04","HONGQIAO INTERNATIONAL, CH","FM-15","99999","V020","020,1,V,0020,1","22000,1,9,N","006000,1,9,9","+0070,1","+0010,1","99999,9",,,,,"00,99,1,99,9,99,9,99999,9,99,9,99,9","10230,1,99999,9",,,,"MET063METAR ZSSS 090700Z 02002MPS 330V060 6000 NSC 07/01 Q1023 NOSIG="
"58367099999","2022-01-09T07:30:00","4","31.197875","121.336319","3.04","HONGQIAO INTERNATIONAL, CH","FM-15","99999","V020","999,9,V,0010,1","22000,1,9,N","006000,1,9,9","+0080,1","+0010,1","99999,9",,,,,"00,99,1,99,9,99,9,99999,9,99,9,99,9","10230,1,99999,9",,,,"MET055METAR ZSSS 090730Z VRB01MPS 6000 NSC 08/01 Q1023 NOSIG="
"58367099999","2022-01-09T08:00:00","4","31.197875","121.336319","3.04","HONGQIAO INTERNATIONAL, CH","FM-15","99999","V020","999,9,V,0010,1","22000,1,9,N","006000,1,9,9","+0070,1","+0010,1","99999,9",,,,,"00,99,1,99,9,99,9,99999,9,99,9,99,9","10230,1,99999,9",,,,"MET055METAR ZSSS 090800Z VRB01MPS 6000 NSC 07/01 Q1023 NOSIG="
"58367099999","2022-01-09T08:30:00","4","31.197875","121.336319","3.04","HONGQIAO INTERNATIONAL, CH","FM-15","99999","V020","310,1,V,0020,1","22000,1,9,N","006000,1,9,9","+0080,1","+0010,1","99999,9",,,,,"00,99,1,99,9,99,9,99999,9,99,9,99,9","10230,1,99999,9",,,,"MET063METAR ZSSS 090830Z 31002MPS 220V350 6000 NSC 08/01 Q1023 NOSIG="
"58367099999","2022-01-09T09:00:00","4","31.197875","121.336319","3.04","HONGQIAO INTERNATIONAL, CH","FM-15","99999","V020","300,1,V,0020,1","22000,1,9,N","005000,1,9,9","+0070,1","+0010,1","99999,9",,,,,"00,99,1,99,9,99,9,99999,9,99,9,99,9","10230,1,99999,9","05,1",,,"MET066METAR ZSSS 090900Z 30002MPS 270V340 5000 HZ NSC 07/01 Q1023 NOSIG="
"58367099999","2022-01-09T09:30:00","4","31.197875","121.336319","3.04","HONGQIAO INTERNATIONAL, CH","FM-15","99999","V020","010,1,V,0020,1","22000,1,9,N","006000,1,9,9","+0070,1","+0010,1","99999,9",,,,,"00,99,1,99,9,99,9,99999,9,99,9,99,9","10230,1,99999,9",,,,"MET063METAR ZSSS 090930Z 01002MPS 320V060 6000 NSC 07/01 Q1023 NOSIG="
"58367099999","2022-01-09T10:00:00","4","31.197875","121.336319","3.04","HONGQIAO INTERNATIONAL, CH","FM-15","99999","V020","030,1,N,0020,1","22000,1,9,N","006000,1,9,9","+0070,1","+0000,1","99999,9",,,,,"00,99,1,99,9,99,9,99999,9,99,9,99,9","10240,1,99999,9",,,,"MET055METAR ZSSS 091000Z 03002MPS 6000 NSC 07/00 Q1024 NOSIG="
"58367099999","2022-01-09T10:30:00","4","31.197875","121.336319","3.04","HONGQIAO INTERNATIONAL, CH","FM-15","99999","V020","010,1,N,0020,1","22000,1,9,N","006000,1,9,9","+0070,1","+0010,1","99999,9",,,,,"00,99,1,99,9,99,9,99999,9,99,9,99,9","10240,1,99999,9",,,,"MET055METAR ZSSS 091030Z 01002MPS 6000 NSC 07/01 Q1024 NOSIG="
"58367099999","2022-01-09T11:00:00","4","31.197875","121.336319","3.04","HONGQIAO INTERNATIONAL, CH","FM-15","99999","V020","350,1,N,0020,1","22000,1,9,N","006000,1,9,9","+0070,1","+0010,1","99999,9",,,,,"00,99,1,99,9,99,9,99999,9,99,9,99,9","10240,1,99999,9",,,,"MET055METAR ZSSS 091100Z 35002MPS 6000 NSC 07/01 Q1024 NOSIG="
"58367099999","2022-01-09T11:30:00","4","31.197875","121.336319","3.04","HONGQIAO INTERNATIONAL, CH","FM-15","99999","V020","350,1,V,0020,1","22000,1,9,N","006000,1,9,9","+0070,1","+0010,1","99999,9",,,,,"00,99,1,99,9,99,9,99999,9,99,9,99,9","10240,1,99999,9",,,,"MET063METAR ZSSS 091130Z 35002MPS 320V020 6000 NSC 07/01 Q1024 NOSIG="
"58367099999","2022-01-09T12:00:00","4","31.197875","121.336319","3.04","HONGQIAO INTERNATIONAL, CH","FM-15","99999","V020","300,1,N,0020,1","22000,1,9,N","006000,1,9,9","+0070,1","+0010,1","99999,9",,,,,"00,99,1,99,9,99,9,99999,9,99,9,99,9","10250,1,99999,9",,,,"MET055METAR ZSSS 091200Z 30002MPS 6000 NSC 07/01 Q1025 NOSIG="
"58367099999","2022-01-09T12:30:00","4","31.197875","121.336319","3.04","HONGQIAO INTERNATIONAL, CH","FM-15","99999","V020","340,1,N,0020,1","22000,1,9,N","006000,1,9,9","+0070,1","+0010,1","99999,9",,,,,"00,99,1,99,9,99,9,99999,9,99,9,99,9","10250,1,99999,9",,,,"MET055METAR ZSSS 091230Z 34002MPS 6000 NSC 07/01 Q1025 NOSIG="
"58367099999","2022-01-09T13:00:00","4","31.197875","121.336319","3.04","HONGQIAO INTERNATIONAL, CH","FM-15","99999","V020","350,1,N,0020,1","22000,1,9,N","006000,1,9,9","+0070,1","+0010,1","99999,9",,,,,"00,99,1,99,9,99,9,99999,9,99,9,99,9","10250,1,99999,9",,,,"MET055METAR ZSSS 091300Z 35002MPS 6000 NSC 07/01 Q1025 NOSIG="
"58367099999","2022-01-09T13:30:00","4","31.197875","121.336319","3.04","HONGQIAO INTERNATIONAL, CH","FM-15","99999","V020","340,1,N,0030,1","22000,1,9,N","005000,1,9,9","+0070,1","+0010,1","99999,9",,,,,"00,99,1,99,9,99,9,99999,9,99,9,99,9","10250,1,99999,9","05,1",,,"MET058METAR ZSSS 091330Z 34003MPS 5000 HZ NSC 07/01 Q1025 NOSIG="
"58367099999","2022-01-09T14:00:00","4","31.197875","121.336319","3.04","HONGQIAO INTERNATIONAL, CH","FM-15","99999","V020","350,1,N,0030,1","22000,1,9,N","005000,1,9,9","+0070,1","+0010,1","99999,9",,,,,"00,99,1,99,9,99,9,99999,9,99,9,99,9","10240,1,99999,9","05,1",,,"MET058METAR ZSSS 091400Z 35003MPS 5000 HZ NSC 07/01 Q1024 NOSIG="
"58367099999","2022-01-09T14:30:00","4","31.197875","121.336319","3.04","HONGQIAO INTERNATIONAL, CH","FM-15","99999","V020","360,1,N,0020,1","22000,1,9,N","005000,1,9,9","+0070,1","+0010,1","99999,9",,,,,"00,99,1,99,9,99,9,99999,9,99,9,99,9","10240,1,99999,9","05,1",,,"MET058METAR ZSSS 091430Z 36002MPS 5000 HZ NSC 07/01 Q1024 NOSIG="
"58367099999","2022-01-09T15:00:00","4","31.197875","121.336319","3.04","HONGQIAO INTERNATIONAL, CH","FM-15","99999","V020","350,1,N,0020,1","22000,1,9,N","005000,1,9,9","+0070,1","+0010,1","99999,9",,,,,"00,99,1,99,9,99,9,99999,9,99,9,99,9","10240,1,99999,9","05,1",,,"MET058METAR ZSSS 091500Z 35002MPS 5000 HZ NSC 07/01 Q1024 NOSIG="
"58367099999","2022-01-09T15:30:00","4","31.197875","121.336319","3.04","HONGQIAO INTERNATIONAL, CH","FM-15","99999","V020","360,1,N,0020,1","22000,1,9,N","004500,1,9,9","+0070,1","+0010,1","99999,9",,,,,"00,99,1,99,9,99,9,99999,9,99,9,99,9","10240,1,99999,9","05,1",,,"MET058METAR ZSSS 091530Z 36002MPS 4500 HZ NSC 07/01 Q1024 NOSIG="
"58367099999","2022-01-09T16:00:00","4","31.197875","121.336319","3.04","HONGQIAO INTERNATIONAL, CH","FM-15","99999","V020","340,1,V,0020,1","22000,1,9,N","004200,1,9,9","+0070,1","+0010,1","99999,9",,,,,"00,99,1,99,9,99,9,99999,9,99,9,99,9","10240,1,99999,9","05,1",,,"MET066METAR ZSSS 091600Z 34002MPS 310V010 4200 HZ NSC 07/01 Q1024 NOSIG="
"58367099999","2022-01-09T16:30:00","4","31.197875","121.336319","3.04","HONGQIAO INTERNATIONAL, CH","FM-15","99999","V020","340,1,N,0030,1","22000,1,9,N","004200,1,9,9","+0070,1","+0020,1","99999,9",,,,,"00,99,1,99,9,99,9,99999,9,99,9,99,9","10240,1,99999,9","05,1",,,"MET058METAR ZSSS 091630Z 34003MPS 4200 HZ NSC 07/02 Q1024 NOSIG="
"58367099999","2022-01-09T17:00:00","4","31.197875","121.336319","3.04","HONGQIAO INTERNATIONAL, CH","FM-15","99999","V020","030,1,N,0020,1","22000,1,9,N","004000,1,9,9","+0070,1","+0020,1","99999,9",,,,,"00,99,1,99,9,99,9,99999,9,99,9,99,9","10240,1,99999,9","05,1",,,"MET058METAR ZSSS 091700Z 03002MPS 4000 HZ NSC 07/02 Q1024 NOSIG="
"58367099999","2022-01-09T17:30:00","4","31.197875","121.336319","3.04","HONGQIAO INTERNATIONAL, CH","FM-15","99999","V020","020,1,N,0020,1","22000,1,9,N","004000,1,9,9","+0070,1","+0020,1","99999,9",,,,,"00,99,1,99,9,99,9,99999,9,99,9,99,9","10230,1,99999,9","05,1",,,"MET058METAR ZSSS 091730Z 02002MPS 4000 HZ NSC 07/02 Q1023 NOSIG="
"58367099999","2022-01-09T18:00:00","4","31.197875","121.336319","3.04","HONGQIAO INTERNATIONAL, CH","FM-15","99999","V020","020,1,N,0020,1","22000,1,9,N","004000,1,9,9","+0060,1","+0020,1","99999,9",,,,,"00,99,1,99,9,99,9,99999,9,99,9,99,9","10230,1,99999,9","10,1",,,"MET058METAR ZSSS 091800Z 02002MPS 4000 BR NSC 06/02 Q1023 NOSIG="
"58367099999","2022-01-09T18:30:00","4","31.197875","121.336319","3.04","HONGQIAO INTERNATIONAL, CH","FM-15","99999","V020","030,1,N,0020,1","22000,1,9,N","004000,1,9,9","+0060,1","+0020,1","99999,9",,,,,"00,99,1,99,9,99,9,99999,9,99,9,99,9","10230,1,99999,9","10,1",,,"MET058METAR ZSSS 091830Z 03002MPS 4000 BR NSC 06/02 Q1023 NOSIG="
"58367099999","2022-01-09T19:00:00","4","31.197875","121.336319","3.04","HONGQIAO INTERNATIONAL, CH","FM-15","99999","V020","340,1,N,0010,1","22000,1,9,N","004000,1,9,9","+0060,1","+0020,1","99999,9",,,,,"00,99,1,99,9,99,9,99999,9,99,9,99,9","10230,1,99999,9","10,1",,,"MET058METAR ZSSS 091900Z 34001MPS 4000 BR NSC 06/02 Q1023 NOSIG="
"58367099999","2022-01-09T19:30:00","4","31.197875","121.336319","3.04","HONGQIAO INTERNATIONAL, CH","FM-15","99999","V020","010,1,N,0010,1","22000,1,9,N","004000,1,9,9","+0060,1","+0020,1","99999,9",,,,,"00,99,1,99,9,99,9,99999,9,99,9,99,9","10230,1,99999,9","10,1",,,"MET058METAR ZSSS 091930Z 01001MPS 4000 BR NSC 06/02 Q1023 NOSIG="
"58367099999","2022-01-09T20:00:00","4","31.197875","121.336319","3.04","HONGQIAO INTERNATIONAL, CH","FM-15","99999","V020","999,9,V,0010,1","22000,1,9,N","004000,1,9,9","+0060,1","+0020,1","99999,9",,,,,"00,99,1,99,9,99,9,99999,9,99,9,99,9","10230,1,99999,9","10,1",,,"MET058METAR ZSSS 092000Z VRB01MPS 4000 BR NSC 06/02 Q1023 NOSIG="
"58367099999","2022-01-09T20:30:00","4","31.197875","121.336319","3.04","HONGQIAO INTERNATIONAL, CH","FM-15","99999","V020","340,1,N,0010,1","22000,1,9,N","004000,1,9,9","+0060,1","+0020,1","99999,9",,,,,"00,99,1,99,9,99,9,99999,9,99,9,99,9","10230,1,99999,9","10,1",,,"MET058METAR ZSSS 092030Z 34001MPS 4000 BR NSC 06/02 Q1023 NOSIG="
"58367099999","2022-01-09T21:00:00","4","31.197875","121.336319","3.04","HONGQIAO INTERNATIONAL, CH","FM-15","99999","V020","010,1,N,0020,1","22000,1,9,N","004000,1,9,9","+0060,1","+0020,1","99999,9",,,,,"00,99,1,99,9,99,9,99999,9,99,9,99,9","10230,1,99999,9","10,1",,,"MET070METAR ZSSS 092100Z 01002MPS 4000 BR NSC 06/02 Q1023 BECMG TL2250 2500="
"58367099999","2022-01-09T21:30:00","4","31.197875","121.336319","3.04","HONGQIAO INTERNATIONAL, CH","FM-15","99999","V020","010,1,N,0020,1","22000,1,9,N","004000,1,9,9","+0050,1","+0030,1","99999,9",,,,,"00,99,1,99,9,99,9,99999,9,99,9,99,9","10230,1,99999,9","10,1",,,"MET058METAR ZSSS 092130Z 01002MPS 4000 BR NSC 05/03 Q1023 NOSIG="
"58367099999","2022-01-09T22:00:00","4","31.197875","121.336319","3.04","HONGQIAO INTERNATIONAL, CH","FM-15","99999","V020","010,1,N,0020,1","22000,1,9,N","004000,1,9,9","+0050,1","+0020,1","99999,9",,,,,"00,99,1,99,9,99,9,99999,9,99,9,99,9","10220,1,99999,9","10,1",,,"MET070METAR ZSSS 092200Z 01002MPS 4000 BR NSC 05/02 Q1022 BECMG TL2310 2500="
"58367099999","2022-01-09T22:30:00","4","31.197875","121.336319","3.04","HONGQIAO INTERNATIONAL, CH","FM-15","99999","V020","360,1,N,0020,1","22000,1,9,N","004000,1,9,9","+0060,1","+0020,1","99999,9",,,,,"00,99,1,99,9,99,9,99999,9,99,9,99,9","10230,1,99999,9","10,1",,,"MET058METAR ZSSS 092230Z 36002MPS 4000 BR NSC 06/02 Q1023 NOSIG="
"58367099999","2022-01-09T23:00:00","4","31.197875","121.336319","3.04","HONGQIAO INTERNATIONAL, CH","FM-15","99999","V020","360,1,N,0010,1","22000,1,9,N","003500,1,9,9","+0060,1","+0030,1","99999,9",,,,,"00,99,1,99,9,99,9,99999,9,99,9,99,9","10230,1,99999,9","10,1",,,"MET058METAR ZSSS 092300Z 36001MPS 3500 BR NSC 06/03 Q1023 NOSIG="
"58367099999","2022-01-09T23:30:00","4","31.197875","121.336319","3.04","HONGQIAO INTERNATIONAL, CH","FM-15","99999","V020","010,1,N,0020,1","22000,1,9,N","002800,1,9,9","+0070,1","+0020,1","99999,9",,,,,"00,99,1,99,9,99,9,99999,9,99,9,99,9","10230,1,99999,9","10,1",,,"MET058METAR ZSSS 092330Z 01002MPS 2800 BR NSC 07/02 Q1023 NOSIG="
"58367099999","2022-01-10T00:00:00","4","31.197875","121.336319","3.04","HONGQIAO INTERNATIONAL, CH","FM-15","99999","V020","010,1,N,0020,1","22000,1,9,N","002800,1,9,9","+0070,1","+0020,1","99999,9",,,,,"00,99,1,99,9,99,9,99999,9,99,9,99,9","10230,1,99999,9","05,1",,,"MET070METAR ZSSS 100000Z 01002MPS 2800 HZ NSC 07/02 Q1023 BECMG TL0040 5000="
"58367099999","2022-01-10T00:30:00","4","31.197875","121.336319","3.04","HONGQIAO INTERNATIONAL, CH","FM-15","99999","V020","010,1,N,0020,1","22000,1,9,N","002800,1,9,9","+0070,1","+0010,1","99999,9",,,,,"00,99,1,99,9,99,9,99999,9,99,9,99,9","10240,1,99999,9","05,1",,,"MET058METAR ZSSS 100030Z 01002MPS 2800 HZ NSC 07/01 Q1024 NOSIG="
"58367099999","2022-01-10T01:00:00","4","31.197875","121.336319","3.04","HONGQIAO INTERNATIONAL, CH","FM-15","99999","V020","010,1,N,0030,1","22000,1,9,N","004000,1,9,9","+0080,1","+0010,1","99999,9",,,,,"00,99,1,99,9,99,9,99999,9,99,9,99,9","10230,1,99999,9","05,1",,,"MET058METAR ZSSS 100100Z 01003MPS 4000 HZ NSC 08/01 Q1023 NOSIG="
"58367099999","2022-01-10T01:30:00","4","31.197875","121.336319","3.04","HONGQIAO INTERNATIONAL, CH","FM-15","99999","V020","010,1,V,0030,1","22000,1,9,N","004000,1,9,9","+0080,1","+0010,1","99999,9",,,,,"00,99,1,99,9,99,9,99999,9,99,9,99,9","10240,1,99999,9","05,1",,,"MET066METAR ZSSS 100130Z 01003MPS 330V050 4000 HZ NSC 08/01 Q1024 NOSIG="
"58367099999","2022-01-10T02:00:00","4","31.197875","121.336319","3.04","HONGQIAO INTERNATIONAL, CH","FM-15","99999","V020","350,1,N,0030,1","22000,1,9,N","004000,1,9,9","+0090,1","+0010,1","99999,9",,,,,"00,99,1,99,9,99,9,99999,9,99,9,99,9","10230,1,99999,9","05,1",,,"MET058METAR ZSSS 100200Z 35003MPS 4000 HZ NSC 09/01 Q1023 NOSIG="
"58367099999","2022-01-10T02:30:00","4","31.197875","121.336319","3.04","HONGQIAO INTERNATIONAL, CH","FM-15","99999","V020","350,1,V,0030,1","22000,1,9,N","004000,1,9,9","+0080,1","+0010,1","99999,9",,,,,"00,99,1,99,9,99,9,99999,9,99,9,99,9","10230,1,99999,9","05,1",,,"MET066METAR ZSSS 100230Z 35003MPS 320V060 4000 HZ NSC 08/01 Q1023 NOSIG="
"58367099999","2022-01-10T03:00:00","4","31.197875","121.336319","3.04","HONGQIAO INTERNATIONAL, CH","FM-15","99999","V020","360,1,N,0030,1","22000,1,9,N","003500,1,9,9","+0080,1","+0000,1","99999,9",,,,,"00,99,1,99,9,99,9,99999,9,99,9,99,9","10230,1,99999,9","05,1",,,"MET058METAR ZSSS 100300Z 36003MPS 3500 HZ NSC 08/00 Q1023 NOSIG="
"58367099999","2022-01-10T03:30:00","4","31.197875","121.336319","3.04","HONGQIAO INTERNATIONAL, CH","FM-15","99999","V020","350,1,N,0030,1","22000,1,9,N","003500,1,9,9","+0080,1","+0000,1","99999,9",,,,,"00,99,1,99,9,99,9,99999,9,99,9,99,9","10230,1,99999,9","05,1",,,"MET058METAR ZSSS 100330Z 35003MPS 3500 HZ NSC 08/00 Q1023 NOSIG="
"58367099999","2022-01-10T04:00:00","4","31.197875","121.336319","3.04","HONGQIAO INTERNATIONAL, CH","FM-15","99999","V020","310,1,V,0030,1","22000,1,9,N","003500,1,9,9","+0080,1","+0010,1","99999,9",,,,,"00,99,1,99,9,99,9,99999,9,99,9,99,9","10230,1,99999,9","05,1",,,"MET066METAR ZSSS 100400Z 31003MPS 270V350 3500 HZ NSC 08/01 Q1023 NOSIG="
"58367099999","2022-01-10T04:30:00","4","31.197875","121.336319","3.04","HONGQIAO INTERNATIONAL, CH","FM-15","99999","V020","310,1,V,0030,1","22000,1,9,N","003500,1,9,9","+0080,1","+0000,1","99999,9",,,,,"00,99,1,99,9,99,9,99999,9,99,9,99,9","10220,1,99999,9","05,1",,,"MET066METAR ZSSS 100430Z 31003MPS 280V360 3500 HZ NSC 08/00 Q1022 NOSIG="
"58367099999","2022-01-10T05:00:00","4","31.197875","121.336319","3.04","HONGQIAO INTERNATIONAL, CH","FM-15","99999","V020","340,1,N,0020,1","22000,1,9,N","003500,1,9,9","+0080,1","+0000,1","99999,9",,,,,"00,99,1,99,9,99,9,99999,9,99,9,99,9","10220,1,99999,9","05,1",,,"MET059METAR ZSSS 100500Z 34002MPS 3500 HZ NSC 08/M00 Q1022 NOSIG="
"58367099999","2022-01-10T05:30:00","4","31.197875","121.336319","3.04","HONGQIAO INTERNATIONAL, CH","FM-15","99999","V020","320,1,V,0030,1","22000,1,9,N","003500,1,9,9","+0080,1","+0000,1","99999,9",,,,,"00,99,1,99,9,99,9,99999,9,99,9,99,9","10210,1,99999,9","05,1",,,"MET066METAR ZSSS 100530Z 32003MPS 300V360 3500 HZ NSC 08/00 Q1021 NOSIG="
"58367099999","2022-01-10T06:00:00","4","31.197875","121.336319","3.04","HONGQIAO INTERNATIONAL, CH","FM-15","99999","V020","340,1,N,0040,1","22000,1,9,N","003500,1,9,9","+0080,1","+0000,1","99999,9",,,,,"00,99,1,99,9,99,9,99999,9,99,9,99,9","10210,1,99999,9","05,1",,,"MET070METAR ZSSS 100600Z 34004MPS 3500 HZ NSC 08/00 Q1021 BECMG TL0730 2500="
"58367099999","2022-01-10T06:30:00","4","31.197875","121.336319","3.04","HONGQIAO INTERNATIONAL, CH","FM-15","99999","V020","340,1,N,0040,1","22000,1,9,N","003500,1,9,9","+0080,1","+0010,1","99999,9",,,,,"00,99,1,99,9,99,9,99999,9,99,9,99,9","10210,1,99999,9","05,1",,,"MET058METAR ZSSS 100630Z 34004MPS 3500 HZ NSC 08/01 Q1021 NOSIG="
"58367099999","2022-01-10T07:00:00","4","31.197875","121.336319","3.04","HONGQIAO INTERNATIONAL, CH","FM-15","99999","V020","350,1,N,0030,1","22000,1,9,N","003500,1,9,9","+0080,1","+0000,1","99999,9",,,,,"00,99,1,99,9,99,9,99999,9,99,9,99,9","10210,1,99999,9","05,1",,,"MET070METAR ZSSS 100700Z 35003MPS 3500 HZ NSC 08/00 Q1021 BECMG TL0830 2500="
"58367099999","2022-01-10T07:30:00","4","31.197875","121.336319","3.04","HONGQIAO INTERNATIONAL, CH","FM-15","99999","V020","340,1,N,0030,1","22000,1,9,N","003500,1,9,9","+0080,1","+0010,1","99999,9",,,,,"00,99,1,99,9,99,9,99999,9,99,9,99,9","10210,1,99999,9","05,1",,,"MET058METAR ZSSS 100730Z 34003MPS 3500 HZ NSC 08/01 Q1021 NOSIG="
"58367099999","2022-01-10T08:00:00","4","31.197875","121.336319","3.04","HONGQIAO INTERNATIONAL, CH","FM-15","99999","V020","340,1,N,0040,1","22000,1,9,N","003500,1,9,9","+0080,1","+0010,1","99999,9",,,,,"00,99,1,99,9,99,9,99999,9,99,9,99,9","10210,1,99999,9","05,1",,,"MET058METAR ZSSS 100800Z 34004MPS 3500 HZ NSC 08/01 Q1021 NOSIG="
"58367099999","2022-01-10T08:30:00","4","31.197875","121.336319","3.04","HONGQIAO INTERNATIONAL, CH","FM-15","99999","V020","350,1,N,0030,1","22000,1,9,N","003500,1,9,9","+0080,1","+0010,1","99999,9",,,,,"00,99,1,99,9,99,9,99999,9,99,9,99,9","10210,1,99999,9","05,1",,,"MET058METAR ZSSS 100830Z 35003MPS 3500 HZ NSC 08/01 Q1021 NOSIG="
"58367099999","2022-01-10T09:00:00","4","31.197875","121.336319","3.04","HONGQIAO INTERNATIONAL, CH","FM-15","99999","V020","360,1,N,0030,1","22000,1,9,N","003500,1,9,9","+0070,1","+0010,1","99999,9",,,,,"00,99,1,99,9,99,9,99999,9,99,9,99,9","10210,1,99999,9","05,1",,,"MET058METAR ZSSS 100900Z 36003MPS 3500 HZ NSC 07/01 Q1021 NOSIG="
"58367099999","2022-01-10T09:30:00","4","31.197875","121.336319","3.04","HONGQIAO INTERNATIONAL, CH","FM-15","99999","V020","330,1,N,0040,1","22000,1,9,N","003500,1,9,9","+0080,1","+0010,1","99999,9",,,,,"00,99,1,99,9,99,9,99999,9,99,9,99,9","10220,1,99999,9","05,1",,,"MET058METAR ZSSS 100930Z 33004MPS 3500 HZ NSC 08/01 Q1022 NOSIG="
"58367099999","2022-01-10T10:00:00","4","31.197875","121.336319","3.04","HONGQIAO INTERNATIONAL, CH","FM-15","99999","V020","330,1,N,0040,1","99999,9,9,N","004000,1,9,9","+0070,1","+0000,1","99999,9",,"02,1,+01006,1,99,9",,"9,AGL   ,+99999,+99999","99,99,9,02,1,99,9,01006,1,99,9,99,9","10220,1,99999,9","05,1",,,"MET061METAR ZSSS 101000Z 33004MPS 4000 HZ FEW033 07/00 Q1022 NOSIG="
"58367099999","2022-01-10T10:30:00","4","31.197875","121.336319","3.04","HONGQIAO INTERNATIONAL, CH","FM-15","99999","V020","340,1,N,0050,1","99999,9,9,N","004000,1,9,9","+0070,1","+0010,1","99999,9",,"04,1,+01006,1,99,9",,"9,AGL   ,+99999,+99999","99,99,9,04,1,99,9,01006,1,99,9,99,9","10230,1,99999,9","05,1",,,"MET061METAR ZSSS 101030Z 34005MPS 4000 HZ SCT033 07/01 Q1023 NOSIG="
"58367099999","2022-01-10T11:00:00","4","31.197875","121.336319","3.04","HONGQIAO INTERNATIONAL, CH","FM-15","99999","V020","340,1,N,0050,1","99999,9,9,N","004000,1,9,9","+0070,1","+0010,1","99999,9",,"04,1,+01006,1,99,9",,"9,AGL   ,+99999,+99999","99,99,9,04,1,99,9,01006,1,99,9,99,9","10230,1,99999,9","05,1",,,"MET061METAR ZSSS 101100Z 34005MPS 4000 HZ SCT033 07/01 Q1023 NOSIG="
"58367099999","2022-01-10T11:30:00","4","31.197875","121.336319","3.04","HONGQIAO INTERNATIONAL, CH","FM-15","99999","V020","340,1,N,0050,1","99999,9,9,N","004000,1,9,9","+0070,1","+0010,1","99999,9",,"04,1,+01006,1,99,9",,"9,AGL   ,+99999,+99999","99,99,9,04,1,99,9,01006,1,99,9,99,9","10230,1,99999,9","05,1",,,"MET061METAR ZSSS 101130Z 34005MPS 4000 HZ SCT033 07/01 Q1023 NOSIG="
"58367099999","2022-01-10T12:00:00","4","31.197875","121.336319","3.04","HONGQIAO INTERNATIONAL, CH","FM-15","99999","V020","330,1,N,0050,1","99999,9,9,N","004000,1,9,9","+0070,1","+0010,1","99999,9",,"04,1,+01006,1,99,9",,"9,AGL   ,+99999,+99999","99,99,9,04,1,99,9,01006,1,99,9,99,9","10230,1,99999,9","05,1","61,1",,"MET065METAR ZSSS 101200Z 33005MPS 4000 -RA HZ SCT033 07/01 Q1023 NOSIG="
"58367099999","2022-01-10T12:30:00","4","31.197875","121.336319","3.04","HONGQIAO INTERNATIONAL, CH","FM-15","99999","V020","330,1,N,0050,1","99999,9,9,N","003500,1,9,9","+0070,1","+0010,1","99999,9",,"04,1,+00792,1,99,9",,"9,AGL   ,+99999,+99999","99,99,9,04,1,99,9,00792,1,99,9,99,9","10230,1,99999,9","05,1","61,1",,"MET065METAR ZSSS 101230Z 33005MPS 3500 -RA HZ SCT026 07/01 Q1023 NOSIG="
"58367099999","2022-01-10T13:00:00","4","31.197875","121.336319","3.04","HONGQIAO INTERNATIONAL, CH","FM-15","99999","V020","340,1,N,0060,1","00792,1,C,N","003500,1,9,9","+0060,1","+0020,1","99999,9",,"07,1,+00792,1,99,9",,"9,AGL   ,+99999,+99999","99,99,9,07,1,99,9,00792,1,99,9,99,9","10240,1,99999,9","05,1","61,1",,"MET065METAR ZSSS 101300Z 34006MPS 3500 -RA HZ BKN026 06/02 Q1024 NOSIG="
"58367099999","2022-01-10T13:30:00","4","31.197875","121.336319","3.04","HONGQIAO INTERNATIONAL, CH","FM-15","99999","V020","320,1,N,0050,1","00792,1,C,N","003500,1,9,9","+0060,1","+0010,1","99999,9",,"07,1,+00792,1,99,9",,"9,AGL   ,+99999,+99999","99,99,9,07,1,99,9,00792,1,99,9,99,9","10240,1,99999,9","05,1","61,1",,"MET065METAR ZSSS 101330Z 32005MPS 3500 -RA HZ BKN026 06/01 Q1024 NOSIG="
"58367099999","2022-01-10T14:00:00","4","31.197875","121.336319","3.04","HONGQIAO INTERNATIONAL, CH","FM-15","99999","V020","320,1,N,0050,1","00792,1,C,N","003500,1,9,9","+0060,1","+0010,1","99999,9",,"07,1,+00792,1,99,9",,"9,AGL   ,+99999,+99999","99,99,9,07,1,99,9,00792,1,99,9,99,9","10240,1,99999,9","05,1","61,1",,"MET065METAR ZSSS 101400Z 32005MPS 3500 -RA HZ BKN026 06/01 Q1024 NOSIG="
"58367099999","2022-01-10T14:30:00","4","31.197875","121.336319","3.04","HONGQIAO INTERNATIONAL, CH","FM-15","99999","V020","330,1,N,0060,1","99999,9,9,N","003500,1,9,9","+0060,1","+0010,1","99999,9",,"02,1,+00792,1,99,9",,"9,AGL   ,+99999,+99999","99,99,9,02,1,99,9,00792,1,99,9,99,9","10240,1,99999,9","10,1",,,"MET061METAR ZSSS 101430Z 33006MPS 3500 BR FEW026 06/01 Q1024 NOSIG="
"58367099999","2022-01-10T15:00:00","4","31.197875","121.336319","3.04","HONGQIAO INTERNATIONAL, CH","FM-15","99999","V020","330,1,N,0050,1","99999,9,9,N","003500,1,9,9","+0060,1","+0020,1","99999,9",,"02,1,+00792,1,99,9",,"9,AGL   ,+99999,+99999","99,99,9,02,1,99,9,00792,1,99,9,99,9","10240,1,99999,9","10,1",,,"MET061METAR ZSSS 101500Z 33005MPS 3500 BR FEW026 06/02 Q1024 NOSIG="
"58367099999","2022-01-10T15:30:00","4","31.197875","121.336319","3.04","HONGQIAO INTERNATIONAL, CH","FM-15","99999","V020","320,1,N,0050,1","22000,1,9,N","003500,1,9,9","+0060,1","+0020,1","99999,9",,,,,"00,99,1,99,9,99,9,99999,9,99,9,99,9","10240,1,99999,9","10,1",,,"MET058METAR ZSSS 101530Z 32005MPS 3500 BR NSC 06/02 Q1024 NOSIG="
"58367099999","2022-01-10T16:00:00","4","31.197875","121.336319","3.04","HONGQIAO INTERNATIONAL, CH","FM-15","99999","V020","330,1,N,0050,1","22000,1,9,N","003500,1,9,9","+0050,1","+0020,1","99999,9",,,,,"00,99,1,99,9,99,9,99999,9,99,9,99,9","10240,1,99999,9","10,1",,,"MET058METAR ZSSS 101600Z 33005MPS 3500 BR NSC 05/02 Q1024 NOSIG="
"58367099999","2022-01-10T16:30:00","4","31.197875","121.336319","3.04","HONGQIAO INTERNATIONAL, CH","FM-15","99999","V020","320,1,N,0060,1","22000,1,9,N","003500,1,9,9","+0050,1","+0020,1","99999,9",,,,,"00,99,1,99,9,99,9,99999,9,99,9,99,9","10250,1,99999,9","10,1",,,"MET058METAR ZSSS 101630Z 32006MPS 3500 BR NSC 05/02 Q1025 NOSIG="
"58367099999","2022-01-10T17:00:00","4","31.197875","121.336319","3.04","HONGQIAO INTERNATIONAL, CH","FM-15","99999","V020","320,1,N,0050,1","22000,1,9,N","003500,1,9,9","+0050,1","+0020,1","99999,9",,,,,"00,99,1,99,9,99,9,99999,9,99,9,99,9","10250,1,99999,9","10,1",,,"MET058METAR ZSSS 101700Z 32005MPS 3500 BR NSC 05/02 Q1025 NOSIG="
"58367099999","2022-01-10T17:30:00","4","31.197875","121.336319","3.04","HONGQIAO INTERNATIONAL, CH","FM-15","99999","V020","320,1,N,0050,1","22000,1,9,N","003500,1,9,9","+0050,1","+0020,1","99999,9",,,,,"00,99,1,99,9,99,9,99999,9,99,9,99,9","10250,1,99999,9","10,1",,,"MET058METAR ZSSS 101730Z 32005MPS 3500 BR NSC 05/02 Q1025 NOSIG="
"58367099999","2022-01-10T18:00:00","4","31.197875","121.336319","3.04","HONGQIAO INTERNATIONAL, CH","FM-15","99999","V020","320,1,V,0050,1","99999,9,9,N","003500,1,9,9","+0050,1","+0020,1","99999,9",,"02,1,+00488,1,99,9",,"9,AGL   ,+99999,+99999","99,99,9,02,1,99,9,00488,1,99,9,99,9","10250,1,99999,9","10,1",,,"MET069METAR ZSSS 101800Z 32005MPS 290V350 3500 BR FEW016 05/02 Q1025 NOSIG="
"58367099999","2022-01-10T18:30:00","4","31.197875","121.336319","3.04","HONGQIAO INTERNATIONAL, CH","FM-15","99999","V020","320,1,N,0060,1","22000,1,9,N","003500,1,9,9","+0050,1","+0020,1","99999,9",,,,,"00,99,1,99,9,99,9,99999,9,99,9,99,9","10250,1,99999,9","10,1",,,"MET058METAR ZSSS 101830Z 32006MPS 3500 BR NSC 05/02 Q1025 NOSIG="
"58367099999","2022-01-10T19:00:00","4","31.197875","121.336319","3.04","HONGQIAO INTERNATIONAL, CH","FM-15","99999","V020","320,1,N,0060,1","99999,9,9,N","003500,1,9,9","+0060,1","+0020,1","99999,9",,"02,1,+00610,1,99,9",,"9,AGL   ,+99999,+99999","99,99,9,02,1,99,9,00610,1,99,9,99,9","10250,1,99999,9","10,1","61,1",,"MET065METAR ZSSS 101900Z 32006MPS 3500 -RA BR FEW020 06/02 Q1025 NOSIG="
"58367099999","2022-01-10T19:30:00","4","31.197875","121.336319","3.04","HONGQIAO INTERNATIONAL, CH","FM-15","99999","V020","330,1,N,0060,1","99999,9,9,N","003500,1,9,9","+0060,1","+0020,1","99999,9",,"02,1,+00610,1,99,9",,"9,AGL   ,+99999,+99999","99,99,9,02,1,99,9,00610,1,99,9,99,9","10260,1,99999,9","10,1",,,"MET061METAR ZSSS 101930Z 33006MPS 3500 BR FEW020 06/02 Q1026 NOSIG="
"58367099999","2022-01-10T20:00:00","4","31.197875","121.336319","3.04","HONGQIAO INTERNATIONAL, CH","FM-15","99999","V020","330,1,N,0060,1","99999,9,9,N","003500,1,9,9","+0050,1","+0020,1","99999,9",,"04,1,+00610,1,99,9",,"9,AGL   ,+99999,+99999","99,99,9,04,1,99,9,00610,1,99,9,99,9","10260,1,99999,9","10,1",,,"MET061METAR ZSSS 102000Z 33006MPS 3500 BR SCT020 05/02 Q1026 NOSIG="
"58367099999","2022-01-10T20:30:00","4","31.197875","121.336319","3.04","HONGQIAO INTERNATIONAL, CH","FM-15","99999","V020","340,1,N,0060,1","99999,9,9,N","004000,1,9,9","+0050,1","+0010,1","99999,9",,"02,1,+00610,1,99,9",,"9,AGL   ,+99999,+99999","99,99,9,02,1,99,9,00610,1,99,9,99,9","10260,1,99999,9","10,1",,,"MET061METAR ZSSS 102030Z 34006MPS 4000 BR FEW020 05/01 Q1026 NOSIG="
"58367099999","2022-01-10T21:00:00","4","31.197875","121.336319","3.04","HONGQIAO INTERNATIONAL, CH","FM-15","99999","V020","350,1,N,0070,1","99999,9,9,N","005000,1,9,9","+0050,1","+0010,1","99999,9",,"02,1,+00610,1,99,9",,"9,AGL   ,+99999,+99999","99,99,9,02,1,99,9,00610,1,99,9,99,9","10260,1,99999,9","10,1",,,"MET061METAR ZSSS 102100Z 35007MPS 5000 BR FEW020 05/01 Q1026 NOSIG="
"58367099999","2022-01-10T21:30:00","4","31.197875","121.336319","3.04","HONGQIAO INTERNATIONAL, CH","FM-15","99999","V020","350,1,N,0070,1","99999,9,9,N","005000,1,9,9","+0050,1","+0000,1","99999,9",,"02,1,+00610,1,99,9",,"9,AGL   ,+99999,+99999","99,99,9,02,1,99,9,00610,1,99,9,99,9","10260,1,99999,9","10,1",,,"MET062METAR ZSSS 102130Z 35007MPS 5000 BR FEW020 05/M00 Q1026 NOSIG="
"58367099999","2022-01-10T22:00:00","4","31.197875","121.336319","3.04","HONGQIAO INTERNATIONAL, CH","FM-15","99999","V020","340,1,N,0060,1","99999,9,9,N","007000,1,9,9","+0040,1","-0010,1","99999,9",,"02,1,+00610,1,99,9",,"9,AGL   ,+99999,+99999","99,99,9,02,1,99,9,00610,1,99,9,99,9","10270,1,99999,9",,,,"MET059METAR ZSSS 102200Z 34006MPS 7000 FEW020 04/M01 Q1027 NOSIG="
"58367099999","2022-01-10T22:30:00","4","31.197875","121.336319","3.04","HONGQIAO INTERNATIONAL, CH","FM-15","99999","V020","350,1,N,0080,1","99999,9,9,N","007000,1,9,9","+0040,1","-0020,1","99999,9",,"02,1,+00610,1,99,9",,"9,AGL   ,+99999,+99999","99,99,9,02,1,99,9,00610,1,99,9,99,9","10270,1,99999,9",,,,"MET059METAR ZSSS 102230Z 35008MPS 7000 FEW020 04/M02 Q1027 NOSIG="
"58367099999","2022-01-10T23:00:00","4","31.197875","121.336319","3.04","HONGQIAO INTERNATIONAL, CH","FM-15","99999","V020","330,1,N,0060,1","99999,9,9,N","007000,1,9,9","+0040,1","-0020,1","99999,9",,"04,1,+00701,1,99,9",,"9,AGL   ,+99999,+99999","99,99,9,04,1,99,9,00701,1,99,9,99,9","10280,1,99999,9",,,,"MET059METAR ZSSS 102300Z 33006MPS 7000 SCT023 04/M02 Q1028 NOSIG="
"58367099999","2022-01-10T23:30:00","4","31.197875","121.336319","3.04","HONGQIAO INTERNATIONAL, CH","FM-15","99999","V020","340,1,N,0070,1","99999,9,9,N","007000,1,9,9","+0030,1","-0020,1","99999,9",,"02,1,+00701,1,99,9",,"9,AGL   ,+99999,+99999","99,99,9,02,1,99,9,00701,1,99,9,99,9","10280,1,99999,9",,,,"MET059METAR ZSSS 102330Z 34007MPS 7000 FEW023 03/M02 Q1028 NOSIG="
"58367099999","2022-01-11T00:00:00","4","31.197875","121.336319","3.04","HONGQIAO INTERNATIONAL, CH","FM-15","99999","V020","340,1,N,0060,1","22000,1,9,N","008000,1,9,9","+0040,1","-0020,1","99999,9",,,,,"00,99,1,99,9,99,9,99999,9,99,9,99,9","10280,1,99999,9",,,,"MET056METAR ZSSS 110000Z 34006MPS 8000 NSC 04/M02 Q1028 NOSIG="
"58367099999","2022-01-11T00:30:00","4","31.197875","121.336319","3.04","HONGQIAO INTERNATIONAL, CH","FM-15","99999","V020","340,1,N,0060,1","99999,9,9,Y","009900,5,9,9","+0040,1","-0030,1","99999,9",,,,,,"10290,1,99999,9",,,,"MET053METAR ZSSS 110030Z 34006MPS CAVOK 04/M03 Q1029 NOSIG="
"58367099999","2022-01-11T01:00:00","4","31.197875","121.336319","3.04","HONGQIAO INTERNATIONAL, CH","FM-15","99999","V020","350,1,N,0060,1","99999,9,9,Y","009900,5,9,9","+0040,1","-0030,1","99999,9",,,,,,"10290,1,99999,9",,,,"MET053METAR ZSSS 110100Z 35006MPS CAVOK 04/M03 Q1029 NOSIG="
"58367099999","2022-01-11T01:30:00","4","31.197875","121.336319","3.04","HONGQIAO INTERNATIONAL, CH","FM-15","99999","V020","350,1,N,0080,1","99999,9,9,Y","009900,5,9,9","+0050,1","-0060,1","99999,9",,,,,,"10290,1,99999,9",,,,"MET053METAR ZSSS 110130Z 35008MPS CAVOK 05/M06 Q1029 NOSIG="
"58367099999","2022-01-11T02:00:00","4","31.197875","121.336319","3.04","HONGQIAO INTERNATIONAL, CH","FM-15","99999","V020","360,1,N,0070,1","99999,9,9,Y","009900,5,9,9","+0050,1","-0060,1","99999,9",,,,,,"10300,1,99999,9",,,,"MET053METAR ZSSS 110200Z 36007MPS CAVOK 05/M06 Q1030 NOSIG="
"58367099999","2022-01-11T02:30:00","4","31.197875","121.336319","3.04","HONGQIAO INTERNATIONAL, CH","FM-15","99999","V020","340,1,N,0060,1","99999,9,9,Y","009900,5,9,9","+0060,1","-0060,1","99999,9",,,,,,"10290,1,99999,9",,,,"MET053METAR ZSSS 110230Z 34006MPS CAVOK 06/M06 Q1029 NOSIG="
"58367099999","2022-01-11T03:00:00","4","31.197875","121.336319","3.04","HONGQIAO INTERNATIONAL, CH","FM-15","99999","V020","330,1,N,0070,1","99999,9,9,Y","009900,5,9,9","+0060,1","-0060,1","99999,9",,,,,,"10290,1,99999,9",,,,"MET053METAR ZSSS 110300Z 33007MPS CAVOK 06/M06 Q1029 NOSIG="
"58367099999","2022-01-11T03:30:00","4","31.197875","121.336319","3.04","HONGQIAO INTERNATIONAL, CH","FM-15","99999","V020","350,1,N,0080,1","99999,9,9,Y","009900,5,9,9","+0060,1","-0070,1","99999,9",,,,,,"10280,1,99999,9",,,,"MET053METAR ZSSS 110330Z 35008MPS CAVOK 06/M07 Q1028 NOSIG="
"58367099999","2022-01-11T04:00:00","4","31.197875","121.336319","3.04","HONGQIAO INTERNATIONAL, CH","FM-15","99999","V020","340,1,N,0070,1","99999,9,9,Y","009900,5,9,9","+0070,1","-0070,1","99999,9",,,,,,"10280,1,99999,9",,,,"MET053METAR ZSSS 110400Z 34007MPS CAVOK 07/M07 Q1028 NOSIG="
"58367099999","2022-01-11T04:30:00","4","31.197875","121.336319","3.04","HONGQIAO INTERNATIONAL, CH","FM-15","99999","V020","340,1,N,0080,1","99999,9,9,Y","009900,5,9,9","+0070,1","-0070,1","99999,9",,,,,,"10280,1,99999,9",,,,"MET053METAR ZSSS 110430Z 34008MPS CAVOK 07/M07 Q1028 NOSIG="
"58367099999","2022-01-11T05:00:00","4","31.197875","121.336319","3.04","HONGQIAO INTERNATIONAL, CH","FM-15","99999","V020","350,1,N,0070,1","99999,9,9,Y","009900,5,9,9","+0070,1","-0070,1","99999,9",,,,,,"10280,1,99999,9",,,,"MET053METAR ZSSS 110500Z 35007MPS CAVOK 07/M07 Q1028 NOSIG="
"58367099999","2022-01-11T05:30:00","4","31.197875","121.336319","3.04","HONGQIAO INTERNATIONAL, CH","FM-15","99999","V020","340,1,N,0070,1","99999,9,9,Y","009900,5,9,9","+0070,1","-0070,1","99999,9",,,,,,"10270,1,99999,9",,,,"MET053METAR ZSSS 110530Z 34007MPS CAVOK 07/M07 Q1027 NOSIG="
"58367099999","2022-01-11T06:00:00","4","31.197875","121.336319","3.04","HONGQIAO INTERNATIONAL, CH","FM-15","99999","V020","350,1,N,0070,1","99999,9,9,Y","009900,5,9,9","+0070,1","-0070,1","99999,9",,,,,,"10270,1,99999,9",,,,"MET053METAR ZSSS 110600Z 35007MPS CAVOK 07/M07 Q1027 NOSIG="
"58367099999","2022-01-11T06:30:00","4","31.197875","121.336319","3.04","HONGQIAO INTERNATIONAL, CH","FM-15","99999","V020","350,1,V,0060,1","99999,9,9,Y","009900,5,9,9","+0070,1","-0070,1","99999,9",,,,,,"10270,1,99999,9",,,"0110,1","MET064METAR ZSSS 110630Z 35006G11MPS 310V040 CAVOK 07/M07 Q1027 NOSIG="
"58367099999","2022-01-11T07:00:00","4","31.197875","121.336319","3.04","HONGQIAO INTERNATIONAL, CH","FM-15","99999","V020","010,1,N,0070,1","99999,9,9,Y","009900,5,9,9","+0060,1","-0070,1","99999,9",,,,,,"10270,1,99999,9",,,,"MET053METAR ZSSS 110700Z 01007MPS CAVOK 06/M07 Q1027 NOSIG="
"58367099999","2022-01-11T07:30:00","4","31.197875","121.336319","3.04","HONGQIAO INTERNATIONAL, CH","FM-15","99999","V020","010,1,V,0060,1","99999,9,9,Y","009900,5,9,9","+0060,1","-0070,1","99999,9",,,,,,"10270,1,99999,9",,,,"MET061METAR ZSSS 110730Z 01006MPS 340V040 CAVOK 06/M07 Q1027 NOSIG="
"58367099999","2022-01-11T08:00:00","4","31.197875","121.336319","3.04","HONGQIAO INTERNATIONAL, CH","FM-15","99999","V020","010,1,N,0070,1","99999,9,9,Y","009900,5,9,9","+0060,1","-0070,1","99999,9",,,,,,"10270,1,99999,9",,,,"MET053METAR ZSSS 110800Z 01007MPS CAVOK 06/M07 Q1027 NOSIG="
"58367099999","2022-01-11T08:30:00","4","31.197875","121.336319","3.04","HONGQIAO INTERNATIONAL, CH","FM-15","99999","V020","010,1,N,0070,1","99999,9,9,Y","009900,5,9,9","+0050,1","-0060,1","99999,9",,,,,,"10280,1,99999,9",,,,"MET053METAR ZSSS 110830Z 01007MPS CAVOK 05/M06 Q1028 NOSIG="
"58367099999","2022-01-11T09:00:00","4","31.197875","121.336319","3.04","HONGQIAO INTERNATIONAL, CH","FM-15","99999","V020","010,1,N,0060,1","99999,9,9,Y","009900,5,9,9","+0050,1","-0060,1","99999,9",,,,,,"10280,1,99999,9",,,,"MET053METAR ZSSS 110900Z 01006MPS CAVOK 05/M06 Q1028 NOSIG="
"58367099999","2022-01-11T09:30:00","4","31.197875","121.336319","3.04","HONGQIAO INTERNATIONAL, CH","FM-15","99999","V020","020,1,N,0040,1","99999,9,9,Y","009900,5,9,9","+0040,1","-0060,1","99999,9",,,,,,"10280,1,99999,9",,,,"MET053METAR ZSSS 110930Z 02004MPS CAVOK 04/M06 Q1028 NOSIG="
"58367099999","2022-01-11T10:00:00","4","31.197875","121.336319","3.04","HONGQIAO INTERNATIONAL, CH","FM-15","99999","V020","010,1,N,0040,1","99999,9,9,Y","009900,5,9,9","+0040,1","-0050,1","99999,9",,,,,,"10280,1,99999,9",,,,"MET053METAR ZSSS 111000Z 01004MPS CAVOK 04/M05 Q1028 NOSIG="
"58367099999","2022-01-11T10:30:00","4","31.197875","121.336319","3.04","HONGQIAO INTERNATIONAL, CH","FM-15","99999","V020","010,1,N,0040,1","99999,9,9,Y","009900,5,9,9","+0040,1","-0050,1","99999,9",,,,,,"10290,1,99999,9",,,,"MET053METAR ZSSS 111030Z 01004MPS CAVOK 04/M05 Q1029 NOSIG="
"58367099999","2022-01-11T11:00:00","4","31.197875","121.336319","3.04","HONGQIAO INTERNATIONAL, CH","FM-15","99999","V020","010,1,N,0040,1","99999,9,9,Y","009900,5,9,9","+0030,1","-0050,1","99999,9",,,,,,"10290,1,99999,9",,,,"MET053METAR ZSSS 111100Z 01004MPS CAVOK 03/M05 Q1029 NOSIG="
"58367099999","2022-01-11T11:30:00","4","31.197875","121.336319","3.04","HONGQIAO INTERNATIONAL, CH","FM-15","99999","V020","010,1,N,0030,1","99999,9,9,Y","009900,5,9,9","+0030,1","-0050,1","99999,9",,,,,,"10290,1,99999,9",,,,"MET053METAR ZSSS 111130Z 01003MPS CAVOK 03/M05 Q1029 NOSIG="
"58367099999","2022-01-11T12:00:00","4","31.197875","121.336319","3.04","HONGQIAO INTERNATIONAL, CH","FM-15","99999","V020","010,1,N,0040,1","99999,9,9,Y","009900,5,9,9","+0020,1","-0050,1","99999,9",,,,,,"10290,1,99999,9",,,,"MET053METAR ZSSS 111200Z 01004MPS CAVOK 02/M05 Q1029 NOSIG="
"58367099999","2022-01-11T12:30:00","4","31.197875","121.336319","3.04","HONGQIAO INTERNATIONAL, CH","FM-15","99999","V020","020,1,N,0030,1","99999,9,9,Y","009900,5,9,9","+0020,1","-0050,1","99999,9",,,,,,"10290,1,99999,9",,,,"MET053METAR ZSSS 111230Z 02003MPS CAVOK 02/M05 Q1029 NOSIG="
"58367099999","2022-01-11T13:00:00","4","31.197875","121.336319","3.04","HONGQIAO INTERNATIONAL, CH","FM-15","99999","V020","050,1,N,0030,1","99999,9,9,Y","009900,5,9,9","+0030,1","-0050,1","99999,9",,,,,,"10290,1,99999,9",,,,"MET053METAR ZSSS 111300Z 05003MPS CAVOK 03/M05 Q1029 NOSIG="
"58367099999","2022-01-11T13:30:00","4","31.197875","121.336319","3.04","HONGQIAO INTERNATIONAL, CH","FM-15","99999","V020","050,1,N,0030,1","99999,9,9,Y","009900,5,9,9","+0020,1","-0050,1","99999,9",,,,,,"10290,1,99999,9",,,,"MET053METAR ZSSS 111330Z 05003MPS CAVOK 02/M05 Q1029 NOSIG="
"58367099999","2022-01-11T14:00:00","4","31.197875","121.336319","3.04","HONGQIAO INTERNATIONAL, CH","FM-15","99999","V020","080,1,N,0020,1","99999,9,9,Y","009900,5,9,9","+0020,1","-0050,1","99999,9",,,,,,"10290,1,99999,9",,,,"MET053METAR ZSSS 111400Z 08002MPS CAVOK 02/M05 Q1029 NOSIG="
"58367099999","2022-01-11T14:30:00","4","31.197875","121.336319","3.04","HONGQIAO INTERNATIONAL, CH","FM-15","99999","V020","070,1,N,0020,1","99999,9,9,Y","009900,5,9,9","+0020,1","-0050,1","99999,9",,,,,,"10280,1,99999,9",,,,"MET053METAR ZSSS 111430Z 07002MPS CAVOK 02/M05 Q1028 NOSIG="
"58367099999","2022-01-11T15:00:00","4","31.197875","121.336319","3.04","HONGQIAO INTERNATIONAL, CH","FM-15","99999","V020","070,1,N,0020,1","99999,9,9,Y","009900,5,9,9","+0020,1","-0060,1","99999,9",,,,,,"10280,1,99999,9",,,,"MET053METAR ZSSS 111500Z 07002MPS CAVOK 02/M06 Q1028 NOSIG="
"58367099999","2022-01-11T15:30:00","4","31.197875","121.336319","3.04","HONGQIAO INTERNATIONAL, CH","FM-15","99999","V020","070,1,V,0020,1","99999,9,9,Y","009900,5,9,9","+0020,1","-0060,1","99999,9",,,,,,"10280,1,99999,9",,,,"MET061METAR ZSSS 111530Z 07002MPS 040V100 CAVOK 02/M06 Q1028 NOSIG="
"58367099999","2022-01-11T16:00:00","4","31.197875","121.336319","3.04","HONGQIAO INTERNATIONAL, CH","FM-15","99999","V020","999,9,V,0010,1","99999,9,9,Y","009900,5,9,9","+0020,1","-0060,1","99999,9",,,,,,"10280,1,99999,9",,,,"MET053METAR ZSSS 111600Z VRB01MPS CAVOK 02/M06 Q1028 NOSIG="
"58367099999","2022-01-11T16:30:00","4","31.197875","121.336319","3.04","HONGQIAO INTERNATIONAL, CH","FM-15","99999","V020","040,1,N,0020,1","99999,9,9,Y","009900,5,9,9","+0010,1","-0060,1","99999,9",,,,,,"10280,1,99999,9",,,,"MET053METAR ZSSS 111630Z 04002MPS CAVOK 01/M06 Q1028 NOSIG="
"58367099999","2022-01-11T17:00:00","4","31.197875","121.336319","3.04","HONGQIAO INTERNATIONAL, CH","FM-15","99999","V020","999,9,V,0010,1","99999,9,9,Y","009900,5,9,9","+0010,1","-0060,1","99999,9",,,,,,"10280,1,99999,9",,,,"MET053METAR ZSSS 111700Z VRB01MPS CAVOK 01/M06 Q1028 NOSIG="
"58367099999","2022-01-11T17:30:00","4","31.197875","121.336319","3.04","HONGQIAO INTERNATIONAL, CH","FM-15","99999","V020","999,9,C,0000,1","99999,9,9,Y","009900,5,9,9","+0010,1","-0060,1","99999,9",,,,,,"10280,1,99999,9",,,,"MET053METAR ZSSS 111730Z 00000MPS CAVOK 01/M06 Q1028 NOSIG="
"58367099999","2022-01-11T18:00:00","4","31.197875","121.336319","3.04","HONGQIAO INTERNATIONAL, CH","FM-15","99999","V020","999,9,C,0000,1","99999,9,9,Y","009900,5,9,9","+0010,1","-0060,1","99999,9",,,,,,"10280,1,99999,9",,,,"MET053METAR ZSSS 111800Z 00000MPS CAVOK 01/M06 Q1028 NOSIG="
"58367099999","2022-01-11T18:30:00","4","31.197875","121.336319","3.04","HONGQIAO INTERNATIONAL, CH","FM-15","99999","V020","340,1,N,0010,1","99999,9,9,Y","009900,5,9,9","+0000,1","-0060,1","99999,9",,,,,,"10280,1,99999,9",,,,"MET053METAR ZSSS 111830Z 34001MPS CAVOK 00/M06 Q1028 NOSIG="
"58367099999","2022-01-11T19:00:00","4","31.197875","121.336319","3.04","HONGQIAO INTERNATIONAL, CH","FM-15","99999","V020","999,9,V,0010,1","99999,9,9,Y","009900,5,9,9","+0000,1","-0060,1","99999,9",,,,,,"10280,1,99999,9",,,,"MET054METAR ZSSS 111900Z VRB01MPS CAVOK M00/M06 Q1028 NOSIG="
"58367099999","2022-01-11T19:30:00","4","31.197875","121.336319","3.04","HONGQIAO INTERNATIONAL, CH","FM-15","99999","V020","350,1,N,0020,1","99999,9,9,Y","009900,5,9,9","+0000,1","-0060,1","99999,9",,,,,,"10270,1,99999,9",,,,"MET054METAR ZSSS 111930Z 35002MPS CAVOK M00/M06 Q1027 NOSIG="
"58367099999","2022-01-11T20:00:00","4","31.197875","121.336319","3.04","HONGQIAO INTERNATIONAL, CH","FM-15","99999","V020","999,9,C,0000,1","99999,9,9,Y","009900,5,9,9","+0000,1","-0040,1","99999,9",,,,,,"10270,1,99999,9",,,,"MET054METAR ZSSS 112000Z 00000MPS CAVOK M00/M04 Q1027 NOSIG="
"58367099999","2022-01-11T20:30:00","4","31.197875","121.336319","3.04","HONGQIAO INTERNATIONAL, CH","FM-15","99999","V020","160,1,N,0010,1","99999,9,9,Y","009900,5,9,9","-0010,1","-0050,1","99999,9",,,,,,"10270,1,99999,9",,,,"MET054METAR ZSSS 112030Z 16001MPS CAVOK M01/M05 Q1027 NOSIG="
"58367099999","2022-01-11T21:00:00","4","31.197875","121.336319","3.04","HONGQIAO INTERNATIONAL, CH","FM-15","99999","V020","999,9,C,0000,1","99999,9,9,Y","009900,5,9,9","-0010,1","-0040,1","99999,9",,,,,,"10270,1,99999,9",,,,"MET054METAR ZSSS 112100Z 00000MPS CAVOK M01/M04 Q1027 NOSIG="
"58367099999","2022-01-11T21:30:00","4","31.197875","121.336319","3.04","HONGQIAO INTERNATIONAL, CH","FM-15","99999","V020","999,9,C,0000,1","99999,9,9,Y","009900,5,9,9","-0010,1","-0040,1","99999,9",,,,,,"10270,1,99999,9",,,,"MET054METAR ZSSS 112130Z 00000MPS CAVOK M01/M04 Q1027 NOSIG="
"58367099999","2022-01-11T22:00:00","4","31.197875","121.336319","3.04","HONGQIAO INTERNATIONAL, CH","FM-15","99999","V020","999,9,C,0000,1","99999,9,9,Y","009900,5,9,9","-0010,1","-0040,1","99999,9",,,,,,"10270,1,99999,9",,,,"MET054METAR ZSSS 112200Z 00000MPS CAVOK M01/M04 Q1027 NOSIG="
"58367099999","2022-01-11T22:30:00","4","31.197875","121.336319","3.04","HONGQIAO INTERNATIONAL, CH","FM-15","99999","V020","240,1,N,0010,1","99999,9,9,Y","009900,5,9,9","-0010,1","-0040,1","99999,9",,,,,,"10280,1,99999,9",,,,"MET054METAR ZSSS 112230Z 24001MPS CAVOK M01/M04 Q1028 NOSIG="
"58367099999","2022-01-11T23:00:00","4","31.197875","121.336319","3.04","HONGQIAO INTERNATIONAL, CH","FM-15","99999","V020","999,9,C,0000,1","99999,9,9,Y","009900,5,9,9","-0020,1","-0040,1","99999,9",,,,,,"10280,1,99999,9",,,,"MET054METAR ZSSS 112300Z 00000MPS CAVOK M02/M04 Q1028 NOSIG="
"58367099999","2022-01-11T23:30:00","4","31.197875","121.336319","3.04","HONGQIAO INTERNATIONAL, CH","FM-15","99999","V020","999,9,V,0010,1","99999,9,9,Y","009900,5,9,9","+0000,1","-0040,1","99999,9",,,,,,"10280,1,99999,9",,,,"MET053METAR ZSSS 112330Z VRB01MPS CAVOK 00/M04 Q1028 NOSIG="
"58367099999","2022-01-12T00:00:00","4","31.197875","121.336319","3.04","HONGQIAO INTERNATIONAL, CH","FM-15","99999","V020","999,9,C,0000,1","99999,9,9,Y","009900,5,9,9","+0020,1","-0040,1","99999,9",,,,,,"10270,1,99999,9",,,,"MET053METAR ZSSS 120000Z 00000MPS CAVOK 02/M04 Q1027 NOSIG="
"58367099999","2022-01-12T00:30:00","4","31.197875","121.336319","3.04","HONGQIAO INTERNATIONAL, CH","FM-15","99999","V020","999,9,V,0010,1","99999,9,9,Y","009900,5,9,9","+0030,1","-0040,1","99999,9",,,,,,"10280,1,99999,9",,,,"MET053METAR ZSSS 120030Z VRB01MPS CAVOK 03/M04 Q1028 NOSIG="
"58367099999","2022-01-12T01:00:00","4","31.197875","121.336319","3.04","HONGQIAO INTERNATIONAL, CH","FM-15","99999","V020","999,9,V,0010,1","99999,9,9,Y","009900,5,9,9","+0040,1","-0040,1","99999,9",,,,,,"10280,1,99999,9",,,,"MET053METAR ZSSS 120100Z VRB01MPS CAVOK 04/M04 Q1028 NOSIG="
"58367099999","2022-01-12T01:30:00","4","31.197875","121.336319","3.04","HONGQIAO INTERNATIONAL, CH","FM-15","99999","V020","999,9,V,0010,1","99999,9,9,Y","009900,5,9,9","+0050,1","-0040,1","99999,9",,,,,,"10280,1,99999,9",,,,"MET053METAR ZSSS 120130Z VRB01MPS CAVOK 05/M04 Q1028 NOSIG="
"58367099999","2022-01-12T02:00:00","4","31.197875","121.336319","3.04","HONGQIAO INTERNATIONAL, CH","FM-15","99999","V020","160,1,V,0020,1","99999,9,9,Y","009900,5,9,9","+0050,1","-0050,1","99999,9",,,,,,"10280,1,99999,9",,,,"MET061METAR ZSSS 120200Z 16002MPS 120V280 CAVOK 05/M05 Q1028 NOSIG="
"58367099999","2022-01-12T02:30:00","4","31.197875","121.336319","3.04","HONGQIAO INTERNATIONAL, CH","FM-15","99999","V020","999,9,V,0020,1","99999,9,9,Y","009900,5,9,9","+0060,1","-0050,1","99999,9",,,,,,"10270,1,99999,9",,,,"MET053METAR ZSSS 120230Z VRB02MPS CAVOK 06/M05 Q1027 NOSIG="
"58367099999","2022-01-12T03:00:00","4","31.197875","121.336319","3.04","HONGQIAO INTERNATIONAL, CH","FM-15","99999","V020","999,9,V,0010,1","99999,9,9,Y","009900,5,9,9","+0070,1","-0050,1","99999,9",,,,,,"10270,1,99999,9",,,,"MET053METAR ZSSS 120300Z VRB01MPS CAVOK 07/M05 Q1027 NOSIG="
"58367099999","2022-01-12T03:30:00","4","31.197875","121.336319","3.04","HONGQIAO INTERNATIONAL, CH","FM-15","99999","V020","300,1,V,0020,1","99999,9,9,Y","009900,5,9,9","+0070,1","-0060,1","99999,9",,,,,,"10260,1,99999,9",,,,"MET061METAR ZSSS 120330Z 30002MPS 220V030 CAVOK 07/M06 Q1026 NOSIG="
"58367099999","2022-01-12T04:00:00","4","31.197875","121.336319","3.04","HONGQIAO INTERNATIONAL, CH","FM-15","99999","V020","999,9,V,0020,1","99999,9,9,Y","009900,5,9,9","+0070,1","-0060,1","99999,9",,,,,,"10250,1,99999,9",,,,"MET053METAR ZSSS 120400Z VRB02MPS CAVOK 07/M06 Q1025 NOSIG="
"58367099999","2022-01-12T04:30:00","4","31.197875","121.336319","3.04","HONGQIAO INTERNATIONAL, CH","FM-15","99999","V020","270,1,V,0020,1","99999,9,9,Y","009900,5,9,9","+0070,1","-0060,1","99999,9",,,,,,"10250,1,99999,9",,,,"MET061METAR ZSSS 120430Z 27002MPS 200V360 CAVOK 07/M06 Q1025 NOSIG="
"58367099999","2022-01-12T05:00:00","4","31.197875","121.336319","3.04","HONGQIAO INTERNATIONAL, CH","FM-15","99999","V020","210,1,V,0020,1","99999,9,9,Y","009900,5,9,9","+0080,1","-0060,1","99999,9",,,,,,"10240,1,99999,9",,,,"MET061METAR ZSSS 120500Z 21002MPS 140V310 CAVOK 08/M06 Q1024 NOSIG="
"58367099999","2022-01-12T05:30:00","4","31.197875","121.336319","3.04","HONGQIAO INTERNATIONAL, CH","FM-15","99999","V020","250,1,V,0020,1","99999,9,9,Y","009900,5,9,9","+0080,1","-0070,1","99999,9",,,,,,"10240,1,99999,9",,,,"MET061METAR ZSSS 120530Z 25002MPS 160V290 CAVOK 08/M07 Q1024 NOSIG="
"58367099999","2022-01-12T06:00:00","4","31.197875","121.336319","3.04","HONGQIAO INTERNATIONAL, CH","FM-15","99999","V020","999,9,V,0010,1","99999,9,9,Y","009900,5,9,9","+0090,1","-0060,1","99999,9",,,,,,"10240,1,99999,9",,,,"MET053METAR ZSSS 120600Z VRB01MPS CAVOK 09/M06 Q1024 NOSIG="
"58367099999","2022-01-12T06:30:00","4","31.197875","121.336319","3.04","HONGQIAO INTERNATIONAL, CH","FM-15","99999","V020","210,1,V,0030,1","99999,9,9,Y","009900,5,9,9","+0090,1","-0060,1","99999,9",,,,,,"10230,1,99999,9",,,,"MET061METAR ZSSS 120630Z 21003MPS 150V270 CAVOK 09/M06 Q1023 NOSIG="
"58367099999","2022-01-12T07:00:00","4","31.197875","121.336319","3.04","HONGQIAO INTERNATIONAL, CH","FM-15","99999","V020","999,9,V,0020,1","99999,9,9,Y","009900,5,9,9","+0090,1","-0070,1","99999,9",,,,,,"10230,1,99999,9",,,,"MET053METAR ZSSS 120700Z VRB02MPS CAVOK 09/M07 Q1023 NOSIG="
"58367099999","2022-01-12T07:30:00","4","31.197875","121.336319","3.04","HONGQIAO INTERNATIONAL, CH","FM-15","99999","V020","180,1,V,0030,1","99999,9,9,Y","009900,5,9,9","+0090,1","-0070,1","99999,9",,,,,,"10230,1,99999,9",,,,"MET061METAR ZSSS 120730Z 18003MPS 120V230 CAVOK 09/M07 Q1023 NOSIG="
"58367099999","2022-01-12T08:00:00","4","31.197875","121.336319","3.04","HONGQIAO INTERNATIONAL, CH","FM-15","99999","V020","200,1,V,0030,1","99999,9,9,Y","009900,5,9,9","+0080,1","-0070,1","99999,9",,,,,,"10230,1,99999,9",,,,"MET061METAR ZSSS 120800Z 20003MPS 160V250 CAVOK 08/M07 Q1023 NOSIG="
"58367099999","2022-01-12T08:30:00","4","31.197875","121.336319","3.04","HONGQIAO INTERNATIONAL, CH","FM-15","99999","V020","210,1,V,0030,1","99999,9,9,Y","009900,5,9,9","+0080,1","-0070,1","99999,9",,,,,,"10230,1,99999,9",,,,"MET061METAR ZSSS 120830Z 21003MPS 180V240 CAVOK 08/M07 Q1023 NOSIG="
"58367099999","2022-01-12T09:00:00","4","31.197875","121.336319","3.04","HONGQIAO INTERNATIONAL, CH","FM-15","99999","V020","190,1,N,0030,1","99999,9,9,Y","009900,5,9,9","+0070,1","-0050,1","99999,9",,,,,,"10230,1,99999,9",,,,"MET053METAR ZSSS 120900Z 19003MPS CAVOK 07/M05 Q1023 NOSIG="
"58367099999","2022-01-12T09:30:00","4","31.197875","121.336319","3.04","HONGQIAO INTERNATIONAL, CH","FM-15","99999","V020","200,1,N,0030,1","99999,9,9,Y","009900,5,9,9","+0060,1","-0050,1","99999,9",,,,,,"10240,1,99999,9",,,,"MET053METAR ZSSS 120930Z 20003MPS CAVOK 06/M05 Q1024 NOSIG="
"58367099999","2022-01-12T10:00:00","4","31.197875","121.336319","3.04","HONGQIAO INTERNATIONAL, CH","FM-15","99999","V020","190,1,N,0030,1","99999,9,9,Y","009900,5,9,9","+0050,1","-0040,1","99999,9",,,,,,"10240,1,99999,9",,,,"MET053METAR ZSSS 121000Z 19003MPS CAVOK 05/M04 Q1024 NOSIG="
"58367099999","2022-01-12T10:30:00","4","31.197875","121.336319","3.04","HONGQIAO INTERNATIONAL, CH","FM-15","99999","V020","230,1,N,0020,1","99999,9,9,Y","009900,5,9,9","+0050,1","-0040,1","99999,9",,,,,,"10240,1,99999,9",,,,"MET053METAR ZSSS 121030Z 23002MPS CAVOK 05/M04 Q1024 NOSIG="
"58367099999","2022-01-12T11:00:00","4","31.197875","121.336319","3.04","HONGQIAO INTERNATIONAL, CH","FM-15","99999","V020","210,1,N,0020,1","99999,9,9,Y","009900,5,9,9","+0050,1","-0040,1","99999,9",,,,,,"10240,1,99999,9",,,,"MET053METAR ZSSS 121100Z 21002MPS CAVOK 05/M04 Q1024 NOSIG="
"58367099999","2022-01-12T11:30:00","4","31.197875","121.336319","3.04","HONGQIAO INTERNATIONAL, CH","FM-15","99999","V020","210,1,N,0020,1","99999,9,9,Y","009900,5,9,9","+0040,1","-0050,1","99999,9",,,,,,"10240,1,99999,9",,,,"MET053METAR ZSSS 121130Z 21002MPS CAVOK 04/M05 Q1024 NOSIG="
"58367099999","2022-01-12T12:00:00","4","31.197875","121.336319","3.04","HONGQIAO INTERNATIONAL, CH","FM-15","99999","V020","230,1,N,0020,1","99999,9,9,Y","009900,5,9,9","+0040,1","-0050,1","99999,9",,,,,,"10250,1,99999,9",,,,"MET053METAR ZSSS 121200Z 23002MPS CAVOK 04/M05 Q1025 NOSIG="
"58367099999","2022-01-12T12:30:00","4","31.197875","121.336319","3.04","HONGQIAO INTERNATIONAL, CH","FM-15","99999","V020","230,1,N,0020,1","99999,9,9,Y","009900,5,9,9","+0040,1","-0050,1","99999,9",,,,,,"10250,1,99999,9",,,,"MET053METAR ZSSS 121230Z 23002MPS CAVOK 04/M05 Q1025 NOSIG="
"58367099999","2022-01-12T13:00:00","4","31.197875","121.336319","3.04","HONGQIAO INTERNATIONAL, CH","FM-15","99999","V020","200,1,N,0020,1","99999,9,9,Y","009900,5,9,9","+0040,1","-0060,1","99999,9",,,,,,"10240,1,99999,9",,,,"MET053METAR ZSSS 121300Z 20002MPS CAVOK 04/M06 Q1024 NOSIG="
"58367099999","2022-01-12T13:30:00","4","31.197875","121.336319","3.04","HONGQIAO INTERNATIONAL, CH","FM-15","99999","V020","220,1,N,0020,1","99999,9,9,Y","009900,5,9,9","+0040,1","-0060,1","99999,9",,,,,,"10240,1,99999,9",,,,"MET053METAR ZSSS 121330Z 22002MPS CAVOK 04/M06 Q1024 NOSIG="
"58367099999","2022-01-12T14:00:00","4","31.197875","121.336319","3.04","HONGQIAO INTERNATIONAL, CH","FM-15","99999","V020","230,1,N,0020,1","99999,9,9,Y","009900,5,9,9","+0030,1","-0060,1","99999,9",,,,,,"10240,1,99999,9",,,,"MET053METAR ZSSS 121400Z 23002MPS CAVOK 03/M06 Q1024 NOSIG="
"58367099999","2022-01-12T14:30:00","4","31.197875","121.336319","3.04","HONGQIAO INTERNATIONAL, CH","FM-15","99999","V020","240,1,N,0020,1","99999,9,9,Y","009900,5,9,9","+0040,1","-0060,1","99999,9",,,,,,"10240,1,99999,9",,,,"MET053METAR ZSSS 121430Z 24002MPS CAVOK 04/M06 Q1024 NOSIG="
"58367099999","2022-01-12T15:00:00","4","31.197875","121.336319","3.04","HONGQIAO INTERNATIONAL, CH","FM-15","99999","V020","999,9,V,0010,1","99999,9,9,Y","009900,5,9,9","+0030,1","-0070,1","99999,9",,,,,,"10240,1,99999,9",,,,"MET053METAR ZSSS 121500Z VRB01MPS CAVOK 03/M07 Q1024 NOSIG="
"58367099999","2022-01-12T15:30:00","4","31.197875","121.336319","3.04","HONGQIAO INTERNATIONAL, CH","FM-15","99999","V020","999,9,V,0010,1","99999,9,9,Y","009900,5,9,9","+0030,1","-0060,1","99999,9",,,,,,"10240,1,99999,9",,,,"MET053METAR ZSSS 121530Z VRB01MPS CAVOK 03/M06 Q1024 NOSIG="
"58367099999","2022-01-12T16:00:00","4","31.197875","121.336319","3.04","HONGQIAO INTERNATIONAL, CH","FM-15","99999","V020","230,1,N,0010,1","99999,9,9,Y","009900,5,9,9","+0020,1","-0050,1","99999,9",,,,,,"10240,1,99999,9",,,,"MET053METAR ZSSS 121600Z 23001MPS CAVOK 02/M05 Q1024 NOSIG="
"58367099999","2022-01-12T16:30:00","4","31.197875","121.336319","3.04","HONGQIAO INTERNATIONAL, CH","FM-15","99999","V020","190,1,N,0010,1","99999,9,9,Y","009900,5,9,9","+0020,1","-0040,1","99999,9",,,,,,"10240,1,99999,9",,,,"MET053METAR ZSSS 121630Z 19001MPS CAVOK 02/M04 Q1024 NOSIG="
"58367099999","2022-01-12T17:00:00","4","31.197875","121.336319","3.04","HONGQIAO INTERNATIONAL, CH","FM-15","99999","V020","999,9,C,0000,1","99999,9,9,Y","009900,5,9,9","+0020,1","-0040,1","99999,9",,,,,,"10240,1,99999,9",,,,"MET053METAR ZSSS 121700Z 00000MPS CAVOK 02/M04 Q1024 NOSIG="
"58367099999","2022-01-12T17:30:00","4","31.197875","121.336319","3.04","HONGQIAO INTERNATIONAL, CH","FM-15","99999","V020","220,1,N,0010,1","99999,9,9,Y","009900,5,9,9","+0020,1","-0040,1","99999,9",,,,,,"10240,1,99999,9",,,,"MET053METAR ZSSS 121730Z 22001MPS CAVOK 02/M04 Q1024 NOSIG="
"58367099999","2022-01-12T18:00:00","4","31.197875","121.336319","3.04","HONGQIAO INTERNATIONAL, CH","FM-15","99999","V020","240,1,N,0010,1","99999,9,9,Y","009900,5,9,9","+0020,1","-0040,1","99999,9",,,,,,"10240,1,99999,9",,,,"MET053METAR ZSSS 121800Z 24001MPS CAVOK 02/M04 Q1024 NOSIG="
"58367099999","2022-01-12T18:30:00","4","31.197875","121.336319","3.04","HONGQIAO INTERNATIONAL, CH","FM-15","99999","V020","999,9,C,0000,1","99999,9,9,Y","009900,5,9,9","+0010,1","-0040,1","99999,9",,,,,,"10240,1,99999,9",,,,"MET053METAR ZSSS 121830Z 00000MPS CAVOK 01/M04 Q1024 NOSIG="
"58367099999","2022-01-12T19:00:00","4","31.197875","121.336319","3.04","HONGQIAO INTERNATIONAL, CH","FM-15","99999","V020","999,9,V,0010,1","99999,9,9,Y","009900,5,9,9","+0020,1","-0040,1","99999,9",,,,,,"10240,1,99999,9",,,,"MET053METAR ZSSS 121900Z VRB01MPS CAVOK 02/M04 Q1024 NOSIG="
"58367099999","2022-01-12T19:30:00","4","31.197875","121.336319","3.04","HONGQIAO INTERNATIONAL, CH","FM-15","99999","V020","240,1,N,0020,1","99999,9,9,Y","009900,5,9,9","+0020,1","-0030,1","99999,9",,,,,,"10240,1,99999,9",,,,"MET053METAR ZSSS 121930Z 24002MPS CAVOK 02/M03 Q1024 NOSIG="
"58367099999","2022-01-12T20:00:00","4","31.197875","121.336319","3.04","HONGQIAO INTERNATIONAL, CH","FM-15","99999","V020","250,1,N,0020,1","99999,9,9,Y","009900,5,9,9","+0030,1","-0030,1","99999,9",,,,,,"10240,1,99999,9",,,,"MET053METAR ZSSS 122000Z 25002MPS CAVOK 03/M03 Q1024 NOSIG="
"58367099999","2022-01-12T20:30:00","4","31.197875","121.336319","3.04","HONGQIAO INTERNATIONAL, CH","FM-15","99999","V020","250,1,V,0020,1","22000,1,9,N","007000,1,9,9","+0020,1","-0030,1","99999,9",,,,,"00,99,1,99,9,99,9,99999,9,99,9,99,9","10240,1,99999,9",,,,"MET064METAR ZSSS 122030Z 25002MPS 230V290 7000 NSC 02/M03 Q1024 NOSIG="
"58367099999","2022-01-12T21:00:00","4","31.197875","121.336319","3.04","HONGQIAO INTERNATIONAL, CH","FM-15","99999","V020","280,1,N,0030,1","22000,1,9,N","006000,1,9,9","+0030,1","-0020,1","99999,9",,,,,"00,99,1,99,9,99,9,99999,9,99,9,99,9","10240,1,99999,9",,,,"MET056METAR ZSSS 122100Z 28003MPS 6000 NSC 03/M02 Q1024 NOSIG="
"58367099999","2022-01-12T21:30:00","4","31.197875","121.336319","3.04","HONGQIAO INTERNATIONAL, CH","FM-15","99999","V020","280,1,N,0030,1","22000,1,9,N","006000,1,9,9","+0030,1","-0010,1","99999,9",,,,,"00,99,1,99,9,99,9,99999,9,99,9,99,9","10250,1,99999,9",,,,"MET056METAR ZSSS 122130Z 28003MPS 6000 NSC 03/M01 Q1025 NOSIG="
"58367099999","2022-01-12T22:00:00","4","31.197875","121.336319","3.04","HONGQIAO INTERNATIONAL, CH","FM-15","99999","V020","320,1,N,0040,1","22000,1,9,N","006000,1,9,9","+0040,1","-0010,1","99999,9",,,,,"00,99,1,99,9,99,9,99999,9,99,9,99,9","10260,1,99999,9",,,,"MET056METAR ZSSS 122200Z 32004MPS 6000 NSC 04/M01 Q1026 NOSIG="
"58367099999","2022-01-12T22:30:00","4","31.197875","121.336319","3.04","HONGQIAO INTERNATIONAL, CH","FM-15","99999","V020","330,1,N,0050,1","22000,1,9,N","006000,1,9,9","+0040,1","-0010,1","99999,9",,,,,"00,99,1,99,9,99,9,99999,9,99,9,99,9","10270,1,99999,9",,,,"MET056METAR ZSSS 122230Z 33005MPS 6000 NSC 04/M01 Q1027 NOSIG="
"58367099999","2022-01-12T23:00:00","4","31.197875","121.336319","3.04","HONGQIAO INTERNATIONAL, CH","FM-15","99999","V020","350,1,N,0050,1","22000,1,9,N","004000,1,9,9","+0040,1","-0010,1","99999,9",,,,,"00,99,1,99,9,99,9,99999,9,99,9,99,9","10270,1,99999,9","05,1",,,"MET059METAR ZSSS 122300Z 35005MPS 4000 HZ NSC 04/M01 Q1027 NOSIG="
"58367099999","2022-01-12T23:30:00","4","31.197875","121.336319","3.04","HONGQIAO INTERNATIONAL, CH","FM-15","99999","V020","340,1,N,0060,1","99999,9,9,N","003200,1,9,9","+0040,1","+0000,1","99999,9",,"04,1,+00488,1,99,9",,"9,AGL   ,+99999,+99999","99,99,9,04,1,99,9,00488,1,99,9,99,9","10270,1,99999,9","10,1",,,"MET061METAR ZSSS 122330Z 34006MPS 3200 BR SCT016 04/00 Q1027 NOSIG="
"58367099999","2022-01-13T00:00:00","4","31.197875","121.336319","3.04","HONGQIAO INTERNATIONAL, CH","FM-15","99999","V020","340,1,N,0070,1","00488,1,C,N","003200,1,9,9","+0040,1","+0000,1","99999,9",,"07,1,+00488,1,99,9",,"9,AGL   ,+99999,+99999","99,99,9,07,1,99,9,00488,1,99,9,99,9","10280,1,99999,9","10,1",,,"MET061METAR ZSSS 130000Z 34007MPS 3200 BR BKN016 04/00 Q1028 NOSIG="
"58367099999","2022-01-13T00:30:00","4","31.197875","121.336319","3.04","HONGQIAO INTERNATIONAL, CH","FM-15","99999","V020","340,1,N,0080,1","00488,1,C,N","002800,1,9,9","+0040,1","-0010,1","99999,9",,"07,1,+00488,1,99,9",,"9,AGL   ,+99999,+99999","99,99,9,07,1,99,9,00488,1,99,9,99,9","10280,1,99999,9","05,1",,,"MET074METAR ZSSS 130030Z 34008MPS 2800 HZ BKN016 04/M01 Q1028 BECMG TL0130 3000="
"58367099999","2022-01-13T01:00:00","4","31.197875","121.336319","3.04","HONGQIAO INTERNATIONAL, CH","FM-15","99999","V020","350,1,N,0080,1","00488,1,C,N","003000,1,9,9","+0040,1","-0010,1","99999,9",,"07,1,+00488,1,99,9",,"9,AGL   ,+99999,+99999","99,99,9,07,1,99,9,00488,1,99,9,99,9","10290,1,99999,9","05,1",,,"MET062METAR ZSSS 130100Z 35008MPS 3000 HZ BKN016 04/M01 Q1029 NOSIG="
"58367099999","2022-01-13T01:30:00","4","31.197875","121.336319","3.04","HONGQIAO INTERNATIONAL, CH","FM-15","99999","V020","350,1,N,0090,1","00701,1,C,N","003000,1,9,9","+0050,1","-0020,1","99999,9",,"07,1,+00701,1,99,9",,"9,AGL   ,+99999,+99999","99,99,9,07,1,99,9,00701,1,99,9,99,9","10290,1,99999,9","05,1",,,"MET062METAR ZSSS 130130Z 35009MPS 3000 HZ BKN023 05/M02 Q1029 NOSIG="
"58367099999","2022-01-13T02:00:00","4","31.197875","121.336319","3.04","HONGQIAO INTERNATIONAL, CH","FM-15","99999","V020","340,1,N,0060,1","99999,9,9,N","003500,1,9,9","+0050,1","-0020,1","99999,9",,"02,1,+00701,1,99,9",,"9,AGL   ,+99999,+99999","99,99,9,02,1,99,9,00701,1,99,9,99,9","10300,1,99999,9","05,1",,,"MET062METAR ZSSS 130200Z 34006MPS 3500 HZ FEW023 05/M02 Q1030 NOSIG="
"58367099999","2022-01-13T02:30:00","4","31.197875","121.336319","3.04","HONGQIAO INTERNATIONAL, CH","FM-15","99999","V020","360,1,N,0070,1","99999,9,9,N","004500,1,9,9","+0050,1","-0030,1","99999,9",,"04,1,+00914,1,99,9",,"9,AGL   ,+99999,+99999","99,99,9,04,1,99,9,00914,1,99,9,99,9","10300,1,99999,9","05,1",,,"MET062METAR ZSSS 130230Z 36007MPS 4500 HZ SCT030 05/M03 Q1030 NOSIG="
"58367099999","2022-01-13T03:00:00","4","31.197875","121.336319","3.04","HONGQIAO INTERNATIONAL, CH","FM-15","99999","V020","330,1,V,0070,1","00914,1,C,N","005000,1,9,9","+0050,1","-0030,1","99999,9",,"07,1,+00914,1,99,9",,"9,AGL   ,+99999,+99999","99,99,9,07,1,99,9,00914,1,99,9,99,9","10300,1,99999,9","05,1",,,"MET070METAR ZSSS 130300Z 33007MPS 300V360 5000 HZ BKN030 05/M03 Q1030 NOSIG="
"58367099999","2022-01-13T03:30:00","4","31.197875","121.336319","3.04","HONGQIAO INTERNATIONAL, CH","FM-15","99999","V020","350,1,N,0070,1","00914,1,C,N","008000,1,9,9","+0050,1","-0040,1","99999,9",,"07,1,+00914,1,99,9",,"9,AGL   ,+99999,+99999","99,99,9,07,1,99,9,00914,1,99,9,99,9","10290,1,99999,9",,,,"MET059METAR ZSSS 130330Z 35007MPS 8000 BKN030 05/M04 Q1029 NOSIG="
"58367099999","2022-01-13T04:00:00","4","31.197875","121.336319","3.04","HONGQIAO INTERNATIONAL, CH","FM-15","99999","V020","360,1,N,0080,1","00914,1,C,N","008000,1,9,9","+0050,1","-0040,1","99999,9",,"07,1,+00914,1,99,9",,"9,AGL   ,+99999,+99999","99,99,9,07,1,99,9,00914,1,99,9,99,9","10290,1,99999,9",,,,"MET059METAR ZSSS 130400Z 36008MPS 8000 BKN030 05/M04 Q1029 NOSIG="
"58367099999","2022-01-13T04:30:00","4","31.197875","121.336319","3.04","HONGQIAO INTERNATIONAL, CH","FM-15","99999","V020","340,1,N,0060,1","99999,9,9,N","009999,1,9,9","+0060,1","-0050,1","99999,9",,"02,1,+00914,1,99,9",,"9,AGL   ,+99999,+99999","99,99,9,02,1,99,9,00914,1,99,9,99,9","10290,1,99999,9",,,,"MET059METAR ZSSS 130430Z 34006MPS 9999 FEW030 06/M05 Q1029 NOSIG="
"58367099999","2022-01-13T05:00:00","4","31.197875","121.336319","3.04","HONGQIAO INTERNATIONAL, CH","FM-15","99999","V020","340,1,V,0060,1","99999,9,9,Y","009900,5,9,9","+0060,1","-0050,1","99999,9",,,,,,"10290,1,99999,9",,,,"MET061METAR ZSSS 130500Z 34006MPS 310V010 CAVOK 06/M05 Q1029 NOSIG="
"58367099999","2022-01-13T05:30:00","4","31.197875","121.336319","3.04","HONGQIAO INTERNATIONAL, CH","FM-15","99999","V020","320,1,V,0060,1","99999,9,9,N","009999,1,9,9","+0070,1","-0050,1","99999,9",,"02,1,+01006,1,99,9",,"9,AGL   ,+99999,+99999","99,99,9,02,1,99,9,01006,1,99,9,99,9","10290,1,99999,9",,,,"MET067METAR ZSSS 130530Z 32006MPS 290V020 9999 FEW033 07/M05 Q1029 NOSIG="
"58367099999","2022-01-13T06:00:00","4","31.197875","121.336319","3.04","HONGQIAO INTERNATIONAL, CH","FM-15","99999","V020","350,1,V,0060,1","99999,9,9,Y","009900,5,9,9","+0050,1","-0060,1","99999,9",,,,,,"10290,1,99999,9",,,,"MET061METAR ZSSS 130600Z 35006MPS 310V010 CAVOK 05/M06 Q1029 NOSIG="
"58367099999","2022-01-13T06:30:00","4","31.197875","121.336319","3.04","HONGQIAO INTERNATIONAL, CH","FM-15","99999","V020","340,1,N,0060,1","99999,9,9,Y","009900,5,9,9","+0060,1","-0050,1","99999,9",,,,,,"10280,1,99999,9",,,,"MET053METAR ZSSS 130630Z 34006MPS CAVOK 06/M05 Q1028 NOSIG="
"58367099999","2022-01-13T07:00:00","4","31.197875","121.336319","3.04","HONGQIAO INTERNATIONAL, CH","FM-15","99999","V020","330,1,N,0060,1","99999,9,9,Y","009900,5,9,9","+0060,1","-0060,1","99999,9",,,,,,"10280,1,99999,9",,,,"MET053METAR ZSSS 130700Z 33006MPS CAVOK 06/M06 Q1028 NOSIG="
"58367099999","2022-01-13T07:30:00","4","31.197875","121.336319","3.04","HONGQIAO INTERNATIONAL, CH","FM-15","99999","V020","330,1,N,0070,1","99999,9,9,Y","009900,5,9,9","+0060,1","-0050,1","99999,9",,,,,,"10280,1,99999,9",,,,"MET053METAR ZSSS 130730Z 33007MPS CAVOK 06/M05 Q1028 NOSIG="
"58367099999","2022-01-13T08:00:00","4","31.197875","121.336319","3.04","HONGQIAO INTERNATIONAL, CH","FM-15","99999","V020","330,1,N,0070,1","99999,9,9,Y","009900,5,9,9","+0050,1","-0060,1","99999,9",,,,,,"10290,1,99999,9",,,,"MET053METAR ZSSS 130800Z 33007MPS CAVOK 05/M06 Q1029 NOSIG="
"58367099999","2022-01-13T08:30:00","4","31.197875","121.336319","3.04","HONGQIAO INTERNATIONAL, CH","FM-15","99999","V020","330,1,N,0050,1","99999,9,9,Y","009900,5,9,9","+0050,1","-0060,1","99999,9",,,,,,"10290,1,99999,9",,,,"MET053METAR ZSSS 130830Z 33005MPS CAVOK 05/M06 Q1029 NOSIG="
"58367099999","2022-01-13T09:00:00","4","31.197875","121.336319","3.04","HONGQIAO INTERNATIONAL, CH","FM-15","99999","V020","340,1,N,0050,1","99999,9,9,Y","009900,5,9,9","+0050,1","-0060,1","99999,9",,,,,,"10290,1,99999,9",,,,"MET053METAR ZSSS 130900Z 34005MPS CAVOK 05/M06 Q1029 NOSIG="
"58367099999","2022-01-13T09:30:00","4","31.197875","121.336319","3.04","HONGQIAO INTERNATIONAL, CH","FM-15","99999","V020","340,1,N,0040,1","99999,9,9,Y","009900,5,9,9","+0040,1","-0060,1","99999,9",,,,,,"10290,1,99999,9",,,,"MET053METAR ZSSS 130930Z 34004MPS CAVOK 04/M06 Q1029 NOSIG="
"58367099999","2022-01-13T10:00:00","4","31.197875","121.336319","3.04","HONGQIAO INTERNATIONAL, CH","FM-15","99999","V020","020,1,N,0040,1","99999,9,9,Y","009900,5,9,9","+0040,1","-0060,1","99999,9",,,,,,"10290,1,99999,9",,,,"MET053METAR ZSSS 131000Z 02004MPS CAVOK 04/M06 Q1029 NOSIG="
"58367099999","2022-01-13T10:30:00","4","31.197875","121.336319","3.04","HONGQIAO INTERNATIONAL, CH","FM-15","99999","V020","020,1,N,0050,1","99999,9,9,Y","009900,5,9,9","+0040,1","-0050,1","99999,9",,,,,,"10290,1,99999,9",,,,"MET053METAR ZSSS 131030Z 02005MPS CAVOK 04/M05 Q1029 NOSIG="
"58367099999","2022-01-13T11:00:00","4","31.197875","121.336319","3.04","HONGQIAO INTERNATIONAL, CH","FM-15","99999","V020","010,1,N,0050,1","99999,9,9,Y","009900,5,9,9","+0030,1","-0050,1","99999,9",,,,,,"10290,1,99999,9",,,,"MET053METAR ZSSS 131100Z 01005MPS CAVOK 03/M05 Q1029 NOSIG="
"58367099999","2022-01-13T11:30:00","4","31.197875","121.336319","3.04","HONGQIAO INTERNATIONAL, CH","FM-15","99999","V020","010,1,N,0040,1","99999,9,9,Y","009900,5,9,9","+0020,1","-0050,1","99999,9",,,,,,"10300,1,99999,9",,,,"MET053METAR ZSSS 131130Z 01004MPS CAVOK 02/M05 Q1030 NOSIG="
"58367099999","2022-01-13T12:00:00","4","31.197875","121.336319","3.04","HONGQIAO INTERNATIONAL, CH","FM-15","99999","V020","010,1,N,0040,1","99999,9,9,N","009999,1,9,9","+0020,1","-0050,1","99999,9",,"02,1,+01219,1,99,9",,"9,AGL   ,+99999,+99999","99,99,9,02,1,99,9,01219,1,99,9,99,9","10300,1,99999,9",,,,"MET059METAR ZSSS 131200Z 01004MPS 9999 FEW040 02/M05 Q1030 NOSIG="
"58367099999","2022-01-13T12:30:00","4","31.197875","121.336319","3.04","HONGQIAO INTERNATIONAL, CH","FM-15","99999","V020","010,1,N,0040,1","99999,9,9,Y","009900,5,9,9","+0020,1","-0050,1","99999,9",,,,,,"10300,1,99999,9",,,,"MET053METAR ZSSS 131230Z 01004MPS CAVOK 02/M05 Q1030 NOSIG="
"58367099999","2022-01-13T13:00:00","4","31.197875","121.336319","3.04","HONGQIAO INTERNATIONAL, CH","FM-15","99999","V020","010,1,N,0040,1","99999,9,9,Y","009900,5,9,9","+0010,1","-0050,1","99999,9",,,,,,"10300,1,99999,9",,,,"MET053METAR ZSSS 131300Z 01004MPS CAVOK 01/M05 Q1030 NOSIG="
"58367099999","2022-01-13T13:30:00","4","31.197875","121.336319","3.04","HONGQIAO INTERNATIONAL, CH","FM-15","99999","V020","010,1,N,0030,1","99999,9,9,Y","009900,5,9,9","+0010,1","-0050,1","99999,9",,,,,,"10300,1,99999,9",,,,"MET053METAR ZSSS 131330Z 01003MPS CAVOK 01/M05 Q1030 NOSIG="
"58367099999","2022-01-13T14:00:00","4","31.197875","121.336319","3.04","HONGQIAO INTERNATIONAL, CH","FM-15","99999","V020","360,1,N,0040,1","99999,9,9,Y","009900,5,9,9","+0010,1","-0050,1","99999,9",,,,,,"10300,1,99999,9",,,,"MET053METAR ZSSS 131400Z 36004MPS CAVOK 01/M05 Q1030 NOSIG="
"58367099999","2022-01-13T14:30:00","4","31.197875","121.336319","3.04","HONGQIAO INTERNATIONAL, CH","FM-15","99999","V020","360,1,N,0030,1","99999,9,9,Y","009900,5,9,9","+0000,1","-0050,1","99999,9",,,,,,"10300,1,99999,9",,,,"MET053METAR ZSSS 131430Z 36003MPS CAVOK 00/M05 Q1030 NOSIG="
"58367099999","2022-01-13T15:00:00","4","31.197875","121.336319","3.04","HONGQIAO INTERNATIONAL, CH","FM-15","99999","V020","360,1,N,0030,1","99999,9,9,Y","009900,5,9,9","+0000,1","-0050,1","99999,9",,,,,,"10300,1,99999,9",,,,"MET054METAR ZSSS 131500Z 36003MPS CAVOK M00/M05 Q1030 NOSIG="
"58367099999","2022-01-13T15:30:00","4","31.197875","121.336319","3.04","HONGQIAO INTERNATIONAL, CH","FM-15","99999","V020","360,1,N,0020,1","99999,9,9,Y","009900,5,9,9","+0000,1","-0050,1","99999,9",,,,,,"10300,1,99999,9",,,,"MET053METAR ZSSS 131530Z 36002MPS CAVOK 00/M05 Q1030 NOSIG="
"58367099999","2022-01-13T16:00:00","4","31.197875","121.336319","3.04","HONGQIAO INTERNATIONAL, CH","FM-15","99999","V020","010,1,N,0020,1","99999,9,9,Y","009900,5,9,9","+0000,1","-0050,1","99999,9",,,,,,"10300,1,99999,9",,,,"MET053METAR ZSSS 131600Z 01002MPS CAVOK 00/M05 Q1030 NOSIG="
"58367099999","2022-01-13T16:30:00","4","31.197875","121.336319","3.04","HONGQIAO INTERNATIONAL, CH","FM-15","99999","V020","010,1,N,0030,1","99999,9,9,Y","009900,5,9,9","-0010,1","-0050,1","99999,9",,,,,,"10300,1,99999,9",,,,"MET054METAR ZSSS 131630Z 01003MPS CAVOK M01/M05 Q1030 NOSIG="
"58367099999","2022-01-13T17:00:00","4","31.197875","121.336319","3.04","HONGQIAO INTERNATIONAL, CH","FM-15","99999","V020","020,1,N,0040,1","99999,9,9,Y","009900,5,9,9","+0000,1","-0050,1","99999,9",,,,,,"10300,1,99999,9",,,,"MET054METAR ZSSS 131700Z 02004MPS CAVOK M00/M05 Q1030 NOSIG="
"58367099999","2022-01-13T17:30:00","4","31.197875","121.336319","3.04","HONGQIAO INTERNATIONAL, CH","FM-15","99999","V020","020,1,N,0030,1","99999,9,9,Y","009900,5,9,9","-0010,1","-0050,1","99999,9",,,,,,"10300,1,99999,9",,,,"MET054METAR ZSSS 131730Z 02003MPS CAVOK M01/M05 Q1030 NOSIG="
"58367099999","2022-01-13T18:00:00","4","31.197875","121.336319","3.04","HONGQIAO INTERNATIONAL, CH","FM-15","99999","V020","360,1,N,0030,1","99999,9,9,Y","009900,5,9,9","-0010,1","-0050,1","99999,9",,,,,,"10300,1,99999,9",,,,"MET054METAR ZSSS 131800Z 36003MPS CAVOK M01/M05 Q1030 NOSIG="
"58367099999","2022-01-13T18:30:00","4","31.197875","121.336319","3.04","HONGQIAO INTERNATIONAL, CH","FM-15","99999","V020","010,1,N,0030,1","99999,9,9,Y","009900,5,9,9","-0010,1","-0050,1","99999,9",,,,,,"10300,1,99999,9",,,,"MET054METAR ZSSS 131830Z 01003MPS CAVOK M01/M05 Q1030 NOSIG="
"58367099999","2022-01-13T19:00:00","4","31.197875","121.336319","3.04","HONGQIAO INTERNATIONAL, CH","FM-15","99999","V020","030,1,N,0020,1","99999,9,9,Y","009900,5,9,9","+0000,1","-0050,1","99999,9",,,,,,"10300,1,99999,9",,,,"MET054METAR ZSSS 131900Z 03002MPS CAVOK M00/M05 Q1030 NOSIG="
"58367099999","2022-01-13T19:30:00","4","31.197875","121.336319","3.04","HONGQIAO INTERNATIONAL, CH","FM-15","99999","V020","999,9,V,0010,1","99999,9,9,Y","009900,5,9,9","-0010,1","-0050,1","99999,9",,,,,,"10290,1,99999,9",,,,"MET054METAR ZSSS 131930Z VRB01MPS CAVOK M01/M05 Q1029 NOSIG="
"58367099999","2022-01-13T20:00:00","4","31.197875","121.336319","3.04","HONGQIAO INTERNATIONAL, CH","FM-15","99999","V020","050,1,N,0020,1","99999,9,9,Y","009900,5,9,9","-0010,1","-0060,1","99999,9",,,,,,"10290,1,99999,9",,,,"MET054METAR ZSSS 132000Z 05002MPS CAVOK M01/M06 Q1029 NOSIG="
"58367099999","2022-01-13T20:30:00","4","31.197875","121.336319","3.04","HONGQIAO INTERNATIONAL, CH","FM-15","99999","V020","070,1,N,0020,1","99999,9,9,Y","009900,5,9,9","+0000,1","-0060,1","99999,9",,,,,,"10290,1,99999,9",,,,"MET053METAR ZSSS 132030Z 07002MPS CAVOK 00/M06 Q1029 NOSIG="
"58367099999","2022-01-13T21:00:00","4","31.197875","121.336319","3.04","HONGQIAO INTERNATIONAL, CH","FM-15","99999","V020","050,1,N,0040,1","99999,9,9,Y","009900,5,9,9","+0010,1","-0050,1","99999,9",,,,,,"10280,1,99999,9",,,,"MET053METAR ZSSS 132100Z 05004MPS CAVOK 01/M05 Q1028 NOSIG="
"58367099999","2022-01-13T21:30:00","4","31.197875","121.336319","3.04","HONGQIAO INTERNATIONAL, CH","FM-15","99999","V020","050,1,N,0030,1","99999,9,9,Y","009900,5,9,9","+0010,1","-0060,1","99999,9",,,,,,"10280,1,99999,9",,,,"MET053METAR ZSSS 132130Z 05003MPS CAVOK 01/M06 Q1028 NOSIG="
